id,name,secondaryName,propertyNumber,streetAddress,municipalityCode,extraInfo,latitude,longitude
11045,Parkeringen vid pizzabutiken,,,Frejavägen,0114,,59.513491498998114,17.930354788447218
11049,Maria Krantzons väg,,,Maria Krantzons väg,0114,,59.51838519780815,17.92921964895709
15657,Smedby ÅVC (Endast tillgänglig under ÅVC:ns öppettider),,,Karins väg 2,0114,,59.503011540411784,17.918545016201136
16478,Sandavägen/Breddenvägen,,,Sandavägen 51,0114,,59.511766606117725,17.950509538015517
11118,Brottby Pendlarparkering,,KARBY 3:2,"Lindvägen 1A, 186 70, ",0115,,59.56023,18.22809
11120,Vallentuna Centrum ,Centrumparkeringen,VALLENTUNA-RICKEBY 1:3,"Vikingavägen 2, 186 32",0115,,59.53555,18.08005
15506,LÖT grovavfallspunkt,,LÖT 1:1,Lötvägen 1,0115,Återvinningscentral,59.63354,18.31926
17438,Vallentuna Ishall/IP,Åbyholm,VALLENTUNA-ÅBY 1:174,"Parkvägen 2, 186 48",0115,,59.534934,18.0951
99247,Tallåsvägen,,BÄLLSTA 2:807,"Tallåsvägen 16, 186 51",0115,,59.51192,18.06795
199009288,"ÅVS Margretelunds Centrum, Favvan",,TRÅSÄTTRA 1:852,Muskötvägen 28,0117,,59.4718839498573,18.3318110385189
199009289,ÅVS Färjelägret Ljusterö,,MÖRTSUNDA 1:2,Ljusterövägen 1,0117,,59.5417470707416,18.5921053226447
199009293,ÅVS Svinninge; etableringsytan nära handeln,,SVINNINGE 7:194,Svinningevägen 78 B,0117,,59.4483978142584,18.2648035872026
199009294,ÅVS Rydbo Station,,RYDBOHOLM 11:1,Brovallsvägen/Björkvägen,0117,,59.465589447926,18.1841212304797
199009297,ÅVS Manfred Bondes Väg P-plats,,TRÅSÄTTRA 1:14,Manfred Bondes Väg,0117,,59.4694787218009,18.3519002054301
199009299,ÅVS Korsgärdesvägen/över vägen från Willys,,RUNÖ 7:263,Korsgärdesvägen 8,0117,,59.4897821536547,18.2778987230537
199009302,LIP Bergavägen 24,,BERGA 6:222,Bergavägen 24,0117,,59.4840447503919,18.3041885915859
199009304,LIP Frejvägen/Sigurdsvägen,,TÄLJÖ 5:1,Frejvägen/Sigurdsvägen,0117,,59.4654972404101,18.2461411725223
199009306,LIP Hildestrandsvägen/Åkerstorpsvägen,,ÅKERSTORP 31:1,Hildestrandsvägen/Åkerstorpsvägen,0117,,59.4949808868786,18.2789848208642
199009307,LIP Mitt emot Hödervägen 13,,TUNA 11:30,Hödervägen 13,0117,,59.4613681228105,18.316954219428
199009309,LIP Malvavägen parkering,,HACKSTA 1:71,Malvavägen,0117,,59.4878823682039,18.305439434059
199009311,LIP Murkelvägen mitten,,SKÅNSTA 3:1,Murkelvägen,0117,,59.4981260886313,18.34213343746
199009315,LIP Solskiftesvägen (i början),,SJÖKARBY 1:1,Solskiftesvägen,0117,,59.5036478095662,18.307676049349
199009316,LIP Slussbrovägen 18 parkering,,RUNÖ 7:60,Slussbrovägen 18,0117,,59.4874576798679,18.2834115022443
199009317,LIP Spånlötsvägen 4,,SJÖKARBY 2:1,Spånlötsvägen 4,0117,,59.4979329870065,18.3101398044003
199009322,LIP Västra Banvägen (mittemot 22),,TUNA 3:79,Västra Banvägen,0117,,59.4767949641446,18.3041554776962
199009324,LIP Tråsättravägen/Malmstigen  ,,MARGRETELUND 1:14,Tråsättravägen/Malmstigen ,0117,,59.4628552420207,18.3402725966794
199009341,LIP Sörgårdsvägen (109),,BERGA 11:1,Sörgårdsvägen 109,0117,,59.4813780512113,18.3117095636365
199009342,LIP Bivägen vändplan,,BERGA 11:1,Bivägen,0117,,59.4839088097461,18.3186609761652
199009532,LIP Åsättra Brygga,,LJUSTERÖ-ÅSÄTTRA 3:1,Åsättra bryggväg 99,0117,,59.505011954893,18.6378657732279
11325,Munkmora/Skyttevägen,,,Skyttevägen 25-27,0120,,59.333710909434714,18.39900814540304
11329,Holmviksskogen Fyren,,,Skärgårdsvägen,0120,,59.31817772824048,18.409126957356374
11331,"Långvik, Ingarö",,,Långviksvägen,0120,,59.243032006016065,18.508303675786937
12213,Djurö Björkås,,,Björkås centrum,0120,,59.31134106358991,18.700640600541433
12216,Stavsnäs Vinterhamn,,,Stavsnäs vinterhamn,0120,,59.2860128360515,18.702794782739865
12351,Hästhagen,,,Gamle Svartens väg 1,0120,,59.322484591871635,18.394536018204033
16184,Hemmestatorp,,,Värmdövägen,0120,,59.328926487384564,18.501046569494257
16922,Villagatan/Kvarntorpsvägen,,,VIllagatan/Kvarntorpsvägen,0120,,59.32183674988605,18.38749753411444
17343,Sollenkroka Hamn,,,Lövdalsvägen,0120,,59.372667905888996,18.698149496824794
15545,Hemmansvägen,,VIKSJÖ 2:594,Hemmansvägen 2,0123,,59.4164924453,17.8074114656
16289,Nettovägen,,VEDDESTA 2:83,Nettovägen 2,0123,,59.4077535347,17.841732523
17170,Smedvägen,,KALLHÄLL 1:1 och 7:13,Smedvägen 2,0123,,59.4579961793,17.8052125646
5,Ponnyvägen,,JAKOBSBERG 11:5,Ponnyvägen 2,0123,,59.431075,17.830327
7,Aspnäsvägen västra,,JAKOBSBERG S:15,Aspnäsvägen 18-20,0123,,59.4262757714,17.8437357452
8268,Tömvägen/Däckelvägen,,JAKOBSBERG 11:5,Däckelvägen 31,0123,,59.4335452692,17.8442637015
8272,Lantmäterivägen,,VIKSJÖ 3:8,Lantmäterivägen,0123,,59.4141417281,17.791037993
7472,Tappström infartsparkering,,TAPPSTRÖM 2:1,Tappströmsvägen 1,0125,,59.2910938218619,17.8069941672297
2063233,ÅVS 16373 Glömstavägen/Gustav Adolfsvägen,,STENYXAN 4,Gustav Adolfsvägen 56,0126,,59.2376983233466,17.9120611584809
96681,ÅVS 8098,,KRÅKVIK 2:5,Ejdervägen/Häradsvägen 111,0126,,59.2682887434995,17.9569597805741
96691,ÅVS 8091 Busshållplats,,GLADÖ 1:3,Gladövägen /Hökärrsvägen,0126,,59.195541871212,18.006508128317
97256,ÅVS 8112 Vändplan vid Loftv 7-8,,VÄSTRA SKOGÅS 1:2,Loftvägen,0126,,59.2214646877124,18.1414948072834
97257,ÅVS 8105  P Plats,,KÖKET 2,Studievägen 1,0126,,59.2210140771344,18.1489740371505
6289,ÅVS 13328  Hörna Adler Salvius V,,TULLINGE 16:119,Anna Maria Roosväg,0127,,59.2149370376147,17.8935590919468
96759,ÅVS 7317  Tullinge,,TULLINGE 21:44,Smedvägen/Pålamalmsvägen,0127,,59.2020342784669,17.9248247127879
97200,ÅVS 7249  Hallunda,,HALLUNDA 4:34,Trädesvägen 14,0127,,59.2459381621104,17.8224085503716
95667,ÅVS 7926 Vendelsö,,VENDELSÖ 3:1714,Grindstuvägen/apelvretasvägen,0136,,59.2039683784708,18.2018272653032
95692,ÅVS 7938  Norra Parkeringen,,SÖDERBYMALM 3:21,Handen centrum norra,0136,,59.1721583558513,18.1402055844855
95712,ÅVS 7946 Parkeringsplats,,KALVSVIK 16:1,Södra jordbrovägen 111,0136,,59.1369491162543,18.1271329357762
95719,ÅVS 7977  Baksidan Kyrkvägen,,ÅBY 1:52,Västerhaninge centrum,0136,,59.1224918553724,18.1075825572078
96615,ÅVS 7953 Ludvigsberg,,LUDVIGSBERG 8:1,Högvreten 7/skarpavägen  muskö,0136,,59.0031526069981,18.129367640753
98382,ÅVS 7939  Infart från Gamla Nynäsvägen,,TÄCKÅKER 1:146,Hallstens väg,0136,,59.1894818178157,18.1429347147905
10875,ÅVS Alléplan,,Kumla 69:26,Alléplan Sortering ljuskällor,0138,,59.2242380055332,18.2019400594069
10878,ÅVS Granängsringen 25,,Näsby 4:1469,Granängsringen 20-25,0138,,59.234933012892,18.2320296678761
10885,ÅVS Tegvägen/Gudobroleden,,Näsby 50:1,Tegv/Gudöbroleden Sortering ljuskällor,0138,,59.2136451662725,18.2077950064769
10890,ÅVS Breviksvägen/Tegelbruksvägen Tyresö,,Trinntorp 1:1,Rödhakevägen 24 Sortering ljusk.,0138,,59.22762157463,18.3536190904265
15926,ÅVS Lagergrens väg/ vid Sporthall Tyresö,,Tyresö 1:544,Lagergrens v Sortering ljuskällor,0138,,59.2417385300722,18.2856226266089
16519,ÅVS Bollmora Allé Tyresö,,Bollmora 2:1,Bollmora Allé Sortering ljuskällor,0138,,59.2462747581595,18.2245713364822
17207,ÅVS Myggdalsvägen/Hajstigen Tyresö,,Bollmora 2:1,Myggdalsv/Hajstigen Sortering ljuskällor,0138,,59.242345972263,18.2380200244191
11030,Vändplats,,,Finnstabergsvägen,0139,,59.517843911260144,17.64976974275293
15570,Brunna Kretsloppscentral,,,Energivägen 10,0139,,59.510017788238244,17.744919210812085
15571,Skällsta Kretsloppscentral,,,Ullevivägen 6,0139,,59.52422833235287,17.624002212071677
15886,"Kockbacka, p-plats",,,Begoniaslingan,0139,,59.51045384837326,17.655427606499124
38465,Lundavägen,,,Lundavägen,0140,,59.1753967084597,17.4361650595052
38466,Norra Stationsvägen,,,Norra Stationsvägen,0140,,59.1765838203392,17.4401025491171
38467,Maskinförarevägen,,,Maskinförarevägen,0140,,59.1848124237927,17.4033911542281
38468,Turinge,,,Turinge,0140,,59.1976156835913,17.4368969723306
10912,ÅVS Viggbygärdet,,,Södervägen 55 ,0160,,59.44667,18.09528
15796,ÅVS Skarpäng,,,Enhagsvägen 24,0160,,59.43972,18.035
15818,ÅVS Vallatorp,,,Vallatorpsvägen 6,0160,,59.46556,18.04389
15930,ÅVS Nytorp,,,Nytorpsvägen (Nytorps industriområde),0160,,59.43361,18.07778
16070,ÅVS Bergtorp,,,Bergtorpsvägen 43,0160,,59.44167,18.09722
16473,ÅVS Ullna,,,Ullnavägen,0160,,59.47194,18.12833
17331,ÅVS Ensta,,,Mårdvägen 2,0160,,59.44944,18.06278
17646,ÅVS Täby park,,,Sadelgatan 20,0160,,59.44278,18.09361
16059,"Vasavägen, vid Lidl Stocksund",,STOCKSUND 2:124,Vasavägen/Bengt Färgares väg,0162,,59.38611,18.04444
17697,"Mörby Centrum, södra parkeringen",,DANDERYD 3:177,Mörby Centrum,0162,,59.39639,18.03778
12833,Timotejvägen,,NORRVIKEN 2:1,Timotejvägen 15,0163,,59.480244,17.908565
14871,Vid Viby Skola,,VIBY 11:1,Kornettvägen,0163,,59.457356,17.890478
15824,Silverdals kapell,,HELENELUND 7:5,Sollentunavägen 19,0163,,59.40491,17.974701
15987,Sollentunavallen,,TUREBERG 29:54,Arenavägen 1,0163,,59.435403,17.951227
16459,ICA Maxi Häggvik,,STÄDET 1,Mossvägen 1,0163,,59.438046,17.933908
17110,Norrsätra verksamhetsområde,,TÖRNSKOGEN 3:2,Bergväggenvägen 1,0163,,59.463761,17.977695
9903,Flintlåsvägen/Lodvägen,,EDSBERG 10:30,Flintlåsvägen 1,0163,,59.44806,17.96472
9907,Rudbecks väg /Skoldagsväg,,EDSBERG 10:8,Rudbecksväg 143A,0163,,59.44167,17.96861
9921,Rotebro Centrum,,NORRVIKEN 2:1,Ragnar Lundqvists väg,0163,,59.478683,17.911
99214,Hedemoravägen,,VIBY 12:15,Hedemoravägen,0163,,59.460054,17.910425
585071,Återvinningsstation 10009,,KYRKBYN 7,Gliavägen 128 ,0180,,59.353705697553,17.9172463874747
585076,Återvinningsstation 10020,,RIBBAN 1,Tallkrogsvägen 41 ,0180,,59.2746606709849,18.091457757034
585077,Återvinningsstation 10022,,HÖGAFFELN 18,Stockholmsvägen 3  ,0180,,59.286174247052,18.0872158570191
585079,Återvinningsstation 10026,,HÖBÄRGNINGEN 15,Mellanvägen 8  ,0180,,59.2812452444891,18.0809564676505
585080,Återvinningsstation 10028,,ADELSÖ 2,Filipstadsbacken 70,0180,,59.2384315397567,18.1063462435578
585093,Återvinningsstation 18004,,SKÖRDETRÖSKAN 1,Åstorpsringen 26,0180,,59.2846414101931,18.0949978787956
585099,Återvinningsstation 10036,,LISÖ 1,Färnebogatan 66  ,0180,,59.2458468122506,18.0972497953578
585100,Återvinningsstation 10038,,SVEDJELANDET 3,Vintrosagatan 15  ,0180,,59.2614774951223,18.0176021157403
585104,Återvinningsstation 10042,,KÄRRTORP 1:6,Holmögaddsvägen 1  ,0180,,59.2829372011076,18.1151977317665
585107,Återvinningsstation 10048,,HAMMARBYHÖJDEN 1:1,Karlskronavägen 2  ,0180,,59.2934596021058,18.1148602118564
585110,Återvinningsstation 10055,,BRÄNNERIET 3,Reimersholmsgatan 10  ,0180,,59.3180367740257,18.0226345580812
585111,Återvinningsstation 10057,,STÄMJÄRNET 1,Heleneborgsgatan 12,0180,,59.3195510054224,18.040965011413
585112,Återvinningsstation 10059,,BULTEN 14,Borgargatan 6  ,0180,,59.3175828133807,18.0344252709019
585114,Återvinningsstation 10063,,LEOPOLDS LYRA 1,Ålgrytevägen 35  ,0180,,59.2993369420693,17.9414184389068
585117,Återvinningsstation 10066,,STENSBORG 24,Hägerstensvägen 302,0180,,59.300538976837,17.9636958330153
585123,Återvinningsstation 10082,,MASKEN 9,Bohusgatan 57  ,0180,,59.3073176521343,18.0838785775988
585124,Återvinningsstation 10083,,MOROTEN 5,Ringvägen 163  ,0180,,59.3102326478019,18.087148248178
585132,Återvinningsstation 10084,,SÖDERMALM 8:57,Färgarplan  ,0180,,59.3102168830935,18.0950033985129
585149,Återvinningsstation 99232,,SKRIDSKON 1,Lugntorpsvägen 45 ,0180,,59.2948756126984,17.9641867395016
585150,Återvinningsstation 99231,,TÄPPAN 1,Bjurholmsgatan 16  ,0180,,59.3103518119739,18.0794606600481
585168,Återvinningsstation 17109,,PIEDESTALEN 3,Maltesholmsvägen 144  ,0180,,59.3603334115701,17.8331042435763
585173,Återvinningsstation 16943,,STORA KATRINEBERG 16,Liljeholmsstranden 5 ,0180,,59.3140926440461,18.0272411278066
585177,Återvinningsstation 10097,,AKALLA 4:1,Villmanstrandsgatan 7  ,0180,,59.4134749492668,17.9170121009194
585179,Återvinningsstation 10098,,TROMSÖ 3,Narviksgatan 11  ,0180,,59.4132562968611,17.9235686571444
585182,Återvinningsstation 10102,,STYCKGJUTERIET 4,Wennerbergsgatan 10,0180,,59.3270475306703,18.0130429597214
585188,Återvinningsstation 16728,,VATTUMANNEN 31,Timmermansgatan 27  ,0180,,59.3169836151313,18.0607936652715
585191,Återvinningsstation 10107,,BORGARE 1,Hjalmar Söderbergs Väg 14  ,0180,,59.3330152227021,18.0017178508769
585199,Återvinningsstation 16643,,PLANKAN 24,Varvsgatan 21 ,0180,,59.3172276349804,18.0404057640136
585200,Återvinningsstation 10109,,DAMMSUGAREN 1,Essinge Brogata 37,0180,,59.3250676782381,18.0034429454825
585218,Återvinningsstation 16640,,TRÖSTLÖSA 1,Stenkullavägen 2  ,0180,,59.3186327676528,17.9898130430082
585219,Återvinningsstation 10126,,LILJEHOLMEN 1:1,Lusuddsvägen 4  ,0180,,59.316116493198,18.0151512226553
585222,Återvinningsstation 16638,,SEGELBÅTEN 9,Polhemsgatan 37 ,0180,,59.3352225777074,18.0390598881291
585224,Återvinningsstation 16590,,RÖDBY 2,Jyllandsgatan 141 ,0180,,59.4022316132848,17.9331388726359
585227,Återvinningsstation 16468,,SÅGEN 22,Hornsgatan 182 ,0180,,59.3150911577495,18.0322167218678
585239,Återvinningsstation 16100,,KLOTEN 2,Åmänningevägen 64 ,0180,,59.2964755046896,18.0416799151312
585247,Återvinningsstation 15877,,GETEN 21,Frejgatan 31  ,0180,,59.3472360143812,18.0567790806913
585252,Återvinningsstation 15755,,MORÄNEN 1,Sundbyvägen 12 ,0180,,59.3636615409483,17.9039842650132
585257,Återvinningsstation 15721,,SKRIVMASKINEN 8,Solleftegatan 5  ,0180,,59.3581075867572,17.8882506967117
585259,Återvinningsstation 15718,,ÄSSJAN 11,Dalagatan 55  ,0180,,59.3462472200971,18.0410485868706
585263,Återvinningsstation 10129,,BOTTENSTOCKEN 8,Gröndalsvägen 126 ,0180,,59.3149052130694,17.9971670668452
585273,Återvinningsstation 10143,,SÖDERMALM 9:1,Älvsborgsgatan 6 ,0180,,59.263142144553,18.1235185079063
585275,Återvinningsstation 10146,,VASASTADEN 2:100,Tegnérgatan 27 ,0180,,59.3399652562263,18.0602592119566
585276,Återvinningsstation 10147,,GETINGEN 14,Sveavägen 143,0180,,59.3498607129197,18.0490791930999
585279,Återvinningsstation 15502,,GUBBÄNGEN 1:1,Ramvägen 23 ,0180,,59.2636722493818,18.0894784551507
585284,Återvinningsstation 10152,,STOLMAKAREN 14,Luntmakargatan 80 ,0180,,59.3426747401298,18.0585327687869
585285,Återvinningsstation 10154,,KADETTEN 2,Rörstrandsgatan 64  ,0180,,59.3432652791843,18.0267074726662
585288,Återvinningsstation 10174,,FALKHOLMEN 5,Falkholmsgränd 41 ,0180,,59.2793316865408,17.8966720239619
585291,Återvinningsstation 10181,,AKALLA 4:1,Solhems Hagväg 8 ,0180,,59.386647137891,17.9027629433879
585294,Återvinningsstation 15478,,ÄLVSJÖ 2:5,Långsjövägen 30  ,0180,,59.2735334759105,17.9948099295715
585297,Återvinningsstation 15360,,VOLONTÄREN 16,Rörstrandsgatan 32 ,0180,,59.3408048161432,18.0293382223317
585299,Återvinningsstation 10185,,BROMSTEN 8:1,Duvbovägen 147 ,0180,,59.3832932856639,17.9097148783364
585300,Återvinningsstation 15350,,FÖRMAKET 1,Maltesholmsvägen 85 ,0180,,59.3656113249627,17.8432613537621
585302,Återvinningsstation 10189,,CALIXTUS 10,Arrendevägen 32 ,0180,,59.3655260923206,17.916659770341
585308,Återvinningsstation 15009,,FABRIKEN 29,Folkskolegatan 16  ,0180,,59.3165382844003,18.0306580962875
585321,Återvinningsstation 14817,,PAPPERSRULLEN 1,Götaforsvägen 46,0180,,59.2691247655996,18.0583913359721
585326,Återvinningsstation 10206,,ÖRBY 4:1,Ripsavägen 34 ,0180,,59.2669224151031,18.0315474854021
585331,Återvinningsstation 10223,,GLADA ÄNKAN 1,Basgränd 1 ,0180,,59.3833501929828,17.8653537319639
585335,Återvinningsstation 10242,,RUNGELN 2,Sköntorpsvägen 18 ,0180,,59.2981409008744,18.0668303880902
585338,Återvinningsstation 14788,,TRANEBERG 1:13,Margretelundsvägen 12,0180,,59.3345824818136,17.9874867430879
585342,Återvinningsstation 14754,,BAKBORDET 1,Perstorpsvägen 77,0180,,59.2560884584625,18.1067960897335
585348,Återvinningsstation 14430,,TINGFAST 39,Stamdikesvägen 6  ,0180,,59.3742863021544,17.8693251877472
585355,Återvinningsstation 14403,,MOLNTAPPEN 56,Tätorpsvägen 162  ,0180,,59.2671545917007,18.1392091358716
585356,Återvinningsstation 14402,,SKRUBBA 1:1,Skrubba Allé 4,0180,,59.24176333131,18.1844455809194
585357,Återvinningsstation 14400,,SKARPNÄCKS GÅRD 1:1,Orhemsvägen 31,0180,,59.2580071310729,18.1365594314322
585358,Återvinningsstation 14385,,SOMENS KVARN 1,Ludvigsbergsgatan 24,0180,,59.3197887478312,18.0546114197952
585359,Återvinningsstation 14383,,LILJEHOLMEN 1:1,Grenljusbacken 5 ,0180,,59.3142666636369,18.0147060707584
585362,Återvinningsstation 14382,,MANHEM 3,Stagneliusvägen 56 ,0180,,59.3302145358918,18.0000285975832
585363,Återvinningsstation 14380,,VEJLE 1,Vejlegatan 1 ,0180,,59.4016190235123,17.9439765501789
585365,Återvinningsstation 14375,,GRIMSTA 1:2,Kvarnhagsgatan 52 ,0180,,59.3663948279087,17.8501746923025
585367,Återvinningsstation 14372,,VITMÅRAN 1,Bergmyntegränd 5 ,0180,,59.3892812288105,17.8012242881054
585369,Återvinningsstation 14370,,BACKLÖKEN 38,Backlöksvägen 45 ,0180,,59.3934789468754,17.8099214438348
585370,Återvinningsstation 14369,,ISVAKEN 1,Broddgränd 1 ,0180,,59.290391692091,17.970488806997
585372,Återvinningsstation 14361,,MILJÖVÅRDEN 1,Spångavägen 277 ,0180,,59.3613911630357,17.9054622809462
585380,Återvinningsstation 16588,,SOLHEM 16:1,Dagsverksvägen 244 ,0180,,59.3778157621835,17.9067271283392
585385,Återvinningsstation 10273,,KAMPEMENTET 4,Kampementsgatan 2 ,0180,,59.3464328179007,18.1025415212895
585387,Återvinningsstation 10268,,ERIKSBERG 2,Runebergsgatan 1 ,0180,,59.3409047000674,18.0661667072739
585390,Återvinningsstation 10261,,JULGRÖTEN 2,Annebodavägen 66 ,0180,,59.2875955472821,18.0267127272884
585398,Återvinningsstation 10111,,SLAGGEN 1,Fridhemsgatan 16  ,0180,,59.3237952558995,18.0021173987659
585486,Återvinningsstation 10112,,KRISTINEBERG 1:4,Geijersvägen 20,0180,,59.3325453972896,18.0115603417492
586811,Återvinningsstation 17552,,NORRMANNEN 7,Björnsonsgatan 138 ,0180,,59.3488735250341,17.8799881513719
587074,Återvinningsstation 17377,,ENSKEDE GÅRD 1:1,Bussens Väg 2,0180,,59.2859704721803,18.0462919237894
587075,Återvinningsstation 17363,,BREDÄNG 1:2,Strömsätravägen 8,0180,,59.2858239547101,17.9377578053197
587341,Återvinningsstation 18006,,NORRMALM 4:58,Östra Järnvägsgatan 24  ,0180,,59.3338283820986,18.0544831568735
587348,Återvinningsstation 18005,,ÖSTERMALM 2:118,Artillerigatan 11  ,0180,,59.3335736624085,18.0805610663273
587360,Återvinningsstation 16573,,ULVSUNDA 1:1,Koloniföreningen Linnea,0180,,59.3497405291736,17.9285717309984
587972,Återvinningsstation 18010,,SKARPNÄCKS GÅRD 1:1,Rusthållarvägen 155,0180,,59.2734465771415,18.1343106849628
13851,Bragevägen,,Bragevägen,Bragevägen,0181,,59.2119132122455,17.6302879143999
13852,Balticvägen,,Balticvägen,Balticvägen,0181,,59.1756533734483,17.6524543832964
13856,Ekeby,,Ekeby,Ekeby,0181,,59.2517642736369,17.5217420764873
13864,Södertäljevägen,,Södertäljevägen,Södertäljevägen,0181,,59.0872465793217,17.5776438791962
13874,Mörköbron,,Mörköbron,Mörköbron,0181,,58.9892921187628,17.6235324468081
13882,Vretvägen,,Vretvägen,Vretvägen,0181,,59.0968493424269,17.5634140380542
13890,Rosenhöjdsvägen,,Rosenhöjdsvägen,Rosenhöjdsvägen,0181,,59.1998756921634,17.6520392840544
13891,Höglandsvägen,,Höglandsvägen,Höglandsvägen,0181,,59.1960255985237,17.6499586833515
12206,Trillans tidningshus,,.,Trillans väg 1,0182,,59.3174348154607,18.1730374951043
12207,Diligensvägen 38- 72,,SICKLAÖN 14:1,Diligensvägen vändplats vid garaget 38 72,0182,,59.3155296346094,18.1730024241181
12210,Skarpövägen,,ORMINGE 39:1,Skarpövägen 1,0182,,59.3336762020619,18.263052736305
14570,Bussvändplan/Saltängens skola,,SICKLAÖN 40:14,Hägervägen/Tranvägen -,0182,,59.3087030739663,18.2109545588188
14571,Apportvägen,,SICKLAÖN 40:13,Apportvägen,0182,,59.3268628459188,18.2042115612876
14832,Lastbilsparkeringen,,ERSTAVIK 26:1,Fisksätravägen,0182,,59.2937602747228,18.250537113635
15374,Rensättravägen,,KUMMELNÄS 11:118,Rensättravägen/Kummelvägen,0182,,59.3440019156432,18.2707288221577
15767,Österviks ÅVC,,NACKA ERSTAVIK 25:1,"Saltsjöbadsvägen, inf vid Östervik",0182,,59.2922767674337,18.2342764997839
15781,Lidl Nacka/Orminge,,ORMINGE 61:1,Värmdövägen 691,0182,,59.3233704147359,18.2567826197656
16747,ICA Maxi Skvaltan,,SICKLAÖN 386:5 386:6,Per Hallströms väg 2,0182,,59.3113849521221,18.1738850389654
16890,Ältabergsvägen/Anemonvägen,,ÄLTA 10:1,Ältabergsvägen,0182,,59.2478667592316,18.1901169758964
16951,"Ektorp Centrum, vid ICA",,SICKLAÖN 40:14,Gamla Landsvägen 8,0182,,59.3117905656909,18.2025873224092
17144,Sjökvarnsbackens vändplan,,SICKLAÖN 37:4,Sjökvarnsbacken,0182,,59.3138752708012,18.1071467213181
17602,Sickla köpkvarter Planiavägen,,SICKLAÖN 117:17,Planiavägen 5,0182,,59.3056412832999,18.1337050935963
19001,Åbroddsvägen,,VELAMSUND 14:1,Åbroddsvägen 2 A,0182,,59.3505548114911,18.2905472224588
19002,Fyrspannsvägen,,SICKLAÖN 368:3,Fyrspannsvägen 10 -18,0182,,59.3147307573896,18.1666257153153
9183,Älta Idrottsväg 2 ,,ÄLTA 9:27,Ältavägen/Älta Idrottsväg 2,0182,,59.262856099389,18.1803031883224
9184,Kolarängen,,ÄLTA 10:1,Ältavägen/Ulvsjövägen,0182,,59.2726459794035,18.1761870813276
11111,Returpunkt Sundbyberg,,Banken 8,Landsvägen 62,0183,"Här kan du bland annat lämna förpackningar, textil och saker återbruk, i den mängd du kan bära hit själv. Här finns även verktyg och symaskin för att lappa och laga. Sök efter Returpunkt på www.sorab.se för öppettider och mer information.",59.36143,17.96444
15372,Trädgårdsgatan,,Sundbyberg 2:4,"Trädgårdsgatan, mittemot nr 28",0183,,59.35722,17.96639
15377,Duvkullavägen,,Sundbyberg 2:26,"Duvkullavägen, mittemot nr 36",0183,,59.37139,17.94139
15479,Milstensvägen/Ursviksvägen,,Sundbyberg 2:40,"Milstensvägen 42, bredvid aktivitetsparken",0183,,59.38361,17.95556
16017,Ulriksdal,,Järva 2:2,Galoppvägen / Vallgatan,0184,,59.38064,18.00621
16105,"Gårdsvägen, mittemot 2B",,Hagalund 3:1,Gårdsvägen 2B,0184,,59.36545,18.01311
16158,Parkering nära korsning Östervägen/Tottvägen,,Råsunda 2:25,Östervägen 42,0184,,59.36881,17.99318
16162,Infanterigatan/Ängskärrsgatan,,Huvudsta 4:12,Infanterigatan 29,0184,,59.3518,17.99918
16170,Råsundavägen/Hasselparken,,Råsunda 3:1,Råsundavägen 138,0184,,59.36711,17.98601
16254,Parkering Kristinelundsvägen,,Huvudsta 3:1,Kristinelundsvägen/Armégatan,0184,,59.3494,17.99021
17182,"Jungfrudansen, vid utfarten",,Huvudsta 3:1,Jungfrudansen 1,0184,,59.34864,17.98511
9960,Solna Törnbacken/Fläderstigen,,Järva 2:15,Törnbacken/Fläderstigen,0184,,59.37732,18.00594
12638,Lidingövallens parkering,,Lidingö 5:178,Norra Kungsvägen,0186,,59.37472,18.155
12645,Larsberg vändslinga buss,,Fyrtornet 1,Larsbergsvägen 23,0186,,59.34611,18.1475
12646,Larsbergs centrum,,Fyrvaktaren 1,Larsbergstorg 2-6,0186,,59.34917,18.14389
12647,Breviks station,,Lidingö 11:419,Banvägen,0186,,59.34861,18.20444
15200,Käppala Jupitervägen,,Lidingö 11:18,Jupitervägen,0186,,59.35111,18.21944
15864,"Drottvägen, vid Prestogrillen",,Lidingö 7:244,Drottvägen,0186,,59.36694,18.14028
15948,"Ica Kvantum, Larsberg",,Radiofyren 1,Agavägen 1,0186,,59.35028,18.14472
16545,Stockby returpark (ÅVC),,Lidingö förrådet 6,Stockbyvägen 3,0186,,59.35639,18.17528
8815,Bo Gärde,,Lidingö 5:175,Gröstavägen på parkering vid Bo skola,0186,,59.37472,18.155
191756492,ÅVS Resarövägen/Löjviksvägen parkering,,YTTERBY 4:583,Löjviksvägen 18,0187,,59.4250656573625,18.329202543723
191756493,"ÅVS Kullön, Naturresarvat, parkeringen",,KULLÖ 1:4,Dammvägen 2,0187,,59.4141999621718,18.3094762897912
191756497,LIP Karl Martins Väg 20-22,,VAXÖN 1:26,Karl Martins Väg 26,0187,,59.4035290183018,18.3198557385932
191756501,ÅVS Rindö hamn,,RINDÖ 3:378,Västra Kasernvägen 1,0187,,59.3940286042966,18.4288836481915
191756502,ÅVS Blynäsvägen/Eriksövägen parkering,,VAXÖN 1:81,Snäckvägen 2,0187,,59.405610542071,18.3212289389809
191756503,ÅVS Biografen/Parkgrillen,,VAXÖN 1:81,Hamngatan 31,0187,,59.4044176877365,18.3464858629349
191756504,"LIP Lanthandel, Rindö",,RINDÖ 3:377,Rindövägen 40,0187,,59.3947260157465,18.3997125132214
191756505,"LIP Kullaskogsvägen, vändplan",,VAXÖN 1:14,Kullaskogsvägen 9,0187,,59.4064729781467,18.3169447248184
191756506,LIP Färjeplan Västerhamnen,,VAXÖN 1:1,Söderhamnsplan,0187,,59.4008464352686,18.3500571647813
191756507,LIP ICA Kronängsvägen,,VAXÖN 1:27,Kronängsvägen,0187,,59.4024333015585,18.3329743509595
13231,"Medborgarhuset IP, grisslehamn",,ÅVS fastighet,Medborgarvägen 2,0188,,60.0966711675105,18.8049973580819
15793,Salmunge ÅVC,,ÅVS fastighet,Salmunge gård 5223 mellan Finsta & Rimbo,0188,,59.7386069420443,18.447782836769
16014,Kyrkogårdsgatan/Stegelbäcksgatan,,ÅVS fastighet,Regementsvägen,0188,,59.7527787742461,18.6872171224277
17172,Vreta handelsplats,,ÅVS fastighet,Stora Björknäsvägen 1,0188,,59.7336109875733,18.7899961320527
9404,"Drottningdals skola, Roslagsbro",,ÅVS fastighet,Roslagsbrovägen 189,0188,,59.8366690162017,18.7405564885471
9407,Södersvik/Rådmansö bageributik,,ÅVS fastighet,Lågarövägen 1,0188,,59.7502773328026,18.911118225629
15986,Steningehöjden,,,Steningehöjdsvägen,0191,,59.62440651207625,17.79682511904021
17136,"Frejgatan, vid vändplan",,,Frejgatan 3,0191,,59.614351955776996,17.831824835230424
17303,Steninge Slottsby,,,Steninge slottsväg 152,0191,,59.60682362311594,17.80125556786526
9749,Aspvägen/Svampvägen,,,Aspvägen/Svampvägen,0191,,59.63957569723286,17.85053168668299
9751,Rosersbergs station,,,"Rosersbergsvägen 41-43, Rosersbergs station",0191,,59.583352842122615,17.880965221786486
9762,Stora Gatan/Vibyvägen,,,Vibyvägen,0191,,59.62227307453273,17.736566288678553
96631,ÅVS 16375 Vid Coop Parkering,,TORP 22:1,Kyrkgatan 1,0192,,59.008212678867,17.8071926161723
96634,ÅVS 9497 Parkeringsplats,,NYNÄSHAMN 2:1,Estövägen/Trollstigen,0192,,58.8957566301705,17.9282030660308
96642,ÅVS 9509 Vändplats,,"VANSTA 5:2, HALLÄNGEN 5",Ösmo centrum/Nybblevägen,0192,,58.9824657194661,17.893402091824
14894,Dyarne,,,Sjövägen,0305,,59.558464250620574,17.534360321864344
8173,Gamla järnvägsstationen/Mickes grill,,,Stockholmsvägen 1/Jan Fridegårds väg,0305,,59.57782393547039,17.512508941529095
8175,Åsleden/Fagerdalsvägen,,,Åsleden/Fagerdalsvägen,0305,,59.58024809424586,17.51388697257413
8179,Skolhyddan,,,Vibyskola,0305,,59.54767750014737,17.505044018037307
11056,"Alsike, Alsike station",,,Björkkällevägen/Finnvretsvägen,0330,,59.757798584775706,17.762123333188796
15827,Centralvägen Norra delen,,,Pendelparkeringen,0330,,59.7304126118213,17.785415330215386
16212,Gredelbyvägen;utanför Kretsloppsparken,,,Gredelbyvägen 25,0330,,59.73722504634533,17.800037285348793
988273,ÅVS 1642 Stationsvägen,,Västerlövsta Prästgård 1:13,Stationsvägen,0331,,59.940427255069,16.8490297336153
988278,ÅVS 1647 Stationsgatan 29,,Nora Prästgård 2:216,Stationsgatan 29,0331,,60.1577524440898,16.9293620291149
9000829,ÅVS Kyrkbyn,,,Backbrovägen 2,0360,Öppet dygnet runt,60.30038,17.46689
9000830,ÅVS Tobo,,,Skolvägen 1,0360,Öppet dygnet runt,60.2588,17.65121
9000831,ÅVS Månkarbo,,,Månkarbovägen 31,0360,Öppet dygnet runt,60.22843,17.46214
9000833,ÅVS Söderfors,,,Nygatan 18 D,0360,Öppet dygnet runt,60.38858,17.2435
9000835,ÅVS Skärplinge,,,Ol-anders väg 1,0360,Öppet dygnet runt,60.47098,17.76034
9000837,ÅVS Karlholmsbruk,,,Nöttövägen 1,0360,Öppet dygnet runt,60.51972,17.62553
9000839,ÅVS ÅVC Gatmot,,,Gåvastbo 102,0360,Öppettider finns på temab.tierp.se,60.29092,17.57717
4061350,"Björklinge centrum, Parkering",,BJÖRKLINGE 2:4,NÄRA SÖDRA LÅNGÅSVÄGEN 2,0380,,60.0288099684533,17.5525315639305
4061353,"Oxsätra, Handlarn",,OXSÄTRA 1:30,OXSÄTRA 29,0380,,60.0016770586061,17.3620544417967
4061354,Ramstalund reningsverk,,RAMSTA-LUND 10:1,NÄRA KYRKÄNGSVÄGEN 4,0380,,59.7959196968408,17.4427645625174
4061358,"Fålhagen, Willys",,FÅLHAGEN 1:34,NÄRA BJÖRKGATAN 4,0380,,59.8651368621082,17.6622490953112
4061368,Tuna Livs,,BÖRSTA 13:1,BÖRSTA 114 B,0380,,60.0234191696147,18.0675915109342
4061373,"Brantingsskolan, Parkering",,SALA BACKE 1:1,NÄRA HJALMAR BRANTINGSGATAN 37,0380,,59.8678356084417,17.6688423534532
4061380,Fyrislund ÅVC,,VAKSALA-NORRBY 5:1,ARKGATAN 14,0380,,59.8558387795741,17.7201274227992
4061385,Liljefors torg Lidl,,GRÄNBY 10:1,LILJEFORS TORG 2,0380,,59.8707174378531,17.6559384164796
4061386,Gnista ICA Maxi,,DANMARKS-KUMLA 9:1,VISTHUSVÄGEN 1,0380,,59.8431863488785,17.7127023267918
4061388,Sävja Nåntunavägen,,SÄVJA 1:55,NÄRA NÖTHÅRSVÄGEN 1,0380,,59.8178110000333,17.6960898790701
4061389,Lindbacken Ica,,VAKSALA-LUNDA 1:44,HAGTORPSVÄGEN 5,0380,,59.9114635398524,17.7405494805627
4061391,Bärby hage,,TUNA BACKAR 1:1,NÄRA BÄRBYGATAN 7,0380,,59.8814394057742,17.6208454855253
4061398,Luthagen Fyrisskolan,,LUTHAGEN 1:4,NÄRA GÖTGATAN 23,0380,,59.8663088640725,17.6227919296258
4061399,Boländerna Stadium,,FYRISLUND S:1,NÄRA RAPSGATAN 5D,0380,,59.849700198192,17.6931231508828
988229,ÅVS 13325 Värmeverket,,Galgvreten 2:35,Fabriksgatan 6,0381,,59.6459478816946,17.0725473256982
988266,ÅVS 15931 Lantmännen,,Mällersta 3:1,Stora vägen 20,0381,,59.7770177503902,16.9272418630215
988318,"ÅVS 652 P-plats, f.d.  Fanna-kiosken",,Fanna 15:13,Fannagatan 23,0381,,59.6397908549943,17.1012787302248
988321,ÅVS 17738 Torggatan/Långgatan,,Kryddgården 6:3,Långgatan,0381,,59.6384717862856,17.0718261182514
988323,"ÅVS 666 OKQ8, Skolsta",,Skolsta 12:1,Grillbyvägen 27,0381,,59.6604660552315,17.2406368428466
550504,Länsökiosken,,Öregrund S:3,Sandika Parkering Svedden 1,0382,,60.3406043605572,18.4416466009306
042812086,P-plats järnvägsbron (centrum),,.,Järnvägsgatan,0428,,59.0419400019364,15.8711099993281
042817571,Riksväg 52 nära Smedjevägen Baggetorp,,.,Smedjevägen,0428,,59.0094399974912,16.0555599945684
04286134,P-plats Konsum,,.,Bruksvägen,0428,,59.0277799989506,15.6697200066142
04286136,"Folke Angers väg/Ekebergsvägen, Marmorbyn",,.,Ekebergsvägen,0428,,59.047220003837,16.0672199956927
04286138,Ica Supermarket Cityhallen/Tennisparken,,.,Bondegatan 9,0428,,59.0436100034394,15.8730599995134
7596,BJÖRNLUNDA BUSSTORGET,,SKENDA 9:31,STATIONSVÄGEN 5,0461,,59.0640405755556,17.1598326786475
7599,STOPP MATMARKNAD,,SIGTUNA 2:251,DANSUTVÄGEN 2,0461,,59.0393129181243,17.326047413955
15745,BJÖRSHULTS ÅVC,,UPPLAGET 1,Björshults avfallsanl ÅVS,0480,,58.7132661804887,16.990432709629
15940,"SPELHAGEN, LIDL",,SPÅNTEN 8,Spelhagsvägen 2 ÅVS,0480,,58.7434926238038,17.0071894153881
16246,TYSTBERGA,,NÄLBERGA 1:25,Stationsvägen 12 ÅVS,0480,,58.8481718860785,17.2381783513618
17572,ÖRSTIG,,ARNÖ 1:3,Strandstuvikens Camping ÅVS,0480,,58.7130512901138,17.0047001765476
9448,JÖNÅKER,,LUNDA-TYBBLE 10:31,Bäckvägen 12 ÅVS,0480,,58.7434289378931,16.7221123554392
9449,"LUDGO/ASPA, RÖNNLIDEN",,LUDGO-LÖTEN 1:13,Walkers väg 11 ÅVS,0480,,58.9293941266637,17.101441919902
9456,VÄSTER,,SÅGAREN 9,Västra Trädgårdsgatan 50 ÅVS,0480,,58.7548418088417,17.0045603751676
9457,TESSIN,,ÖSTER 1:1,Lekvägen ÅVS,0480,,58.7505889286056,17.0267868502418
9459,HÖGBRUNN,,HÖGBRUNN 1:13,Ahlbergers väg 1 ÅVS,0480,,58.752779970042,16.9905599132557
9461,STENKULLA,,VENUS 1,Jupitervägen 8 ÅVS,0480,,58.7568835911365,17.0388380999692
9462,"OPPEBY, ICA KNUTEN",,HÄSTSKON 1,Oppeby Gård 277 ÅVS,0480,,58.7688074416941,16.9883702761691
9474,"RUNTUNA, RENINGSVERKET",,ALBY 5:2,Runtuna Granstaholm 2 ÅVS,0480,,58.8696754459638,17.0727789502914
9475,RÅBY,,RÅBY 3:13,Råby Skola 3 ÅVS,0480,,58.8703816296831,16.8925970967797
9615,Tempo,,,Sundstigen 1,0481,,58.67611,17.065
9616,Ramdalen,,,Björntorpsvägen 2,0481,,58.67222,17.07694
9620,Återvinningscentralen,,,Föreningsgatan 43,0481,,58.67722,17.11472
048215602,ÅVC Frutorp ÅVS,,Talja 1:5,Talja Frutorp,0482,,59.0699999987434,16.6347199957611
0482898,Kungsbackavägen,,.,Kungsbackavägen/Valstavägen,0482,,58.9041700017449,16.6458299971
0482901,Lötvägen,,.,Lötvägen 9,0482,,59.0547199993554,16.6030600014831
0482902,ICA Kvantum,,.,Hantverkargatan(väg mot ICA),0482,,59.0597200000344,16.5930600070298
048316921,Strångsjö vid IP,,.,Tolenvägen,0483,,58.9011099988983,16.1886099981664
04832290,Ica Julitahallen,,.,Doktorsvägen,0483,,59.1497200002995,16.0686099996465
04832296,Paviljong Sveaparken,,.,Jungfrugatan/Tegnervägen,0483,,58.9913900008969,16.2158299955421
17443,ÅVS COOP Tuna Park,17443,GODSET 1,Albertina Nyströms Väg 4,0484,,59.37389,16.46889
717,ÅVS Konsum Ärla,717,ÄRLA-NYTORP 1:49,Stationsvägen 10,0484,,59.2825,16.67611
10299,ÅVS Konsum Brandstation,10299,BRANDCHEFEN 1,Rönnbärsvägen ,0486,,59.26222,17.22139
10309,ÅVS Finningevägen,10309,STRÄNGNÄS 3:1,Finningevägen 3,0486,,59.36389,17.03639
10325,ÅVS Vasavallen,10325,STRÄNGNÄS 2:1,Olivehällsvägen 2 ,0486,,59.37583,17.00806
10330,ÅVS ICA Joker,10330,ÅKERS STYCKEBRUK 1:465,Lohes Väg ,0486,,59.25528,17.10333
11666,ÅVS Boet,,.,Tranåsvägen,0509,,58.150192321303,14.7165829506929
11669,ÅVS Vida Vättern,,.,Riksettan,0509,,58.1486304252649,14.569160761939
11671,ÅVS Backasands Köpcentrum,,.,Slåttervägen 4,0509,,58.2330584054173,14.6738954125861
11566,"Reningsverket, Rydsnäs",,,Eksjövägen,0512,,57.79859,15.15446
9010150,"Leoparden, P-plats Folkets hus",,Kisa 12:2,"Enebygatan 2, Kisa",0513,,57.987094,15.639802
9010151,"Gamla vägverkstomten, Ica Supermarket",,Rimforsa 1:137,"Kalmarvägen 5, Rimforsa",0513,,58.137431,15.683937
6541,Falerum Järnvägsstationen,,TORESTORP 1:52,Uknavägen,0561,,58.14278,16.2075
6542,Grebo ,,GREBO PRÄSTGÅRD 1:43,Ängsvägen,0561,,58.2975,15.87278
6543,Kvarnvik Sjöberga lanthandel,,HOLMBO 2:1,Kvarnvik,0561,,58.19611,16.36972
1,Viberga Coop,,,Skäggebyvägen 27,0562,Samtliga förpackningsslag samt tidningar och batterier,58.70056,15.81944
10,Profilen,,,Profilvägen 5,0562,Samtliga förpackningsslag samt tidningar och batterier,58.70639,15.74972
12,Hällestad,,,Örebrovägen/Kullavägen,0562,Samtliga förpackningsslag samt tidningar och batterier,58.74194,15.57361
16,Hävla,,,Tallbacksvägen 1,0562,Samtliga förpackningsslag samt tidningar och batterier,58.915,15.86833
7038653,Viberga COOP,,HÅRSTORP 2:12,Skäggebyvägen 27,0562,,58.7011927967224,15.815560774582
9,Bergslagshallen Coop,,,Bergslagsvägen 20,0562,Samtliga förpackningsslag samt tidningar och batterier,58.70639,15.76611
14980,ÅVS Pumpstationen Bestorp,,.,Sjölundsvägen,0580,,58.2305264364927,15.7349770261729
17128,ÅVS Alkagatan (Vasastaden),,.,Alkagatan 4,0580,,58.4204357074239,15.6155843051104
2918,ÅVS Berg-Stjärnorpsvägen,,.,Stjärnorpsvägen 2,0580,,58.4828638875931,15.5219633336019
2945,ÅVS Ridhuset Ånestad,,.,Ridhusgatan 1,0580,,58.386437412718,15.6499260204448
2965,ÅVS Johannelunds centrum,,.,Skogslyckegatan,0580,,58.3971796384114,15.6611865566962
3013,ÅVS Förskolan Maspelösa,,.,Maspelösa 7,0580,,58.4920318986009,15.4224725135249
3028,ÅVS Maxi Stormarknad väster Tornby,,.,Västra Svedengatan 14,0580,,58.4327485366005,15.5907154583315
11971,Kvartsvägen Bråstorp,,Bråstorp 1:8,Kvartsvägen,0583,,58.558075,15.037386
16780,Ica Nära,,Fornåsa 11:37,Industrivägen 2,0583,,58.477765,15.225495
3539,"Vid ÅVC:n, Borensberg",,Olivehult 10:99,Tjällmovägen 1,0583,,58.56869,15.270623
3543,"Norra Hökarvägen, Godegård",,Unna 1:57,Godegård,0583,,58.539382,15.016508
3552,Motala verkstad (Borenshult),,Innerstaden 1:215,Linjegatan,0583,,58.557121,15.072263
3561,"Olsvägen, Tjällmo",,Råcka 1:1,Tjällmovägen,0583,,58.71513,15.360949
99211,Gamla Vägverket,,Kalkbrottet 1,Hovsvägen,0584,,58.439074,14.895969
16297,Vretavägen,,SKÄNNINGE 3:3,Vretavägen,0586,,58.399388370607646,15.083833082443844
16977,Florettgatan,,MJÖLBY 40:1,Florettgatan/Vetagatan,0586,,58.3366800348585,15.1346354301969
17072,Kyrkogatan 28,,MJÖLBY 40:13,Kyrkogatan 28,0586,,58.31964117609906,15.128612666839881
17102,Pilkällevägen 1,,SYA 7:2,Pilkällevägen 1,0586,,58.33495548111084,15.227596395862612
17339,Riddarängsvägen,,VIBY-OLOFSTORP 4:4,Riddarängsvägen,0586,,58.3540946186881,15.301053641129597
17462,Ramstadsgatan/Högliden,,RUNSTORP 8,Ramstadsgatan/Högliden,0586,,58.33219319229743,15.119139589864591
9127,Korsningen Riksvägen/Trumpetarevägen,,FALL 1:1,Trumpetarevägen 1,0586,,58.348114530652985,15.276554189356814
9133,Lagmansskolan,,VATTUMANNEN 2,Ringvägen 11,0586,,58.31882973654213,15.134878487885143
15436,"Hillerstorp, Återvinningscentral",,15436,"Nyhems industriområde, Håkanstorpsvägen",0617,,57.30056,13.86389
5049,Brandstorp,,7881,Krikongatan,0643,,58.0975,14.20333
5050,Strömvägen 8,,7882,Strömvägen,0643,,57.99889,14.11583
12066,"Anderstorp, Godsmagasinet",,12066,Brogatan,0662,,57.27889,13.62722
17456,"Gislaved, Terrassvägen 1",,17456,Terrassvägen 1,0662,,57.29028,13.51861
938,"Anderstorp, Furuborgsvägen",,938,Furuborgsvägen,0662,,57.28222,13.62861
956,Tallberga Köpcentrum,,956,Tallberga,0662,,57.09056,13.68583
5060,Glansgatan,,8298,Glansgatan,0680,,57.7825,14.22222
5064,Folkets Park Stationsgatan,,8306,Stationsgatan,0680,,57.78306,14.26222
5068,Saturnusplan,,13197,Saturnusvägen/Gillesgatan,0680,,57.78139,14.20917
5078,Bankeryd Centrum,,13216,Sjöåkravägen 18,0680,,57.8625,14.12667
5082,Kaxholmen sortergård (ÅVC),,15419,Kaxholmen,0680,,57.855,14.28944
5085,Hovslätt / Grästorpsvägen,,15777,Hovslätt / Grästorpsvägen,0680,,57.73639,14.12639
14503,G:a Eksjövägen/ Espinggatan,,14503,G.a Eksjövägen/ Espinggatan,0682,,57.66056,14.71111
9517,Odengatan 29,,9517,Odengatan 29,0682,,57.7825,14.79944
11354,"Lanna, Telefonvägen",,11354,Telefonvägen,0683,,57.22083,13.78083
14573,"Värnamo, Expovägen",,14573,Expovägen,0683,,57.17333,14.06389
14574,"Gällaryd, Bakom kyrkan",,14574,Bakom kyrkan,0683,,57.13194,14.28889
17290,"Värnamo, City Gross kundparkering",,17290,Silkesvägen 34,0683,,57.17806,14.00556
147885,ICA Klingan,,Sävsjö 12:2,Västra Järnvägsgatan,0684,,57.4002882605024,14.6640766691558
147886,Östra Esplanaden - Sturegatan,,Eksjöhovgård 7:2,Östra Esplanaden - Sturegatan,0684,,57.3975330293937,14.6695829912735
147900,Industrigatan,,Stockaryd 4:227,Industrigatan,0684,,57.3202791053641,14.5884646612391
147908,Stationsgatan - Järnvägsgatan,,Korsberga-Löneberg 3:48,Stationsgatan - Järnvägsgatan,0685,,57.3008240443866,15.1240136108774
147909,Emåvägen - Stationsgatan,,Ökna-Kvill 1:304,Emåvägen - Stationsgatan,0685,,57.4076917133445,15.4985228168519
147913,Väg mot Bo,,Stenberga Stom 1:9,Stenberga,0685,,57.3238519269091,15.4224041008203
147915,Nära Rikets Sal,,Pukaregården 1:1,Skånegatan,0685,,57.4195633755494,15.0698726626727
147917,Missionsgatan - Hagalundsgatan,,Brunnsgård 6:2,Missionsgatan - Hagalundsgatan,0685,,57.4308810551828,15.0936984624651
147922,Återvinningscentral Flishult,,Flishult 1:9,Flishult Avfallsanläggning,0685,,57.4095956743347,14.9904903826755
147924,Nära McDonalds,,Stensåkra 3:5,Stens väg,0685,,57.4153874167585,15.0929194256597
57536,Ingatorps Återvinningscentral,,57536,Eksjövägen 1,0686,,57.659514,14.996894
643,Värne Livs,,643,Granebergsvägen 2,0686,,57.53778,15.09833
10814,Tranås Skyttegatan,,,"Skyttegatan ,IP",0687,,58.03361,14.95833
10821,Tranås Coop,,,Ängarydsgatan,0687,,58.03111,14.96917
10823,Tranås Östra Järnvägsgatan,,,Östra järnvägsgatan,0687,,58.03639,14.975
17460,Lindängsvägen,,14897,Lindängsvägen,0687,,57.975558,14.801245
5168,Sommen Mossebogatan,,10812,Mossebogatan,0687,,58.139668,14.965477
5171,Tranås Beckhemsvägen,,10820,Beckhemsvägen,0687,,58.047083,14.970717
5173,Tranås Toståsvägen vid Sveagatan,,10822,Toståsvägen vid Sveagatan,0687,,58.018343,14.962113
5174,Tranås Östra Järnvägsgatan,,10823,Östra Järnvägsgatan,0687,,58.03666,14.975042
5176,Norrabyvägen,,14795,Norrabyvägen 2,0687,,58.047655,14.982563
5177,Rundelgatan,,14796,Rundelgatan,0687,,58.036267,14.995318
147927,Bakom Fröseke Livs,,Älghults-Fröseke 12:161,Bruksgatan,0760,,56.9486200592496,15.7916457417179
147928,Kommunförrådet,,Lenhovda 112:1,Fabriksgatan 2,0760,,56.9903687732878,15.2921111383569
147930,Vid Din-X mack,,Åseda 12:1,Storgatan,0760,,57.1660371658169,15.3435723336017
147931,Återvinningscentral Linneberga,,Linneberg 1:25,Linneberga Avfallsanläggning,0760,,57.1325174808554,15.30117479592
147932,Rydeforsvägen,,Hohult 2:147,Rydeforsvägen,0760,,56.971147469348,15.6728863040781
147936,Vid ristippen,,Älghult 4:122,Glasbruksvägen,0760,,57.006082458671,15.5672086939567
95491,Bergsrådsgatan,LESSEBO,Smedjan 3,Bergsrådsgatan 5,0761,Kontakt: Södra smålands avfall och Miljö  0470-599500  info@ssam.se,56.75000701,15.26973633
95497,Ekevallsvägen,KOSTA,Kosta 36:7,Ekevalllsvägen,0761,Kontakt: Södra smålands avfall och Miljö  0470-599500  info@ssam.se,56.84116369,15.3939264
95544,Lessebo ÅVC,Lessebo,Lessebo 9:1,Linnerydsvägen,0761,Kontakt: Södra smålands avfall och Miljö  0470-599500  info@ssam.se,56.74864051,15.2681091
95493,Linneryds brandstation,Linneryd,Linneryd 22:1,Idrottsvägen 3,0763,Kontakt: Södra smålands avfall och Miljö  0470-599500  info@ssam.se,56.65751292,15.12997753
95532,Almundsryds kyrka,Ryd,Ryd 1:89,Smedjegatan,0763,Kontakt: Södra smålands avfall och Miljö  0470-599500  info@ssam.se,56.46423916,14.69785942
95533,Ryds ÅVC,Ryd,Ryd 1:89,Östergatan,0763,Kontakt: Södra smålands avfall och Miljö  0470-599500  info@ssam.se,56.46622617,14.70160058
95536,Ebbalyckevägen,Tingsryd,Väduren 7,Ebbalyckevägen,0763,Kontakt: Södra smålands avfall och Miljö  0470-599500  info@ssam.se,56.53241007,14.96796996
95680,Aringsås ÅVC,Alvesta,Aringsås 14:4,Gemlavägen,0764,Kontakt: Södra smålands avfall och Miljö  (på uppdrag av Alvesta renhållnings AB) 0470-599500  info@ssam.se,56.89441572,14.58713437
95681,Grimslöv ÅVC,GRIMSLÖV,Grimslöv 1:120,Skatelövsvägen,0764,Kontakt: Södra smålands avfall och Miljö  (på uppdrag av Alvesta renhållnings AB) 0470-599500  info@ssam.se,56.74181088,14.54455526
95683,Vislanda ÅVC,Vislanda,Brånan 1:39,Olvägen 36,0764,Kontakt: Södra smålands avfall och Miljö  (på uppdrag av Alvesta renhållnings AB) 0470-599500  info@ssam.se,56.79642337,14.44505013
95761,Vattentornet i Alvesta,ALVESTA,SVENSGÅRD 56,Arlingsåsvägen 12,0764,Kontakt: Södra smålands avfall och Miljö  (på uppdrag av Alvesta renhållnings AB) 0470-599500  info@ssam.se,56.89749191,14.5739865
95767,Ekevägen 3,HJORTSBERGA,Brändekvarn 1:32,Ekevägen 3,0764,Kontakt: Södra smålands avfall och Miljö  (på uppdrag av Alvesta renhållnings AB) 0470-599500  info@ssam.se,56.91617946,14.45736115
95768,Lönashultsvägen/Boklövsvägen,LÖNASHULT,Lönashult 1:50,Lönashultsvägen 51,0764,Kontakt: Södra smålands avfall och Miljö  (på uppdrag av Alvesta renhållnings AB) 0470-599500  info@ssam.se,56.65078201,14.51474959
95552,"Virestad, Hornhultsvägen",Virestad,Virestad 1:34,Horshultsvägen 3,0765,Kontakt: Södra smålands avfall och Miljö  0470-599500  info@ssam.se,56.62613226,14.34137424
95554,"Delary, bankvägen",Älmhult,Skateboda 2:13,Bankvägen,0765,Kontakt: Södra smålands avfall och Miljö  0470-599500  info@ssam.se,56.54746553,13.95474929
95772,Söder om gillet,ÄLMHULT,Älmhult 3:1,Eriksgatan 19,0765,Kontakt: Södra smålands avfall och Miljö  0470-599500  info@ssam.se,56.55628512,14.13952091
95551,Traryd Konsum,Traryd,Traryd 3:200,Torggatan,0767,Kontakt: Södra smålands avfall och Miljö  0470-599500  info@ssam.se,56.57941151,13.74796503
95565,MellanSnapphanestigen o Västergårdsvägen,Markaryd,Markaryd 63:1,Skulptörvägen,0767,Kontakt: Södra smålands avfall och Miljö  0470-599500  info@ssam.se,56.45177433,13.6085724
95479,Fabriksvägen,Rottne,Södra Rottne 7:77,Fabriksvägen 16,0780,Kontakt: Södra smålands avfall och Miljö  0470-599500  info@ssam.se,57.01878795,14.89639825
95482,,Växjö,Växjö 12:10,Torparängsvägen,0780,Kontakt: Södra smålands avfall och Miljö  0470-599500  info@ssam.se,56.85449119,14.80531435
95484,Väg 122 (gamla bygdegården),VÄSTRA NÖBBELE,Värends-Nöbbele 1:4,Bygdegården 1,0780,Kontakt: Södra smålands avfall och Miljö  0470-599500  info@ssam.se,56.6926677,15.01727156
95499,Avfallsverket Häringetorp ÅVC,Gemla,Häringetorp 1:2,Häringetorp 3,0780,Kontakt: Södra smålands avfall och Miljö  0470-599500  info@ssam.se,56.85745763,14.69174132
95500,Stationsvägen,Gemla,Öpestorp 3:4,Stationsgatan,0780,Kontakt: Södra smålands avfall och Miljö  0470-599500  info@ssam.se,56.86837314,14.6369264
95501,Brandstationen,Ingelstad,Ingelstad 19:27,Helenetorpsvägen/kavallerivägen,0780,Kontakt: Södra smålands avfall och Miljö  0470-599500  info@ssam.se,56.74071975,14.9221042
95504,Affären,Kalvsvik,Kalvsvik 25:2,Affären,0780,Kontakt: Södra smålands avfall och Miljö  0470-599500  info@ssam.se,56.73230262,14.71216841
95515,Linodlarvägen/Sandviksvägen,VÄXJÖ,Kvarnstenen 1,Linodlarvägen/Sandviksvägen,0780,Kontakt: Södra smålands avfall och Miljö  0470-599500  info@ssam.se,56.87240167,14.83436807
95516,Kvarnvägen,VÄXJÖ,Växjö 11:1,Kvarnvägen,0780,Kontakt: Södra smålands avfall och Miljö  0470-599500  info@ssam.se,56.87331202,14.82670559
95523,Plogvägen,Växjö,Plogen 1,Plogvägen,0780,Kontakt: Södra smålands avfall och Miljö  0470-599500  info@ssam.se,56.84280807,14.799349
95530,Macken Hydro MMP Vingavägen,Växjö,Vinga 1,Vingavägen 1,0780,Kontakt: Södra smålands avfall och Miljö  0470-599500  info@ssam.se,56.90247608,14.79911843
95531,"Paradvägen, Hovshaga",Växjö,Kungsgården 1,Paradvägen,0780,Kontakt: Södra smålands avfall och Miljö  0470-599500  info@ssam.se,56.91462055,14.79096965
95539,Badplatsen,Växjö,Öjaby 6:140,Öjabyvägen 40 E,0780,Kontakt: Södra smålands avfall och Miljö  0470-599500  info@ssam.se,56.90069679,14.73915409
95566,"Kastellvägen, Hovshaga",Växjö,Växjö 6:2,Kastellvägen/västerportsvägen,0780,Kontakt: Södra smålands avfall och Miljö  0470-599500  info@ssam.se,56.91376108,14.78215826
95570,Parkgatan,BRAÅS,Sjösås 1:171,Parkgatan 19,0780,Kontakt: Södra smålands avfall och Miljö  0470-599500  info@ssam.se,57.06269393,15.0540871
95780,Seminarievägen,Växjö,Växjö 8:14,Seminarievägen,0780,Kontakt: Södra smålands avfall och Miljö  0470-599500  info@ssam.se,56.88615137,14.80321313
95655,Infarten affären,Agunnaryd,Bråna 3:32,Brånavägen 4,0781,Kontakt: Södra smålands avfall och Miljö (på uppdrag av Ljungby kommun) 0470-599500  info@ssam.se,56.74714214,14.14761433
95658,Lunnarpsvägen vid brofästet ,LJUNGBY,Kånna 4:11,Lunnarpsvägen 18,0781,Kontakt: Södra smålands avfall och Miljö (på uppdrag av Ljungby kommun) 0470-599500  info@ssam.se,56.78186574,13.89886178
95661,Ica Maxi,Ljungby,Violen 10,Drottninggatan 36,0781,Kontakt: Södra smålands avfall och Miljö (på uppdrag av Ljungby kommun) 0470-599500  info@ssam.se,56.83480524,13.94552792
95662,Bensinmacken Ingo,Ljungby,Solrosen 2,Märta Ljungbergsvägen 58,0781,Kontakt: Södra smålands avfall och Miljö (på uppdrag av Ljungby kommun) 0470-599500  info@ssam.se,56.84129605,13.94641477
95664,P-plats Ryssby,Ryssby,Ryssby 3:8,Storgatan,0781,Kontakt: Södra smålands avfall och Miljö (på uppdrag av Ljungby kommun) 0470-599500  info@ssam.se,56.86367579,14.16490814
95665,Affären,Ljungby,Ljunga Prästgård 1:22,Lingvägen 3,0781,Kontakt: Södra smålands avfall och Miljö (på uppdrag av Ljungby kommun) 0470-599500  info@ssam.se,56.74387536,13.97172003
95666,Göthbergs väg,VITTARYD,Torset 5:31,Göthbergs väg,0781,Kontakt: Södra smålands avfall och Miljö (på uppdrag av Ljungby kommun) 0470-599500  info@ssam.se,56.96992823,13.95063262
95668,Bredemad återvinningscentral,Ljungby,Eka 3:6,Bredemad Tippen 1,0781,Kontakt: Södra smålands avfall och Miljö (på uppdrag av Ljungby kommun) 0470-599500  info@ssam.se,56.86300213,13.92646244
95777,"Endast glas, Dörarp 5:38",Dörarp,Dörarp 5:38,Färsjövägen,0781,Kontakt: Södra smålands avfall och Miljö (på uppdrag av Ljungby kommun) 0470-599500  info@ssam.se,56.9881705410375,14.0025503650722
95778,"Endast glas, Bolmen Camping, Bolmen hamn","Angelstad, Bolmen",Angelstads-Rya,Strandsjövägen 9,0781,Kontakt: Södra smålands avfall och Miljö (på uppdrag av Ljungby kommun) 0470-599500  info@ssam.se,56.82580597,13.76607062
95929,Ljunghagen 1 (endast glas),Odensjö,Odensjö 3:24,Ljunghagen 1,0781,Kontakt: Södra smålands avfall och Miljö (på uppdrag av Ljungby kommun) 0470-599500 info@ssam.se,56.8563243679559,13.6097182295843
304845,Åsevägen,,.,Åsevägen,0821,,57.2158825036435,16.0325480544883
304846,Stationsvägen Reningsverket ,,.,Stationsvägen,0821,,57.145035525631,15.6644755304191
304848,Lindvägen Busstation vägkorset,,.,Lindvägen,0821,,57.0750451446497,15.7358127823417
147827,Degerhamnsvägen,,Degerhamn 4:64,Degerhamnsvägen,0840,,56.3556483768781,16.4129973888221
147830,Norra Sandåsgatan - Skogsgatan,,Björnhovda 25:2,Norra Sandåsgatan - Skogsgatan,0840,,56.6418903389282,16.4854354722949
147833,Återvinningscentral Mörbylånga,,Mörbylånga 11:27,Gamla sockerbruket,0840,,56.5270567356035,16.3871142458244
147876,Spannmålsgatan 5,,Kastlösa 13:13,Spannmålsgatan 5,0840,,56.4535097802682,16.4273670209961
304857,Västra Långgatan Polishuset P-plats ,,.,Västra Långgatan,0860,,57.4860428558234,15.8417835663482
304858,Industrivägen utmed järnvägen,,.,Industrivägen,0860,,57.4077879934635,15.6232255858941
304860,Kyrkvägen-Blockvägen P-plats,,.,Kyrkvägen Blockvägen,0860,,57.3198867363587,15.8608456800392
304862,Häradsvägen,,.,Häradsvägen,0860,,57.3665662605514,15.8372540004607
304864,Kristdalavägen,,.,Kristdalavägen,0860,,57.5221247177684,15.967471214624
212058,ICA Fliseryd,,.,Ytterbyvägen/Kyrkvägen,0861,,57.1274402539745,16.2667656509607
212061,COOP Mönsterås,,.,Åsevadsgatan,0861,,57.0423207087042,16.4445454524304
212068,ICA Ålem,,.,Alsteråvägen,0861,,56.9551656062529,16.3821698051679
01,Algutsboda,,Algutsboda 3:1>1,Gamla Alsbovägen,0862,,56.721474,15.57819
03,Boda Glasbruk,Gamla glasshopen,Förlångskvarn 1:86,"Storgatan 4, Gamla glasshopen",0862,,56.729962,15.67783
04,Broakulla,Parkeringen nedanför skolan,Kalvamo 1:110>5,"Landsvägen 2, parkering vid skolan",0862,,56.688373,15.532102
08,ÅVC,Möjligheternas hus AB,Pelikanen 2,"Långgatan, Möjligheternas hus",0862,,56.62905,15.53212
147789,Arvid Västgötes gata,,Oxhagen 2:1,Arvid Västgötes gata,0880,,56.6803109416167,16.3443328124859
147790,Vänskapens väg,,Krafslösa 2:4,Vänskapens väg,0880,,56.7080606841914,16.340117803227
147793,Enighetens väg,,Djurängen 2:4,Enighetens väg,0880,,56.7046781710166,16.3684352523347
147794,Norrlidens centrum,,Norrliden 2:13,Smålands Lejons väg,0880,,56.7032453303932,16.3589688108972
147796,Bakom Matöppet,,Lindeberga 1:156,Husmorsvägen,0880,,56.7242454222122,16.3024727274559
147805,Tingbyskans,,Dörby 7:7,Smedbyvägen,0880,,56.6800793865717,16.2323625494672
147806,Poppelgatan 1,,Harby 17:16,Poppelgatan 1,0880,,56.6949005423169,16.1212080246007
147819,Hantverkaregatan 22,,Tallhagen 2:13,Hantverkaregatan 22,0880,,56.6742204246677,16.351603402133
147821,Plankvägen 6,,Bottorp 3:22,Plankvägen 6,0880,,56.5917586987862,16.1554658043955
147823,Parkering vid Coop,,Giraffen 26,Verkstadsgatan,0880,,56.6703391566294,16.333292672745
147824,Skeppsbron - Kom snart igen,,Kvarnholmen 2:6,Skeppsbron - Kom snart igen,0880,,56.6621675958101,16.3673014423877
148469,Återvinningscentral Melltorp,,Kristinelund 5:1,Melltorp 206,0880,,56.5883569585867,16.1171246456609
147878,Alsterbrovägen 7,,Fröjdekulla 3:1,Alsterbrovägen 7,0881,,56.9433131151819,15.9154731462626
147893,Simon Gates väg 20,,Kvarntorp 1:106,Simon Gates väg 20,0881,,56.8435309851538,15.746611711878
147895,Återvinningscentral Nybro,,Smedstorp 2:38,Börsrydsvägen 10,0881,,56.73274030861,15.9753102716445
147896,Åkrahällskolan p-plats,,Gymnasiet 2,Mossvägen 10,0881,,56.7438401088989,15.9316092888788
147941,Utanför återvinningsgården,,Bockara 25:1,Majsvägen,0882,,57.2641487694569,16.0689097188462
147947,Misterhultsvägen 12,,Misterhult 1:34,Misterhultsvägen 12,0882,,57.4636683173095,16.5495446927961
147948,ICA Maxi parkering,,Blåmesen 13,Döderhultsvägen 26,0882,,57.265878521044,16.431429757152
147951,Vid Rödsleskolan,,Rödsle 1:1,Rödslevägen,0882,,57.271761498686,16.4046487182861
147953,Norrtornsvägen - Tornvägen,,Oskarshamn 3:5,Norrtornsvägen - Tornvägen,0882,,57.2726397722815,16.4434167812002
147954,Återvinningscentral Påskallavik,,Emmekalv 4:149,Stridsholmsvägen 20,0882,,57.156877011044,16.4590997870946
147956,Norra vägen 103,,Oskarshamn 3:5,Norra vägen 103,0882,,57.272054263301,16.4291523343193
147957,Verkstadsgatan - Gröndalsgatan,,Kristineberg 1:1,Verkstadsgatan - Gröndalsgatan,0882,,57.260417176846,16.4637248276993
11374,Lekplatsen,Björnsholm,Harg 1:9,Björnsholmsvägen,0883,,57.95111,16.43889
11379,P-plats Köpcentrum,Gamleby,Gamleby 2:1,Bondevägen,0883,,57.89889,16.39806
11381,Hantverksplan,Gamleby,Gamleby 2:1,Varvsgatan,0883,,57.89944,16.41083
11385,Ankarsrumsvägen,Hjorted,Nynäs 1:165,Ankarsrumsvägen,0883,,57.62222,16.30583
11391,Centrum vid affären,Totebo,Totebo 1:135,Studievägen,0883,,57.63139,16.18389
11400,Röda korsets P-plats,Västervik,Ludvigsborg 6,Esplanaden,0883,,57.75167,16.64194
11411,Coop Västervik Allén,Västervik,Infarten 8,Edsholmsgatan 17,0883,,57.75972,16.61639
11413,Stenhamra,Västervik,Västervik 4:13,Norra Strandvägen,0883,,57.76222,16.63361
15388,Målserums ÅVC,Västervik,Västervik 3:115,Lunnargatan 25,0883,,57.77417,16.58361
16952,Centrumvägen,Gunnebo,Gunnebo 13:9,Centrumvägen/Veterangatan,0883,,57.72167,16.52944
17371,Helgenäs Hamn,Edsbruk,Helgenäs Hamn 1:1,Helgenäs Hamn ,0883,,57.99639,16.49556
11261,ÅVS Idrottsplats/Bygdegårds p-plats,Frödinge,FRÖDINGE 12:6,Västerviksvägen/Idrottsvägen Frödinge,0884,,57.7025,16.00833
11262,ÅVS Handlarn,Gullringen,ÖRSÅSA 1:133,Centrumgatan Gullringen,0884,,57.79972,15.71472
11264,ÅVS Storebrohallen,Storebro,SJUNDEKVILL 1:193,Vimmerbyvägen/Örngatan Storebro,0884,,57.58778,15.84222
11269,ÅVS Furan,Vimmerby,BOKEN 6,Prästgårdsgatan/Furugatan Vimmerby,0884,,57.67361,15.8575
14996,ÅVS ICA Supermarket,Vimmerby,SLAKTAREN 6,Falkängsgatan Vimmerby,0884,,57.66361,15.85472
12341,ICA Nyströms,,,Fårö Friggars 1655,0980,,57.9620831067318,19.2383348611027
12347,ICA Hoburgshallen,,,Hoburgsvägen 35,0980,,57.0321882692375,18.2768150569156
15508,ICA Krampbroboden,,,Fole Lilla Sojdeby 500,0980,,57.6341760926862,18.5415730124389
15516,Torget Hemse,,,Nygatan 7,0980,,57.2393437433858,18.378116873866
15518,Kappelshamn,,,Kappelshamn Flenvikevägen 43,0980,,57.8493017955585,18.7862510261518
15523,ICA När Bodi,,,När Hallute 6,0980,,57.2593108606294,18.636600700787803
15524,Coop Roma,,,Visbyvägen 35,0980,,57.5044581010403,18.4559030832623
15531,Coop Östercentrum,,,Kung Magnus Väg 12,0980,,57.638435072849305,18.3019479555902
15542,ICA Vibblehallen,,,Vibble Snidaregatan 1,0980,,57.60130198926011,18.2507872835855
15841,ICA Sudrets Livs,,,Stora vägen 30,0980,,57.1609035849317,18.3345886073969
15865,ICA Maxi Visby,,,Follingboväg 70,0980,,57.6244669262825,18.3221819480803
15866,ICA Wisborg,,,Vegagatan 1,0980,,57.6181334008241,18.2837268635836
16204,Coop Lärbro,,,Lindvägen 12,0980,,57.7849862958611,18.7894359003524
16286,Fårösund,,,Kalkugnsvägen 3,0980,,57.8660081053878,19.0547566895395
17476,Visby Hamn,,,Holmen 4,0980,,57.638931871404,18.2865279542656
17479,Hemse Busstation,,,Bangårdsgatan 4,0980,,57.23781302322964,18.380063980570387
1,Mältan LIP,,Västra Rödeby 3:1,Tippvägen 10,1080,,56.239938,15.610447
13,"Trossö LIP, Chapmansplan",,Karlskrona 4:5,Chapmansplan,1080,,56.161637,15.57563
17,Kungsmarken LIP,,Karlskrona 6:60,Kungsmarksplan,1080,,56.192995,15.62286
18,Amiralen LIP,,Stormarknad S:1,Verkövägen 5,1080,,56.195208,15.641897
29,Brömsebro LIP,,Bransboda 1:110,Brömsebrovägen,1080,,56.299953,16.000203
3,Backabo LIP,,Fölet 1,Backabovägen,1080,,56.20306,15.62833
31,"Jämjö LIP, Villavägen",,Hammarby 1:45,Villavägen,1080,,56.193792,15.839433
32,"Jämjö LIP, Centrum",,Hammarby 1:44,Ådalsvägen,1080,,56.192965,15.834828
33,Gisslevik LIP,,Torhamn 11:26,Jämjövägen,1080,,56.10529,15.817952
34,Ramdala LIP,,Ramdala 14:1,Gamla landsvägen,1080,,56.18398,15.768685
36,"Säby LIP, Fotbollsplan",,Säby 24:1,Säbyvallsvägen 2,1080,,56.166898,15.755123
37,"Rödeby LIP, Skidbacke",,Östra Rödeby 2:18,Stationsvägen ,1080,,56.260273,15.625632
4,Mariedal LIP,,Svararen 6,Hillerödsvägen,1080,,56.199113,15.617647
43,"Holmsjö LIP, Macken",,Holmsjö 1:74,Holmsjövägen 64,1080,,56.423238,15.539292
44,Spjutsbygd LIP,,Spjutsbygd 1:17,Spjutsbygdsvägen ,1080,,56.311345,15.594103
7,"Nättraby LIP, Coop",,Västra Nättraby 6:67,Idrottsvägen,1080,,56.206043,15.52752
9,"Nättraby LIP, Koltrast",,Mjövik 6:1,Koltrastvägen,1080,,56.192788,15.527625
13926,ÅVC Hallabro,,,Aborrmålavägen,1081,Hallabro,56.38972,15.10944
15299,Ica Nära Johannishus,,,Öster Marksv. 1,1081,Johannishus,56.21861,15.41333
16756,Däckcentrum,,,Sörbyvägen 3,1081,Ronneby,56.21889,15.26833
9666,Kallinge (ÅVC),,,Flisevägen,1081,Kallinge,56.24306,15.28083
9678,Industriområdet,,,Bräknegårdsvägen,1081,Belganet,56.38556,15.03111
15487,ÅVC ID 15487,,ÅVC ID 15487,Harjagersvägen,1214,,55.90222,13.10694
15677,ID 15677,,ID 15677,Stenestad,1214,,56.055,13.10278
17740,P-plats Järnvägskrogen,,STANSTORP 5:1 ,Järnvägsgatan,1230,,55.64138,13.21666
185089,ÅVS Posten,Åkarp,Åkarp 4:2,Dalslundsvägen,1231,Kontakt: VA SYD 040-635 10 00 kund@vasyd.se,55.6536100007579,13.1127799979286
185090,ÅVS COOP,Arlöv,Tågarp 21:146,Arlövsvägen 34,1231,Kontakt: VA SYD 040-635 10 00 kund@vasyd.se,55.6386100044588,13.0591700069198
185091,ÅVS Åkarp,Åkarp,Åkarp 1:93,Lervägen,1231,Kontakt: VA SYD 040-635 10 00 kund@vasyd.se,55.6566700003755,13.1008300040044
52090809,15675 (Verkstadsgatan 7),,BJUV 3:55,Verkstadsgatan 7,1260,,56.0757468544124,12.9346101128144
221664,Träningsvägen 6 Kävlinge,,,Träningsvägen 6 Kävlinge,1261,,55.79917,13.10889
221669,"Idrottshemsvägen Lilla Harrie, bakom Bygdegården",,,Idrottshemsvägen Lilla Harrie,1261,,55.79278,13.20611
221671,Husarvägen Furulund,,,Husarvägen Furulund,1261,,55.77778,13.10306
221672,Sockenvägen/Häradsvägen Furulund,,,Sockenvägen/Häradsvägen Furulund,1261,,55.77041,13.08596
221711,Fäladsvägen Löddeköpinge,,,Fäladsvägen Löddeköpinge,1261,,55.75972,12.99444
221673,"Sandstensgatan Lomma, Konsum vid vårdcentralen ",,,Sandstensgatan    ,1262,,55.67417,13.06972
221677,"Centrumgatan/Biblioteksgatan Bara, Bara Centrum",,,Centrumgatan/Biblioteksgatan Bara,1263,,55.57694,13.17722
221678,Bökebergsvägen Holmeja,,,Bökebergsvägen Holmeja,1263,,55.555,13.27472
221680,"Gustav Österlins väg/Malmövägen Svedala, P-plats",,,Gustav Österlins väg/Malmövägen Svedala ,1263,,55.5125,13.2225
221685,Norra Ellenborgsgatan Svedala,,,Norra Ellenborgsgatan Svedala,1263,,55.50861,13.25167
221692,Möllebergavägen Bara öster,,,Möllebergavägen Bara,1263,,55.57917,13.19139
221693,Solskensgatan N Erlandsdal Svedala,,,Solskensgatan N Erlandsdal Svedala,1263,,55.52111,13.23167
11948,ÅVS Bingsmarken,,,Bingsmarkens camping,1264,,55.38639,13.50028
16851,ÅVS Rydsgård,,,Lars Mårtens väg,1264,,55.47389,13.59167
17472,ÅVS Västergatan,,,Västergatan,1264,,55.47889,13.49444
9830,ÅVS Skivarp,,,Tores Allköp/ICA Nära,1264,,55.42361,13.56889
9832,ÅVS Saritslövsvägen,,,Saritslövs förskola,1264,,55.47222,13.49611
9838,ÅVS Tånebro,,,Tånebro,1264,,55.45028,13.59
9774,ÅVS Återvinningscentralen,,Omma 2:50,Returvägen 5,1265,,55.645112,13.6809847
9779,"ÅVS Sövde, Hemvärnsgården/kyrkan",,Sövde 34:43,Sövdeborgsvägen 28 C,1265,,55.5851548,13.6722168
108166,3004 HÖRBY SKOMAKAREGATAN,,HÖRBY 45:1,SKOMAKAREGATAN,1266,,55.8452917271934,13.6568470490475
108168,3006 SÖDRA RÖRUM,,SÖDRA RÖRUM 1:1,SÖDRA RÖRUM HÄGLINGEVÄGEN,1266,,55.9238894517666,13.6706459671026
108215,2001 HÖÖR CITYGROSS,,HOLMA 1:21,MARKNADSVÄGEN 2,1267,,55.9503435778477,13.5617816266549
108264,2003 SNOGERÖD,,SNOGERÖD 2:56,HAVREVÄGEN,1267,,55.8398329537474,13.4950061119749
52090806,539 (Färgerivägen 2 B),,FÖRSLÖV 2:4,Färgerivägen 2 B,1278,,56.3495003268105,12.8196930914264
185093,ÅVS Mobilia,Malmö,Kuratorn 3,Per Albin Hanssons väg,1280,Kontakt: VA SYD 040-635 10 00 kund@vasyd.se,55.5799999992217,13.0011099927542
185095,ÅVS Högerudsplan,Limhamn,Limhamn 150:1,Högerudsgatan,1280,Kontakt: VA SYD 040-635 10 00 kund@vasyd.se,55.5869400042818,12.9397199937043
185097,ÅVS Borgmästaregården,Malmö,Innerstaden 9:173,Annebergsgatan,1280,Kontakt: VA SYD 040-635 10 00 kund@vasyd.se,55.5830600038778,12.9977799949093
185099,ÅVS Kattarpstorget,Malmö,Rosengård 130:391,Cypressvägen 27,1280,Kontakt: VA SYD 040-635 10 00 kund@vasyd.se,55.5738101587535,13.0423685235475
185100,ÅVS Själlandstorget,Malmö,Innerstaden 9:142,Roskildevägen,1280,Kontakt: VA SYD 040-635 10 00 kund@vasyd.se,55.5927799962091,12.9883299976883
185106,ÅVS Håkanstorp,Malmö,Rosengård 4:72,Klubbegatan,1280,Kontakt: VA SYD 040-635 10 00 kund@vasyd.se,55.5991699993428,13.038889994268
185107,ÅVS Höja,Malmö,Högatorp 2,Västra Skrävlingevägen 149,1280,Kontakt: VA SYD 040-635 10 00 kund@vasyd.se,55.5832467899546,13.0590549746519
185108,ÅVS Lugnet,Malmö,Katten 17,Lugna Gatan 44,1280,Kontakt: VA SYD 040-635 10 00 kund@vasyd.se,55.5996259653534,13.0032438940857
185110,ÅVS Sörängen Limhamn,Limhamn,Limhamn 152:218,Västra Bernadottesgatan,1280,Kontakt: VA SYD 040-635 10 00 kund@vasyd.se,55.5813900017082,12.9241700038776
185113,ÅVS Segevång,Malmö,Kirseberg 30:2,Segevångsgatan 4,1280,Kontakt: VA SYD 040-635 10 00 kund@vasyd.se,55.616389997424,13.0477799932538
185115,ÅVS Möllevången,Malmö,Innerstaden 7:21,Spångatan,1280,Kontakt: VA SYD 040-635 10 00 kund@vasyd.se,55.5958299960735,13.0122200023923
185117,ÅVS Rörsjöstaden,Malmö,Eva 3,Kungsgatan,1280,Kontakt: VA SYD 040-635 10 00 kund@vasyd.se,55.6016700024355,13.0100000038176
185119,ÅVS Strandhem,Malmö,Bunkeflostrand 15:1,Klagshamnsvägen,1280,Kontakt: VA SYD 040-635 10 00 kund@vasyd.se,55.5422199987924,12.919439994109
185122,ÅVS Producentgatan,Malmö,Producenten 1,Producentgatan,1280,Kontakt: VA SYD 040-635 10 00 kund@vasyd.se,55.5641700028109,12.9872200028345
185125,ÅVS Bunkeflo ÅVC,Vintrie,Kommungården 2,Gottorpsvägen 52,1280,Kontakt: VA SYD 040-635 10 00 kund@vasyd.se,55.5583568182285,12.9432509882058
185127,ÅVS Arkitektgatan,Malmö,Hyllie 165:44,Arkitektgatan 1,1280,Kontakt: VA SYD 040-635 10 00 kund@vasyd.se,55.579999997696,12.9955599922477
185128,ÅVS Major Nilssonsgatan,Malmö,Innerstaden 10:94,Major Nilssonsgatan,1280,Kontakt: VA SYD 040-635 10 00 kund@vasyd.se,55.594169997287,12.9722200067886
185133,ÅVS Norra Hamnen ÅVC,Malmö,Malören 1,Bjurögatan 20,1280,Kontakt: VA SYD 040-635 10 00 kund@vasyd.se,55.6278156569837,13.0223586714878
185134,ÅVS Västa Hamnen,Malmö,Hamnen 33:1,Stora Varvsgatan 17,1280,Kontakt: VA SYD 040-635 10 00 kund@vasyd.se,55.6105600036722,12.9786100014945
185137,ÅVS Kirsebergs Ishall,Malmö,Kirseberg 30:2,Österhagsgatan,1280,Kontakt: VA SYD 040-635 10 00 kund@vasyd.se,55.6063900031288,13.0372199966149
185138,ÅVS Börringegatan,Malmö,Flöjten 1,Börringegatan,1280,Kontakt: VA SYD 040-635 10 00 kund@vasyd.se,55.5897200041731,12.9705599941558
185143,ÅVS Oxie Kyrkoväg,Oxie,Kyrkskolan 4,Byåkersvägen 30,1280,Kontakt: VA SYD 040-635 10 00 kund@vasyd.se,55.5503479111115,13.0965431145079
185144,ÅVS Norra Parkgatan,Malmö,Innerstaden 7:21,Norra Parkgatan,1280,Kontakt: VA SYD 040-635 10 00 kund@vasyd.se,55.5919399980467,13.0119399932514
185145,ÅVS Rosengård,Malmö,Karburatorn 2,Cronmans Väg 6,1280,Kontakt: VA SYD 040-635 10 00 kund@vasyd.se,55.5885112685113,13.0354825384723
185146,ÅVS Almvik,Malmö,"Fosie 165:25, Duetten 1",Kvartettgatan,1280,Kontakt: VA SYD 040-635 10 00 kund@vasyd.se,55.563610003941,13.0047200013494
186180,ÅVS IKEA Malmö,Malmö,Kulthuset 1,Drakagatan,1280,Kontakt: VA SYD 040-635 10 00 kund@vasyd.se,55.5513709996269,12.9888850003144
42246,Återvinningsstation Stadsparkgatan Lund,,INNERSTADEN 3:32,Stadsparksgatan,1281,,55.6995410773272,13.1812644801484
42354,Återvinningsstation Annedalsvägen Lund,,VÄSTER 7:1,Annedalsvägen,1281,,55.7138565973457,13.167457723355
15302,Borstahusen ID 15302,,Borstahusen ID 15302,Skepparvägen,1282,,55.89667,12.81333
16918,Infartsparkering ID 16918,,Infartsparkering ID 16918,Järvgatan,1282,,55.88139,12.855
8657,Idrottsplatsen ID 8657,,Idrottsplatsen ID 8657,Johan Pers väg,1282,,55.94167,12.80472
52085549,ÅVS NSR återvinningscentral (Välavägen 222),,VÄLA 7:9,Välavägen 222,1283,,56.0802918246578,12.7702856690763
52090769,17463 (Toftagatan),,ÖDÅKRA 12:2,Toftagatan,1283,,56.1000769034708,12.7446983556729
52090772,17586 (Kardemummagatan),,GANTOFTA 3:1,Kardemummagatan,1283,,55.9853501294166,12.8033334142703
52090804,17318 (Södra Torggatan 10),,HASSLARP 4:2,Södra Torggatan 10,1283,,56.1360020005077,12.815473767301
52090786,8224 (Kullabergsvägen 55),,KRAPPERUP 19:1,Kullabergsvägen 55,1284,,56.2820396372827,12.5034944098865
108024,1003 ESLÖV SLUTET,,ESLÖV 53:4,FJÄRDINGSVÄGEN,1285,,55.8349639869727,13.2773070166617
131364,1015 MERAB:s KRETSLOPPSPARK ÅVS,,HASSLE 32:11,MERAB:s KRETSLOPPSPARK HASSLE 3211,1285,,55.914619081101,13.4052253058634
230183,Skarpskyttegatans ÅVS,,Innerstaden 4:30,Skarpskyttegatan 10,1287,,55.37176,13.17057
230187,Klagstorps ÅVS,,Klagstorp 17:8,Äspövägen 2,1287,,55.3925,13.37227
230189,Folkets park ÅVS,,Bollen 2,Vikingagatan 14,1287,,55.3793,13.15374
230193,Ripatorgets ÅVS,,Innerstaden 5:71,Ripatorget 1,1287,,55.37652,13.16574
230196,Skegries ÅVS,,Skegrie 41:127,Skegrie byaväg 9 A,1287,,55.40631,13.07165
230197,Smyge ÅVS,,Lilla Beddinge 30:2,Beddinge strandväg 3,1287,,55.35245,13.39206
230198,Anderslövs ÅVC,,Anderslöv 49:1,Åttavägen 49:1,1287,,55.43308,13.31193
6901,ÅVS Gärsnäs id 6901,,ÅVS Gärsnäs id 6901,"Järnvägsgatan, Gärsnäs id 6901",1291,,55.5455933197036,14.1762363881193
52090781,Nordalagatan 1,,BETONGEN 3,Nordalagatan 1,1292,,56.2539537351577,12.9115768289233
90090,Vankiva ÅVC,,,Vankiva 9300,1293,"Öppettider måndag-torsdag: kl. 9-18, fredag-söndag: kl. 9-15",56.196422,13.71383
90091,Bjärnum ÅVC,,,Boställsgatan 60,1293,"Öppettider måndag: kl. 11-18, fredag: kl. 9-16, första lördagen i månaden: kl. 9-15",56.300734,13.693511
90092,Hästveda ÅVC,,,Kolbergavägen 11,1293,"Öppettider onsdag: kl. 11-18, tredje lördagen i månaden: kl. 9-11",56.277227,13.939912
90093,Tyringe ÅVC,,,Hörjavägen 14,1293,"Öppettider tisdag: kl. 11-18, fredag: kl. 9-16, fjärde lördagen i månaden: kl. 9-15",56.168702,13.570806
90094,Vinslöv ÅVC,,,Boarpsvägen,1293,"Öppettider måndag: kl. 11-18, torsdag: kl. 9-16, andra lördagen i månaden: kl. 9-15",56.113254,13.907115
1844,Långaryd,,LÅNGARYDS KLOCKAREGÅRD 3:14,Odlingsvägen 1,1315,,57.0425,13.34056
99130,Verkstadsgatan,,STORA HÄSSLEHULT 1:47,Bäckgatan 11,1315,,57.00528,13.23722
4318971,15964,,Halmstad 5:9,Nordbanegatan,1380,,56.676509,12.850976
4319015,1481,,Matadoren 10,Ängdalagatan,1380,,56.701999,12.866948
4319026,16257,,Hjälmen 3,Andersbergsringen,1380,,56.663907,12.897357
4322336,1442,,Halmstad 1:8,Gatenhielmsvägen,1380,,56.665935,12.830284
4322340,1451,,Luppen 75,"Furuvägen, Frennarp",1380,,56.689989,12.890432
4322342,1454,,Halmstad 10:10,"Furuvägen, Furet",1380,,56.682857,12.875459
4322346,1470,,Lyngåkra 3:136,Källvägen,1380,,56.744256,12.736206
4322348,1472,,Harplinge 5:81,Jägarevägen,1380,,56.721044,12.691092
4322350,1474,,Haverdal 39:40,Sommarvägen,1380,,56.720696,12.67169
4322356,1484,,Snöstorp 19:202,Lågagårdsvägen,1380,,56.681089,12.935195
4322357,1485,,Marbäck 2:12,Svanåsvägen,1380,,56.706132,13.033332
4322360,1488,,Halmstad 7:5,Burmeistervägen,1380,,56.696826,12.85412
4322364,1494,,Oskarström 3:137,Blåklintsvägen,1380,,56.806248,12.959735
4322365,14963,,Oskarström 3:173,Jutans väg,1380,,56.80267,12.973797
4322366,1497,,Oskarström 4:52,Santagårdsvägen,1380,,56.801433,12.990014
4322368,1502,,Breared 1:207,Brearedsvägen,1380,,56.719076,13.124166
4322371,1511,,Snöstorp 19:194,Ljungbyvägen,1380,,56.676913,12.926059
4322375,1524,,Trönninge 25:1,Krontorpsvägen,1380,,56.617781,12.946119
4322379,1542,,Villshärad 2:179,Vikenvägen,1380,,56.694658,12.696966
4322380,1543,,Spånstad 1:19,Nattflyvägen,1380,,56.745161,12.932949
4322384,15949,,Hörsås 2:94,Fabriksgatan,1380,,56.819771,12.729738
4322386,17101,,Vallås 1:1,Svingelvägen,1380,,56.676685,12.91391
4322391,15584,,Eketånga 24:63,Flygstaden ÅVC,1380,,56.675729,12.796956
01,Mellbystrand,,Mellby 2:129,Söderleden 1,1381,,56.50101,12.95766
03,Laholm - Brandstationen,,,Ängelholmsvägen,1381,,56.50459,13.03351
04,Lilla Tjärby,,,Bonnarpsvägen,1381,,56.52594,13.05339
05,Genevad,,,Bruksgatan,1381,,56.57131,13.02929
09,Ysby,,,Brödåkravägen 2,1381,,56.49093,13.11509
14,Skummeslöv,,,Stora Strandvägen,1381,,56.46017,12.92644
15624,Sandladan ÅVC,,Arvidstorp 1:39,Sandladan ÅVC,1382,,56.9108914558243,12.4646479202912
17263,Långaveka skola,,Långaveka 4:1,"Långaveka 126, Långaveka skola",1382,,56.9356595076805,12.3745945547687
7513,Skrea stationsväg,,Skrea 23:3,Skrea stationsväg,1382,,56.8861286146104,12.5616879042671
7519,Årstad mittemot skolan,,Årstad 28:2,Årstad mittemot skolan,1382,,56.9142020851957,12.6742104254943
11143,Hunnestad Ica Nära,,Hunnestad 14:10,Hunnestad Ica Nära,1383,,57.1016674315811,12.3569140472497
11145,"Kungsäter, Kungsäter Livs",,Österby 1:47,"Kungsäter, Kungsäter Livs",1383,,57.3040950351529,12.5620808535257
11147,Rolfstorp Ica Supermarket,,Rolfstorp 20:3,Rolfstorp Ica Supermarket,1383,,57.1457483869501,12.4530792630484
11148,"Skällinge, Idrottsvägen",,Skällinge 1:2,"Skällinge, Idrottsvägen",1383,,57.1796196444002,12.4650878931003
11150,Tofta Mejerivägen,,Tofta 8:16,Tofta Mejerivägen,1383,,57.1745866154016,12.300821509013
11151,Träslövsläge,,Tvååkers-Ås 2:30,Träslövsläge,1383,,57.0538781103481,12.2857201677719
11172,Stenåsavägen,,Getakärr 2:21,Stenåsavägen,1383,,57.1211341806862,12.2711394878771
15804,Veddige ÅVS,,Veddige 33:3,Veddige ÅVC,1383,,57.2581240611495,12.3145145076739
17161,Holmagärde ÅVC,,Eldstaden 12,Holmagärde ÅVC,1383,,57.1195340362529,12.3027464620356
17327,Tvååker ÅVC,,Tvååker 24:2,Tvååker ÅVC,1383,,57.0420882484799,12.3889301453156
2405,Getteröns Marina,,Getterön 2:1,Getteröns Marina,1383,,57.112836027538,12.2262803213106
202415737,Lindälvsgymnasiet,,Varla 12:68,Lindälvs gata 1,1384,,57.4963049046317,12.0725294075662
202417482,Parkeringen Till Särö Idrottsplats,,Nötegång 2:5,Idrottsgången 5,1384,,57.5182141805639,11.9697231561114
202417532,Lindens Torg Vid Parkeringshus,,Kungsbacka 4:6,Nygatan,1384,,57.4835463479075,12.0791187276786
20248543,Blomstergatan/Rosengatan,,Kungsbacka 4:16,Blomstergatan/Rosengatan,1384,,57.4841179021197,12.0852588534626
20248545,Fjärås Centrum,,Må 2:210,Rajgräsvägen,1384,,57.4612507361823,12.1697946102222
20248552,Kullaviks Centrum,,Kyvik 4:170,Kullaviks Centrum Parkering,1384,,57.5462887850702,11.9458054259035
202499272,Fjärås Bygdegård,,Duvehed 2:1,Tostaredsvägen 219,1384,,57.439620284722,12.1890090457629
202499279,Vallda Sporthall,,Vallda 50:1,Sporthallsvägen,1384,,57.4742404591335,12.0001899659831
17225,ICA Musikvägen,,17225,Musikvägen/Råstensvägen 2,1401,,57.6478266852893,12.1219767291832
99135,Björröd,,99135,Eskilsbyvägen,1401,,57.6742644783437,12.2437072213483
6203,,,Grötö,Grötö hamn,1407,,57.695,11.685
6204,,,Hyppeln,Hyppeln ÅVC,1407,,57.75583,11.61583
6205,,,Hönö,Tappen Hönö,1407,,57.69833,11.64694
6207,,,Kalvsund,Kalvsund hamn,1407,,57.71056,11.68278
6210,,,Öckerö,Öckerö färjeläge,1407,,57.71028,11.65861
6211,,,Hälsö,Hälsö hamn,1407,,57.73194,11.65583
6212,,,Öckerö,"Kärrsvik ÅVC, Öckerö",1407,,57.71083,11.65361
61963,Hantverkaregatan / Rödklövervägen,,,Hantverkaregatan / Rödklövervägen,1415,"Under jul- och nyårshelgerna kommer det att bli fler tömningar, ibland på andra dagar än ordinarie schema.",58.067444,11.852453
61964,Fotbollsplanen i Svenshögen,,,Fotbollsplanen i Svenshögen,1415,"Under jul- och nyårshelgerna kommer det att bli fler tömningar, ibland på andra dagar än ordinarie schema.",58.13887,11.944162
61966,Hantverkaregatan / vid OK,,,Hantverkaregatan vid OK,1415,"Under jul- och nyårshelgerna kommer det att bli fler tömningar, ibland på andra dagar än ordinarie schema.",58.075338,11.839163
61969,Kristinedals förskola,,,Kristinedalsvägen 4,1415,"Under jul- och nyårshelgerna kommer det att bli fler tömningar, ibland på andra dagar än ordinarie schema.",58.064669,11.833465
61970,Kyrkenorum,,,Kyrkenorum,1415,"Under jul- och nyårshelgerna kommer det att bli fler tömningar, ibland på andra dagar än ordinarie schema.",58.056137,11.864949
61976,Willys,,,Strandvägen 35,1415,"Under jul- och nyårshelgerna kommer det att bli fler tömningar, ibland på andra dagar än ordinarie schema.",58.075279,11.820364
62273,Stora Höga ÅVC,,,Brålandsvägen 18 A,1415,"Tillgänglig under öppettiderna för Stora Höga ÅVC. Under jul- och nyårshelgerna kommer det att bli fler tömningar, ibland på andra dagar än ordinarie schema.",58.015235,11.836853
60000000,"Hälleviksstrand, ARV",,Hällevik 2:208,Hamnplan 1,1421,,58.121507,11.443588
60000001,"Mollösund, Lervik",,Mollösund 5:398,Gamla vägen 1,1421,,58.07505,11.480819
60000004,Varekil,,Varekil 1:172,Industrivägen 1,1421,,58.124893,11.725746
60000008,Kyrkans hus,,Svanesund 7:13,Fridängsvägen 1,1421,,58.144712,11.810365
60000009,Timmerhult ,,Timmerhult 2:1,Timmerhult 411,1421,,58.238501,11.707578
2002,2002 Bohus-Malmön,,2002 Bohus-Malmön,2002 Bohus-Malmön,1427,,58.3468472626427,11.335110819179
2007,2007 Väjern,,2007 Väjern,2007 Väjern,1427,,58.3796228729306,11.2629930971987
4003,4003 Östanvindsvägen,,4003 Östanvindsvägen,4003 Östanvindsvägen,1430,,58.4709750784436,11.6933520257056
4005,4005 Hedekas,,4005 Hedekas,4005 Hedekas,1430,,58.6447979183315,11.7889807456454
3002,3002 Heestrand,,3002 Heestrand,3002 Heestrand,1435,,58.5189348563599,11.2764674167157
3003,3003 Hamburgsund,,3003 Hamburgsund,3003 Hamburgsund,1435,,58.5584864595698,11.2798578590376
3010,3010 Havstensund,,3010 Havstensund,3010 Havstensund,1435,,58.7540295861097,11.1825799732178
3017,3017 Tyft Åvc,,3017 Tyft Åvc,3017 Tyft Åvc,1435,,58.7415154298328,11.4426953251205
015,Brandstationen,Surte,,Vassvägen,1440,,57.82306,12.01472
031,Idrottsvägen,Surte,,,1440,,57.83556,12.01639
064,Sörmossen (ÅVC),Bohus,,"Rördalsvägen, Storskogen",1440,,57.845,12.05167
072,Rödjans väg,Nödinge,,,1440,,57.89917,12.05472
130,Kronogården,Älvängen,,Kronovägen 1,1440,,57.94833,12.13111
148,Tolleredsvägen,Älvängen,,,1440,,57.94917,12.10278
64400,MJÖRNBOTORGET,,HJÄLLSNÄS 8:33,Mjörnbotorget,1441,,57.8355610746569,12.2979967988009
64407,ÖLSLANDA,,ÖLSLANDA 2:6,Ölslanda lycka,1441,,57.7851822932912,12.3015391001653
7127,ÅVS Erikstorp,,Erikstorp 1:4,Skräddaregårdsvägen,1443,,57.679954,12.566522
7128,ÅVS Idrottsplatsen,,Flässjum 12:77,Källevägen,1443,,57.672498,12.577486
7132,ÅVS Töllsjö - Affären i Töllsjö,,Töllsjö Stom 1:63,Morjhultsvägen 1,1443,,57.794516,12.632518
1001,Hemköp,,RÄVEN 16,Södergatan,1444,,58.33389,12.67611
7483,"Samlingslokalen, g:a affären",,FÅGLUM 1:28,,1445,,58.12583,12.78056
2133,Forsvik Baltzar von Platens väg,,KARLSBORG FORSVIK 5:108,Baltzar von Platens väg,1446,,58.58222,14.42944
2135,Hanken Tunvägen,,KARLSBORG SVANVIK 1:354,Tunvägen,1446,,58.56028,14.50556
2136,Karlsborg Parkvägen,,KARLSBORG SVANVIK 3:137,Parkvägen,1446,,58.54306,14.47833
2137,Karlsborg Smedjegatan Södra Skogen,,KARLSBORG SÖDRA SKOGEN 4:1,"Smedjegatan, Södra Skogen",1446,,58.52111,14.50472
2138,Karlsborg Västra Varvsgatan,,KARLSBORG RÖDESUND 5:1,Västra Varvsgatan,1446,,58.53944,14.50167
2140,Undenäs Magasinvägen 2,,KARLSBORG ÖVERBY 1:65,Magasinvägen 2,1446,,58.65667,14.40472
1007,"Hova hotell, p-plats",,HOVA 3:31,Finells väg 5,1447,,58.85639,14.21917
1009,Otterbäckens Marina,,GULLSPÅNG OTTERBÄCKEN 22:2,Amnevägen/Ankarvägen,1447,,58.94889,14.04
1010,"Skagersvik, Träbiten",,GULLSPÅNG BJÖRTORP 1:153,Skagersviksvägen,1447,,58.96778,14.10639
14592,"Odenslund, Återvinningscentral (ÅVC)",,GULLSPÅNG TORSVID 4:15, Torsvid väg 200,1447,,58.90917,14.12028
10800,"Länghem, brandstationen",,Länghem,Palmgatan,1452,,57.604083,13.243675
15834,ÅVC Returen (utanför),,Tranemo,Ambjörnarpsvägen,1452,,57.47556,13.33972
16518,Ströms återvinningsstation,,Lilla Edet Ryk 2:9,Egnahemsvägen / Kungälvsvägen,1462,Ström,58.13778,12.10889
16812,Berg östras återvinningsstaion,,Lilla Edet Sannersby 1:43,"Kungälvsvägen, gamla busshållplatsen",1462,Lilla Edet,58.12806,12.11083
16862,Skillnadsgatans återvinningsstaion,,Lilla Edet Edet 1:4,Skillnadsgatan,1462,Lilla Edet,58.14278,12.13167
8820,Götas återvinningsstation,,Lilla Edet Hanström 2:56,Värdshusvägen 3,1462,Göta,58.10778,12.14917
8824,Lödöse centrums återvinningscentral,,Lilla Edet Klostret 6:95,Parkering centrala Lödöse,1462,Lödöse,58.03278,12.15389
8827,Prässebos återvinningsstation,,Lilla Edet Klinten 1:8,"Väg 1996, Badplatsen",1462,Prässebo,58.09861,12.27111
8829,Torskogs återvinningsstation,,Lilla Edet Grunneröd 5:6,"Nedanför slottet, andra sidan vägen",1462,Torskog,58.03306,12.13833
15891,Kinna station,Kinna,KINNA 24:83,Nya Kinnavägen,1463,,57.507024,12.699933
9053,Berghem Industriområdet,Berghem,BERGHEM 16:5,Viskadalsvägen,1463,,57.466318,12.595352
9058,Horred Vikavägen,Horred,SJÖBY 3:44,Vikavägen,1463,,57.357521,12.485082
9073,Torestorp Brandstation,Torestorp,SVANSJÖ 1:72,Titusstigen,1463,Längst ner vid vändplan,57.387764,12.676813
9076,Öxabäck Bygdegården,Öxabäck,ÖXABÄCKS STOM 1:39,Öxvallsvägen 6,1463,,57.397836,12.812539
10548,Kalv,,Uddarp 1:14,Bomskogsvägen 10,1465,Vid bygdegården,57.246787,13.057473
10549,Östra Frölunda,,Frölunda 5:3,Isabergsvägen 1,1465,Vid medborgarhuset,57.345382,13.031547
10552,Håcksvik,,Håcksvik 3:1/3:14,Håskavägen 5,1465,Korsning Håskavägen/Siggebergsvägen,57.315629,13.14574
14870,Sexdrega,,Sexdrega 1:44,Sexdrega Reningsverk 1,1465,Vid reningsverket,57.576803,13.125636
15186,Svenljunga Högelid,,Svenljunga 5:399,Högelid,1465,Vid infarten till Högelid,57.499498,13.101846
17381,Överlida,,Lida 2:23,Hallavägen,1465,I industriområdet,57.350836,12.896043
14722,"Annelund, utanför ÅVC",Annelund,,Reningsverk annelund 5,1466,,57.99333,13.09361
15435,Herrljunga (ÅVC),Herljunga,,"Tegelbruksvägen 9, Herrljunga",1466,,58.08083,13.005
8039,ICA Träffen,Herrljunga,,"Magasingatan 6, Herrljunga",1466,,58.07889,13.02639
8043,"182:an, Väg mot Örum",Od,,Korsning väg 182 och 1842,1466,,57.94972,13.18306
11129,Bakom ICA,,TONUM 6:167,Torggatan,1470,,58.30056,13.18806
11136,Brandstationen,,SKRUVEN 1,Industrigatan/Kungsgatan 38,1470,,58.26694,12.96361
17284,Jung,,JUNG 3:41,Åkervägen/Jungavägen ,1470,,58.33138,13.12635
15442,Miljövägen 1 (ÅVC),,GÖTENE SILS-SANDTORP 1:15,,1471,,58.53028,13.46417
7873,Linnégatan 15/Hillbogatan,,GÖTENE HELDE 1:301,,1471,,58.525,13.50111
10685,Fagersanna tennisbana,,FAGERSANNA 2:79,,1472,,58.46861,14.30028
10697,Folkets Park ,,TIBRO 4:1,Östra Långgatan ,1472,,58.42889,14.17167
10929,Coop,,PLÅTSLAGAREN 7,Kyrkogatan 20,1473,,58.71028,14.12667
17454,Kilen,,"KILEN 15:18, TJÄDERN 12",Sötåsenvägen / Halnavägen,1473,,58.71,14.135
20003,ÅVS 20003 Donsö hamn,,Donsö 53:1,Donsö hamn,1480,,57.597309,11.791531
20004,ÅVS 20004 Vrångö hamn,,Vrångö 69:1,Vrångö hamn,1480,,57.573657,11.778668
20007,ÅVS 20007 Kretsloppsplatsen Vrångö,,Vrångö 1:96,Kretsloppsplatsen Vrångö,1480,,57.571327,11.789764
20008,ÅVS 20008 Rävstensvägen,,Donsö 2:106,Rävstensvägen,1480,,57.601366,11.796506
248610,ÅVS 7645 Gunnaredsterrassen 5  ,,ANGERED 88:2,Gunnaredsterrassen 5  ,1480,,57.79917,12.06194
248625,ÅVS 7671 Morängatan 11  ,,BAGAREGÅRDEN 32:9,Morängatan 11  ,1480,,57.72222,12.01639
248629,ÅVS 7676 Atmosfärsgatan 2  ,,BERGSJÖN 767:258,Atmosfärsgatan 2  ,1480,,57.75111,12.06306
248630,ÅVS 7677 Galileis Gata 50  ,,BERGSJÖN 15:21,Galileis Gata 50  ,1480,,57.76167,12.05056
248631,ÅVS 7683 Siriusgatan 78  ,,Bergsjön 39:6,Siriusgatan 78  ,1480,,57.75611,12.05389
248635,ÅVS 7685 Lådämnesgatan 31  ,,Sävenäs 747:68,Lådämnesgatan 31  ,1480,,57.71583,12.05306
248637,ÅVS 7688 Träkilsgatan 2  ,,SÄVENÄS 131:3,Träkilsgatan 2  ,1480,,57.71667,12.05556
248641,ÅVS 7692 Eriksbo Västergärde 4  ,,HJÄLLBO 122:2,Eriksbo Västergärde 4  ,1480,,57.77222,12.03611
248642,ÅVS 7693 Hjällbogärdet 53  ,,HJÄLLBO 24:1,Hjällbogärdet 53  ,1480,,57.76917,12.03611
248644,ÅVS 7695 Distansgatan 25  ,,Järnbrott 758:588,Distansgatan 25  ,1480,,57.66333,11.935
248646,ÅVS 7702 Näverlursgatan,,JÄRNBROTT 184:3,Näverlursgatan   ,1480,,57.65194,11.90806
248649,ÅVS 7708 Örlogsvägen/Stjänsbåtsgatan   ,,NYA VARVET 726:41,Örlogsvägen/Stjänsbåtsgatan   ,1480,,57.68,11.88861
248651,ÅVS 7710 Långedragsvägen 134  ,,Älvsborg 755:411,Långedragsvägen 134  ,1480,,57.67056,11.87167
248654,ÅVS 7715 Hammarkulletorget 36  ,,HJÄLLBO 37:10,Hammarkulletorget 36  ,1480,,57.77833,12.03917
248657,ÅVS 7723 Bergsgårdsgärdet 16  ,,HJÄLLBO 5:14,Bergsgårdsgärdet 16  ,1480,,57.77222,12.02222
248660,ÅVS 7733 Gibraltargatan 52 ,,JOHANNEBERG 707:11,Gibraltargatan 52  ,1480,,57.6875,11.98194
248662,ÅVS 7735 Richertsgatan 4  ,,JOHANNEBERG 707:11,Richertsgatan 4  ,1480,,57.68972,11.98278
248663,ÅVS 7736 Vidblicksgatan 12  ,,LORENSBERG 706:41,Vidblicksgatan 12  ,1480,,57.6925,11.98111
248664,ÅVS 7737 Antenngatan 45  ,,JÄRNBROTT 758:66,Antenngatan 45  ,1480,,57.65194,11.93167
248665,ÅVS 7738 Flöjtgatan   ,,JÄRNBROTT 758:66,Flöjtgatan   ,1480,,57.65944,11.92083
248666,ÅVS 7739 Soprangatan 5  ,,JÄRNBROTT 758:66,Soprangatan 5  ,1480,,57.66444,11.92028
248673,ÅVS 7748 Gregorianska Gatan 1 ,,Kortedala S:5,Gregorianska Gatan 1  ,1480,,57.74917,12.02639
248674,ÅVS 7751 Kalendervägen 32  ,,KORTEDALA 63:1,Kalendervägen 32  ,1480,,57.75222,12.03667
248675,ÅVS 7752 Kalendervägen 54  ,,KORTEDALA 63:1,Kalendervägen 54  ,1480,,57.75639,12.04139
248679,ÅVS 7757 Årstidsgatan 22  ,,KORTEDALA 91:4,Årstidsgatan 22  ,1480,,57.75944,12.03944
248682,ÅVS 7760 Olofshöjdsgatan   ,,KROKSLÄTT 90:32,Olofshöjdsgatan   ,1480,,57.68833,11.99139
248687,ÅVS 7767 Lugnet 3  ,,KUNGSLADUGÅRD 724:60,Lugnet 3  ,1480,,57.685,11.92667
248688,ÅVS 7769 Sannaplan   ,,Kungsladugård 723:61,Sannaplan   ,1480,,57.68417,11.91528
248690,ÅVS 7771 Bäckängsgatan 2  ,,Kungsladugård 731:783,Bäckängsgatan 2  ,1480,,57.73028,11.91778
248694,ÅVS 7781 Prilyckegatan 87  ,,Kärra 43:11,Prilyckegatan 87  ,1480,,57.79222,11.98472
248695,ÅVS 7782 Lillatorpsgatan 18 ,,TORP 44:2,Lillatorpsgatan 18  ,1480,,57.70056,12.02222
248697,ÅVS 7785 Varmfrontsgatan,,BISKOPSGÅRDEN 80:2,Varmfrontsgatan   ,1480,,57.7375,11.8975
248700,ÅVS 7788 Fänkålsgatan 8  ,,GÅRDSTEN 58:1,Fänkålsgatan 8  ,1480,,57.81,12.04361
248701,ÅVS 7792 Senapsgatan 1  ,,GÅRDSTEN 58:1,Senapsgatan 1  ,1480,,57.81444,12.04083
248706,ÅVS 7796 Repslagaregatan 7  ,,STIGBERGET 34:19,Repslagaregatan 7  ,1480,,57.69528,11.93861
248708,ÅVS 7800 Lagerströmsplatsen 4  ,,GÅRDA 744:559,Lagerströmsplatsen 4  ,1480,,57.71167,11.99833
248721,ÅVS 7815 Fiolgatan 8  ,,RUD 760:41,Fiolgatan 8  ,1480,,57.66,11.91139
248722,ÅVS 7818 Blidvädersgatan 2  ,,BISKOPSGÅRDEN 830:711,Blidvädersgatan 2  ,1480,,57.7125,11.89306
248724,ÅVS 7820 Blidvädersgatan 67  ,,BISKOPSGÅRDEN 26:4,Blidvädersgatan 67  ,1480,,57.71222,11.88694
248725,ÅVS 7821 Höstvädersgatan 59  ,,Biskopsgården 830:732,Höstvädersgatan 59  ,1480,,57.71639,11.89111
248733,ÅVS 7831 Folke Filbyters Stig 7  ,,Backa 69:1,Folke Filbyters Stig 7  ,1480,,57.75333,11.97583
248738,ÅVS 7836 Väderilsgatan 2  ,,BISKOPSGÅRDEN 830:751,Väderilsgatan 2  ,1480,,57.72778,11.895
248739,ÅVS 7837 Helleforsgatan 4  ,,SÄVENÄS 747:107,Helleforsgatan 4  ,1480,,57.72222,12.03667
248740,ÅVS 7838 Torpagatan 20  ,,SÄVENÄS 40:34,Torpagatan 20  ,1480,,57.71778,12.03583
248741,ÅVS 7840 Fräntorpsgatan 8  ,,Sävenäs 747:137,Fräntorpsgatan 8  ,1480,,57.72806,12.05111
248743,ÅVS 7842 Uddeholmsgatan 7  ,,Sävenäs 747:177,Uddeholmsgatan 7  ,1480,,57.72472,12.0375
248746,ÅVS 7845 Fornborgsgatan 37  ,,TORSLANDA 72:1,Fornborgsgatan 37  ,1480,,57.73028,11.77417
248749,ÅVS 7848 Lysevägen/Flyghamnsvägen 1  ,,Kärr 1:46,Lysevägen/Flyghamnsvägen 1  ,1480,,57.70667,11.76944
248750,ÅVS 7849 Noleredsvägen 9,,Torslanda 36:13,Noleredsvägen 9  ,1480,,57.72278,11.76389
248752,ÅVS 7851 Rödklövern 1  ,,TORSLANDA 45:290,Rödklövern 1  ,1480,,57.72722,11.77472
248756,ÅVS 7855 Norumshöjd ,,TUVE 9:65,Norumshöjd   ,1480,,57.75778,11.92444
248758,ÅVS 7857 Brunnehagen 1  ,,Tuve 12:15,Brunnehagen 1  ,1480,,57.75028,11.92611
248759,ÅVS 7858 Arvesgärde,,TUVE 10:143,Arvesgärde   ,1480,,57.75167,11.925
248760,ÅVS 7860 Bäcktuvevägen/Bäckedalsvägen,,TUVE 15:201,Bäcktuvevägen/Bäckedalsvägen   ,1480,,57.73444,11.94139
248762,ÅVS 7862 Tuve Torg   ,,TUVE 10:149,Tuve Torg   ,1480,,57.75361,11.92778
248763,ÅVS 7863 Östra Gunnesgärde ,,Tuve 11:108,Östra Gunnesgärde   ,1480,,57.74889,11.93417
248765,ÅVS 7866 Karneolgatan   ,,TYNNERED 761:687,Karneolgatan   ,1480,,57.65694,11.895
248771,ÅVS 12153 Höstvädersgatan 25  ,,BISKOPSGÅRDEN 30:4,Höstvädersgatan 25  ,1480,,57.71389,11.89167
248774,ÅVS 12157 Innegårdsängen 42  ,,Låssby 3:6,Innegårdsängen 42  ,1480,,57.74222,11.81889
248777,ÅVS 12161 Poesigatan 2  ,,BACKA 866:693,Poesigatan 2  ,1480,,57.73417,11.97278
248786,ÅVS 12176 Haga Kyrkogata 6,,HAGA 715:15,Haga Kyrkogata 6  ,1480,,57.69833,11.96278
248788,ÅVS 12181 Badvädersgatan  ,,BISKOPSGÅRDEN 830:890,Badvädersgatan   ,1480,,57.72694,11.89667
248789,ÅVS 12186 Molnvädersgatan 18  ,,BISKOPSGÅRDEN 55:16,Molnvädersgatan 18  ,1480,,57.72,11.89639
248790,ÅVS 12188 Väderbodarna 2  ,,BISKOPSGÅRDEN 830:751,Väderbodarna 2  ,1480,,57.72417,11.89556
248803,ÅVS 12228 Prilyckegatan 125  ,,Kärra 43:7,Prilyckegatan 125  ,1480,,57.79417,11.98389
248807,ÅVS 12238 Seglaregatan 3  ,,MAJORNA 146:28,Seglaregatan 3  ,1480,,57.69167,11.91917
248812,ÅVS 12246 Äringsgatan 2  ,,KYRKBYN 93:2,Äringsgatan 2  ,1480,,57.70944,11.90778
248815,ÅVS 12250 Smyckegatan 40  ,,TYNNERED 27:9,Smyckegatan 40  ,1480,,57.65389,11.9
248817,ÅVS 12255 Ekebygatan 1  ,,BACKA 100:1,Ekebygatan 1  ,1480,,57.75722,11.98806
248819,ÅVS 12257 Kavaljersgatan 1  ,,BACKA 71:1,Kavaljersgatan 1  ,1480,,57.75667,11.98306
248820,ÅVS 12258 Körkarlens Gata 1  ,,BACKA 72:1,Körkarlens Gata 1  ,1480,,57.75667,11.98472
248821,ÅVS 12259 Plockerotegatan ,,BACKA 866:723,Plockerotegatan   ,1480,,57.75694,11.96778
248822,ÅVS 12260 Åketorpsgatan 44 ,,BACKA 866:723,Åketorpsgatan 44  ,1480,,57.755,11.96222
248825,ÅVS 12263 Arvesgärde 35  ,,TUVE 55:4,Arvesgärde 35  ,1480,,57.75333,11.92083
248831,ÅVS 12310 Kjellmansgatan 7  ,,STIGBERGET 30:1,Kjellmansgatan 7  ,1480,,57.69806,11.93833
248832,ÅVS 12786 Brämaregatan 15 ,,Brämaregården 72:5,Brämaregatan 15  ,1480,,57.71889,11.94417
248833,ÅVS 12810 Chapmans Torg 6  ,,MAJORNA 720:412,Chapmans Torg 6  ,1480,,57.69306,11.91889
248838,ÅVS 12838 Källviksvägen   ,,NÄSET 759:84,Källviksvägen   ,1480,,57.62028,11.90167
248840,ÅVS 12876 Godhemsgatan 3  ,,MAJORNA 722:139,Godhemsgatan 3  ,1480,,57.68806,11.92833
248843,ÅVS 12882 Övre Hallegatan 8,,BRÄMAREGÅRDEN 60:1,Övre Hallegatan 8  ,1480,,57.7175,11.93806
248844,ÅVS 13411 Apelsingatan   ,,TYNNERED 761:733,Apelsingatan   ,1480,,57.65611,11.88111
248847,ÅVS 13414 Västra Stillestorpsgatan 7  ,,BRÄMAREGÅRDEN 74:3,Västra Stillestorpsgatan 7  ,1480,,57.71694,11.93444
248856,ÅVS 14578 Syster Emmas Gata 11  ,,Guldheden 754:30,Syster Emmas Gata 11  ,1480,,57.67833,11.97444
248857,ÅVS 14579 Syster Estrids Gata 5 ,,GULDHEDEN 46:1,Syster Estrids Gata 5  ,1480,,57.67972,11.97167
248861,ÅVS 14653 Gamla Särövägen   ,,Billdal 9:1,Gamla Särövägen   ,1480,,57.57806,11.94083
248863,ÅVS 14657 Blankversgatan 1  ,,BACKA 866:822,Blankversgatan 1  ,1480,,57.73528,11.97417
248864,ÅVS 14659 Kvillegatan 14  ,,BRÄMAREGÅRDEN 737:816,Kvillegatan 14  ,1480,,57.71833,11.95083
248867,ÅVS 14674 Timjansgatan 27  ,,GÅRDSTEN 3:13,Timjansgatan 27  ,1480,,57.80861,12.02583
248869,ÅVS 14685 Gibraltargatan 94  ,,KROKSLÄTT 708:601,Gibraltargatan 94  ,1480,,57.68083,11.98472
248870,ÅVS 14686 Kärralundsgatan 3  ,,LUNDEN 69:3,Kärralundsgatan 3  ,1480,,57.70778,12.00861
248871,ÅVS 14688 Skogshyddegatan 14 ,,LUNDEN 745:111,Skogshyddegatan 14  ,1480,,57.70639,12.00111
248872,ÅVS 14689 Slätten 1  ,,Lunden 745:219,Slätten 1  ,1480,,57.71083,12.00167
248873,ÅVS 14697 Fogelmarksvägen 8  ,,Nästet 759:543,Fogelmarksvägen 8  ,1480,,57.62,11.88556
248875,ÅVS 14703 Orgelgatan/Norra Dragspelsgatan   ,,JÄRNBROTT 758:102,Orgelgatan/Norra Dragspelsgatan   ,1480,,57.65444,11.91583
248883,ÅVS 14768 Linnarhultsvägen   ,,Hjällbo 84:2,Linnarhultsvägen   ,1480,,57.77667,12.06222
248893,ÅVS 14785 Traneredsvägen 110  ,,Rud 760:101,Traneredsvägen 110  ,1480,,57.66083,11.88833
248898,ÅVS 15870 Backa Transportgatan   ,,BACKA 107:1,Backa Transportgatan   ,1480,,57.77556,12.00111
248901,ÅVS 16003 Burggrevegatan,,GULLBERGSVASS 703:54,Burggrevegatan   ,1480,,57.71,11.98389
248903,ÅVS 16179 Margretebergsgatan 2  ,,SLOTTSSKOGEN 719:4,Margretebergsgatan 2  ,1480,,57.68056,11.94444
248905,ÅVS 16264 Polstjärnegatan   ,,Dubelskapat fastighet,Polstjärnegatan   ,1480,,57.70972,11.93194
248909,ÅVS 16893 Palmträgatan   ,,Backa 766:584,Palmträgatan   ,1480,,57.74861,11.98056
248911,ÅVS 16898 Universumsgatan   ,,BERGSJÖN 767:258,Universumsgatan   ,1480,,57.74833,12.06806
248917,ÅVS 16956 Riksdalersgatan/Guldmyntsgatan 13  ,,JÄRNBROTT 758:66,Riksdalersgatan/Guldmyntsgatan 13  ,1480,,57.67333,11.92333
248919,ÅVS 16981 Sisjöbäckens Väg   ,,KOBBEGÅRDEN 542:1,Sisjöbäckens Väg   ,1480,,57.63639,11.95583
248926,ÅVS 17545 Ametistgatan   ,,ÖNNERED 46:1,Ametistgatan   ,1480,,57.64139,11.90167
248928,ÅVS 99015 Kanelgatan 52  ,,GÅRDSTEN 1:4,Kanelgatan 52  ,1480,,57.80861,12.02333
248929,ÅVS 99017 Pianogatan  ,,JÄRNBROTT 758:566,Pianogatan   ,1480,,57.64972,11.91889
248939,ÅVS 99111 Stora Tolsereds Väg   ,,KÄRRA 18:3,Stora Tolsereds Väg   ,1480,,57.80389,11.97278
248943,ÅVS 99159 Balsamingatan 8  ,,KÅLLTORP 746:4,Balsamingatan 8  ,1480,,57.71806,12.02194
248947,ÅVS 99265 Miraallén   ,,SANNEGÅRDEN 37:2,Miraallén   ,1480,,57.70694,11.92889
248948,ÅVS 99268 Valskvarnsgatan/Östra Eriksbergsgatan   ,,SANNEGÅRDEN 32:2,Valskvarnsgatan/Östra Eriksbergsgatan   ,1480,,57.70222,11.91278
100256,Krokslätts Torg,,Krokslätt 1:165,Krokslätts Torg,1481,,57.674363,12.008188
100354,Greggered,,Greggered 3:2,Norra Hällesåkersvägen,1481,,57.60757384595976,12.14998555157344
116847,Fågelstensvägen,,Gastorp,Fågelstensvägen 70,1481,,57.575057252121795,12.062067445936302
116849,Tullbomsvägen,,,Tullbomsvägen,1481,,57.591305,12.061921
118466,Flyttfågelvägen,,Fågelsten 1:17,Stannfågelvägen 24,1481,,57.57277153058639,12.071500370287335
118852,Tallkottegatan,,Stensjön 1:66,Tallkottegatan,1481,,57.662974,12.041031
121871,Lindome ÅVC,,,Smidesvägen 9,1481,,57.575518,12.090751
677014480,Vikingatorget Willys,,.,Vikingagatan 1,1482,,57.8691699999911,11.96639
677014494,ICA Nära Skafferiet,,.,Ivar Claessonsgata 34,1482,,57.8766699986509,11.9875000007819
1008,1008 Torpet,,1008 Torpet,1008 Torpet,1484,,58.2883602464763,11.4718728141284
1015,1015 Brodalen,,1015 Brodalen,1015 Brodalen,1484,,58.4140692410772,11.479047130251
6050589,Kissleberg.,148502,KISSLEBERG 1:5,Boströmsvägen Åvs ,1485,,58.35306,11.84917
6054161,Fridhem.,148519,HELENEDAL 1:1,Fridhemsvägen Åvs ,1485,,58.38139,11.93556
148810,ÅVS Gryningsvägen,,0,Gryningsvägen,1488,,58.303,12.28335
148819,ÅVS Kvarntorpsvägen,,0,Kvarntorpsvägen,1488,,58.19789,12.21971
6984,ICA Supermarket Noltorpsgatan,,,Noltorpsgatan 8,1489,,57.93778,12.52278
6986,Willys,,,Hagaplan,1489,,57.93778,12.53417
6990,"Östlyckan, Nolby 37:1",,,Mångatan/ Kometgatan,1489,,57.93028,12.54833
6992,"Bakom affären, Ingared",,,Ingaredsgatan,1489,,57.84917,12.4575
6996,"Västra Bodarna, Affären",,,Västra Bodarnevägen,1489,,57.8875,12.47361
002,Bergsäter,,,Rosendalsgatan 10,1490,"Se vad du kan sortera på varje station samt dess tömningsdagar i vår app ""Sortera med mera"", där kan du även felanmäla.",57.71556,12.96417
003,Borgstena,,,Krögarevägen,1490,"Se vad du kan sortera på varje station samt dess tömningsdagar i vår app ""Sortera med mera"", där kan du även felanmäla.",57.88194,13.01583
013,Centrum Nornan,,,Södra Kyrkogatan 36,1490,"Se vad du kan sortera på varje station samt dess tömningsdagar i vår app ""Sortera med mera"", där kan du även felanmäla.",57.722042,12.944399
018,Dammsvedjan,,,Svedjegatan 15,1490,"Se vad du kan sortera på varje station samt dess tömningsdagar i vår app ""Sortera med mera"", där kan du även felanmäla.",57.69917,12.94278
019,Dannike,,,Centrumvägen,1490,"Se vad du kan sortera på varje station samt dess tömningsdagar i vår app ""Sortera med mera"", där kan du även felanmäla.",57.68889,13.22639
022,Femskiftet,,,Roasjövägen,1490,"Se vad du kan sortera på varje station samt dess tömningsdagar i vår app ""Sortera med mera"", där kan du även felanmäla.",57.63028,13.025
024,Fristad Åvc,,,Skalle,1490,"Se vad du kan sortera på varje station samt dess tömningsdagar i vår app ""Sortera med mera"", där kan du även felanmäla.",57.81472,13.01417
025,Fristad Torget,,,Nya Kyrkvägen 6,1490,"Se vad du kan sortera på varje station samt dess tömningsdagar i vår app ""Sortera med mera"", där kan du även felanmäla.",57.82472,13.01222
028,Gånghester,,,Stora Vägen 2,1490,"Se vad du kan sortera på varje station samt dess tömningsdagar i vår app ""Sortera med mera"", där kan du även felanmäla.",57.69778,13.02639
031,Hedvigsborg,,,Hedvigsborgs vägport,1490,"Se vad du kan sortera på varje station samt dess tömningsdagar i vår app ""Sortera med mera"", där kan du även felanmäla.",57.70556,12.95028
036,Hässleholmen Marklandsgatan,,,Marklandsgatan 2,1490,"Se vad du kan sortera på varje station samt dess tömningsdagar i vår app ""Sortera med mera"", där kan du även felanmäla.",57.73139,12.97722
039,Kinnarumma,,,Byvägen,1490,"Se vad du kan sortera på varje station samt dess tömningsdagar i vår app ""Sortera med mera"", där kan du även felanmäla.",57.59889,12.87806
048,Norrby Almåsparken,,,Almåsparken,1490,"Se vad du kan sortera på varje station samt dess tömningsdagar i vår app ""Sortera med mera"", där kan du även felanmäla.",57.72361,12.925
053,Sandared,,,Alingsåsvägen 47,1490,"Se vad du kan sortera på varje station samt dess tömningsdagar i vår app ""Sortera med mera"", där kan du även felanmäla.",57.71778,12.78944
058,Sjöbo Torg,,,Bergakungsgatan 6,1490,"Se vad du kan sortera på varje station samt dess tömningsdagar i vår app ""Sortera med mera"", där kan du även felanmäla.",57.74833,12.94389
060,Sjömarken Björkedalsvägen,,,Björkdalsvägen,1490,"Se vad du kan sortera på varje station samt dess tömningsdagar i vår app ""Sortera med mera"", där kan du även felanmäla.",57.71722,12.8275
067,Vänga,,,Vängavägen,1490,"Se vad du kan sortera på varje station samt dess tömningsdagar i vår app ""Sortera med mera"", där kan du även felanmäla.",57.85,12.94722
071,Viskafors ÅVC,,,Textilvägen,1490,"Se vad du kan sortera på varje station samt dess tömningsdagar i vår app ""Sortera med mera"", där kan du även felanmäla.",57.625014,12.833618
10931,Blidsberg ,Blidsberg,,Entreprenadvägen - vändplan,1491,,57.932512,13.492557
10937,Liared,Liared,,Brandstationen,1491,,57.841348,13.640673
10938,Marbäck,Marbäck,,Ulricehamnsvägen - grusplan,1491,,57.742957,13.417718
10943,Timmele,Timmele,,Plantvägen,1491,,57.863986,13.432528
10945,Trädet ,Trädet,,Industrigatan - vändplan,1491,,57.983859,13.528675
10946,Tvärred,Tvärred,,Folkesred,1491,,57.724167,13.306843
10947,Ulricehamn - Karlsnäs,Ulricehamn,,Vistvägen/Karlsnäsv,1491,,57.807262,13.410112
10952,Vegby,Vegby,,Karl Johans väg,1491,,57.676953,13.366006
10953,Älmestad,Älmestad,,"Gamla grusgopen, utmed väg 182 mot Timmele",1491,,57.897282,13.354253
16854,Ulricehamn - ICA Maxi ,Ulricehamn,,Falköpingsvägen,1491,,57.812043,13.420789
15421,Östby miljöstation åvc,,,"Östby 910, Åmål",1492,,59.09472,12.75806
6471,Norra Hamnplan återvinningsstation,,,"Måkebergsvägen, Åmål",1492,,59.05556,12.7075
9028,Gästhamnen,,KANALJORDEN 1:2,Kanalvägen 5(till 9),1493,,58.8025,14.05806
9031,Folkets Park,,GAMLA STADEN 6:1,Strandvägen 27,1493,,58.71389,13.82833
9050,Tidavads skola,,TIDAVAD 3:7,Tidavad nya skolan 1,1493,,58.57806,13.85194
149412861,ÅVS FRAMNÄS,,SANNORNA 3:1,FRAMNÄS PARKERING,1494,,58.5116109614204,13.1418859792738
149412866,ÅVS MÅNESKÖLD,,PALMEN 1,LINJEVÄGEN MÅNESKÖLDSKOLAN,1494,,58.5019594068491,13.1397912144833
149412869,ÅVS STENHAMMAR,,VILLA GIACOMINA 1:15,STENHAMMARSVÄGEN,1494,,58.5343627978039,13.1148711319138
149412873,ÅVS MARGRETELUND,,MARGRETELUND 1:1,VÄSTGÖTAGATAN MARGRETELUND,1494,,58.4882745973945,13.1718283733319
149412876,ÅVS RÅDA,,RÅDA 5:1,KARLSTORPSVÄGEN SILVERBYN,1494,,58.5018183264694,13.1237156887744
149412880,ÅVS VINNINGA,,SÄVARE 37:1,KONVALJEVÄGEN VINNINGA SKOLA,1494,,58.4527081349138,13.26050665594
9785,Lokstallet,,SKARA GAMLA STADEN 2:1,Vallgatan,1495,,58.38333,13.44861
9786,Skaravallen p-plats Hindsbogatan,,SKARA MARIEBERG 2:1,,1495,,58.38583,13.42444
9787,P-plats Katedralskolan,,SKARA DOMPROSTEN 1,,1495,,58.39111,13.45056
9789,Coop Forum,,BOCKEN 1,Smedstorpsgatan 6,1495,,58.37944,13.41361
9796,P-plats skolan,,SKARA KLOSTRET 22:1,,1495,,58.38639,13.64778
12814,"Skövde, Östermalm",,SKÖVDE 5:250,Östergatan,1496,,58.38694,13.87333
12818,"Värsås, Västerleden",,"VÄRSÅS 1:15, 8:49",Västerleden,1496,,58.34944,14.04917
13283,Skultorp,,SKULTORP 1:147,Klagstorpsvägen,1496,,58.34167,13.84111
13288,Skultorp (ÅVC),,SKÖVDE HENE 22:1,Industrigatan,1496,,58.3475,13.83139
15971,Ekebacksvägen Parkering,,EKEBACKEN S:1,Ekebacksvägen,1496,,58.41,13.83806
9842,"Skövde, p-plats Hemköp",,VÅMB 30:241,Gröna vägen,1496,,58.36861,13.82528
9844,Lerdala,,LERDALA 2:44,Sparresätersvägen,1496,,58.48,13.71139
9848,"Skövde, Södermalms IP p-plats",,SKÖVDE 4:338,Skaraborgsgatan,1496,,58.37944,13.84278
9852,"Skövde, Kvantumhuset p-plats",,GLIMMERN 1,Gamla Kungsvägen,1496,,58.39583,13.83417
9853,"Skövde, Kvarteret Fyren, badhuset",,SKÖVDE 4:305,Egnells väg,1496,,58.3925,13.83528
9855,"Skövde, P-plats Billingehov",,SKÖVDE 4:140,Karstorpsleden,1496,,58.415,13.84611
9865,"Stöpen, ICA Blomman",,DUNSHULT 1:1,Hästskovägen 6,1496,,58.475,13.86389
9869,"Södra Ryd, P-plats",,RYD 15:1,Myggdansvägen,1496,,58.43167,13.88056
15152,Falköpingsvägen,,HJO SÖDER 3:43,Sigghusgatan 3,1497,,58.30167,14.275
1698,Stationen,,HJO NORR 3:59,Bangatan 4,1497,,58.30611,14.29417
6958,Blikstorp,,BLECKSTORP 1:20,Centralvägen,1497,,58.28194,14.05806
12326,Tidaholm ÅVC Siggestorp,,SIGGESTORP 3:1,Stallängsvägen 51,1498,,58.164707,13.964763
5436,Ekedalen,,VARV 12:35,Ekedalen,1498,,58.206148,13.843427
5437,Folkabo,,VALSTAD 9:4,Folkabo,1498,,58.126266,13.825254
5439,Gälleberg ,,STORA GÄLLEBERG 1:47,Gälleberg,1498,,58.125641,14.058542
5443,Tidaholm Dyckertsgatan,,KULLEN 3,Dyckertsgatan,1498,,58.18358,13.966811
13441,Mossen (ÅVC),,FALKÖPING FALEVI 8:14,,1499,,58.15528,13.53444
15464,"Floby (ÅVC), tillfällig",,FALKÖPING TORREVALLA 1:1,Ullenevägen ,1499,,58.13528,13.36833
15465,"Stenstorp (ÅVC), tillfällig",,FALKÖPING RANSTAD 9:16,,1499,,58.27194,13.72611
16580,Prästgårdsgärde,,GAMLA STAN 2:26,"Landbogatan, parkeringen",1499,,58.16,13.54972
16732,Åttagården,,KRÄFTAN 1,Hjelmarörrsgatan parkeringen,1499,,58.17083,13.56972
17230,Jäla Hembygdsgård,,ULLARP 1:1,Jäla Ullarp,1499,,58.03139,13.35611
7527,Vid Willys,,GAMLA STAN 2:26,Marknadsgatan,1499,,58.1625,13.55972
7537,Tempo Stenstorp,,ALLMÄNNINGEN 3,Storgatan 28,1499,,58.27222,13.71611
7539,Korsningen,,, Gamla Falköpingsvägen,1499,,58.2275,13.64556
7540,Samlingslokalen,,SLÖTA 4:71, ,1499,,58.09944,13.63167
7542,Gudhem,,AMBJÖRNTORP 2:18, Torbjörntorpsvägen,1499,,58.22556,13.56722
171503,Kil Centrum,,,Magasingatan,1715,,59.504705496560476,13.318294548540987
171504,Mon ,,,Mogatan ,1715,,59.50935416881583,13.335832643797186
171505,Willys ,,,Skogsvägen 41,1715,,59.50013980081291,13.316225631594474
171506,Norra Stenåsen,,,Stenåsvägen ,1715,,59.5020583,13.3399732
171508,ICA,,,Storgatan ,1715,,59.503790050517374,13.313530058877395
171511,Återvinningcentral ,,,Värmevägen ,1715,,59.50855087199831,13.287706652841306
600,Idrottsvägen,,SÖDRA ÄMTERUD 1:739,,1730,,59.88444,12.31
605,Bruksgatan,,BETE 1:229,,1730,,59.7075,12.15
608,Centrum,,BODA 2:1,,1730,,59.81806,12.00917
610,Fridensgatan,,ÅMOTFORS 2:65,,1730,,59.76472,12.35306
611,Älvuddsgatan,,ÄLVUDDEN ÖSTRA 14,,1730,,59.76167,12.36333
00310786,ÅVS PEKÅS TORSBY,,REPARATÖREN 9,BANGÅRDSGATAN 3 B,1737,,60.1364858632465,13.0055394644731
30010790,ÅVS ÖSTMARK AFFÄREN,,ÖSTMARK 3:99,RÖJDÅFORSVÄGEN 1 B,1737,,60.2786758694439,12.760029919158
50310775,ÅVS AFFÄREN LEKVATTNET,,STENSGÅRDS UTSKOG 1:155,LEKVATTNET 1,1737,,60.1904946103972,12.6728241233575
60810771,ÅVS TRYGGHETSBOENDE BOGRANGEN,,BOGRANGEN 1:124,GRÄNSVÄGEN 35 B,1737,,60.7021554276044,12.5938650143802
61317687,ÅVS ORREN BRANÄSTOPPEN,,BRANÄS 4:55,ORREN 127,1737,,60.6523491346738,12.9327695189841
17601,Kyrksten,,STORFORS ALKVETTERN 2:160,Kyrksten,1760,Storfors,59.435731,14.395392
17602,ICA Nära,,STORFORS STORFORS 11:196,Tallbacksgatan 10,1760,Storfors,59.536403,14.281081
176105,"Nolgård, Coop",,NOLGÅRD 1:318,Bivägen 7,1761,,59.344093,13.505652
3116983,SUNNMANS VÄG (SINGEL - FÄRGAT GLAS),,MUNKFORS 9:35,SUNNMANSVÄG 4,1762,,59.8331088072473,13.5398888723727
5516993,RUDSTORPSVÄGEN (SINGEL-GLAS),,RUDSTORPSVÄGEN 1:50,RUDSTORPSVÄGEN 2,1762,,59.7696228179063,13.463070075087
8135740,ÅVS MUNKERUD (MECA),,MUNKERUD 2:261,MUNKERUDSVÄGEN 30,1762,,59.8306268782188,13.5208255411593
16114,Forshaga; Coop Konsum Centrum,,LÄRKAN 7,Storgatan 36,1763,,59.53166,13.48089
16566,Kvarntorps ÅVC,,KVARNTORP 2:4,Traktorgatan 1,1763,,59.56559,13.48174
920,Skived; Coop Nära,,GETEN 1,Lövgatan 6,1763,,59.52073,13.4811
1764 04,Segmon,,Storängen 1:87,,1764,,59.275412,13.040348
1764 07,Slottsbron,,Eds-Strand 1:57,,1764,,59.323702,13.09595
6508,Blomskog Trättlanda lanthandel,,Blomskog,,1765,,59.28278,12.03167
6512,Sillerud ICA Svensbyn,Sillerud,,,1765,,59.32028,12.31167
6514,Töcksfors Brandstationen,Töcksfors,,Sveavägen 21,1765,,59.50889,11.84111
6517,Östervallaskog Lanthandeln,Östervallskog,,,1765,,59.64306,11.86083
6051870,ÅVS LÖVÅSEN,,ÅSEGÅRD 1:168,LÖVSTAHOLM 85,1766,,59.9934598856258,13.2943952039984
6051940,ÅVS MALLBACKEN,,ÅSEGÅRD S:32,ÅSEGÅRD 92,1766,,59.9880831957284,13.218362371965
7515399,ÅVS HOLMBY AVFALLSANLÄGGNING,,HOLMBY 2:1,HOLMBY 24,1766,,59.8601372688766,13.1096378541222
4025678,Alster; Lantmännen,2261,BRÅTEBÄCKEN 1:1,Lantmannavägen ,1780,,59.4004763,13.611051
4025684,Kroppkärr,12704,SÖDRA KROPPKÄRR 1:1,Talluddsgatan/Östra Infarten ,1780,,59.4001118,13.5486633
4025685,Sundsta; bakom Circle K,12712,SUNDSTA 2:1,Sävegatan/Drottning Kristinas Väg ,1780,,59.3934918,13.5145806
4025686,Edsvalla,12713,HÖGLUNDA 1:322,Edsvallavägen/Dalsängsvägen ,1780,,59.4400239,13.2097286
4025689,Skåre centrum; Ica Hallen,12718,ÖSTRA TORP 1:154,Centrumvägen 4,1780,,59.435477,13.4391083
4025693,ÅVC Vålberg,15432,VÅLBERG 1:426,Älvenäsvägen/Notbodvägen 2,1780,,59.3845973,13.1874684
4025697,Skåre,16738,ÖSTRA TORP 1:154,Trysilvägen ,1780,,59.4333708,13.4421965
4025707,Klara; vid Tingvalla IP,99252,KLARA 1:11,Regementsgatan ,1780,,59.3850667,13.4908988
461514,Björneborg Hyttgatan,,Björneborg 7:15,Hyttgatan,1781,,59.24312,14.25293
461516,Skottlanda,,Skottlanda 1:68,Skottlanda,1781,,59.09806,14.27
461518,Gaterud,,Vassgårda 1:13,Visnum Kilsvägen Gaterud,1781,,59.25255,14.12372
461523,Storängsgatan ,,Östermalm 1:1,Storängsgatan,1781,,59.30861,14.12944
461526,Nolbygatan,,Broängen 1:1 ,Nolbygatan,1781,,59.32021,14.09669
461529,Ölme Kyrka,,Rudsberg 4:1,Mårövägen,1781,,59.365,13.93333
461530,Karlagatan,,Sunneberg 1:36,Karlagatan,1781,,59.31911,14.13717
461534,Djurgårdsvägen,,Djurgården 1:24,Djurgårdsvägen,1781,,59.29972,14.09333
461536,S:a Staketgatan,,Bro 1:1,S:a Staketgatan 40,1781,,59.30685,14.10585
461539,Sandfallsvägen/Riksväg 26,,Sandfallet 1:1,Sandfallsvägen/Riksväg 26,1781,,59.32694,14.11472
01215892,ÅVS GUSTAFSFORSVÄGEN 2-6,,HAGFORS 2:166,GUSTAFSFORSVÄGEN 5,1783,,60.0361703867176,13.7028740325152
04817899,ÅVS UDDEHOLM,,STJÄRN 1:317,STJÄRNFORSVÄGEN 103,1783,,60.0277238407601,13.6232034991519
102,Arvika Sjukhuset Taserud,,SJUKHUSET 1,Ekvägen 8,1784,,59.66722,12.61556
105,Gunnarskog Thybergs affär,,STORA ÅRBOTTEN 1:80,,1784,,59.79528,12.60889
13357,ÅVC Mosseberg,,MOSSEBERG 1:6,,1784,,59.67639,12.58806
17190,Sulvikingen,,SULVIK 6:4,mitt emot ICA och Din x,1784,,59.67611,12.41806
6890,Arvika,,DOTTEVIK 2:77,Björns väg,1784,,59.63861,12.61556
94,Arvika Prästängen,,PRÄSTÄNG 1:3,Hästhovsgatan,1784,,59.66111,12.56028
10588,Värmlandsbro återvinningsstation,,,"Brovägen 25, Säffle",1785,I början av Moelvens parkering,59.18611,13.015
16834,Sund återvinningsstation,,,"Bondevägen, Säffle",1785,Mittemot förskolan Sund,59.125,12.9375
LEK_14480,LEKEBERG ÅVC,,FJUGESTA 6:43,TEGELSLAGAREGATAN 5,1814,,59.1722449988823,14.8817359934292
LEK_16488,MULLHYTTAN,,SÖRHULT 1:43,MULLHYTTE LETSTIG 204,1814,,59.1504100021606,14.6831480073167
LEK_8788,LEKEBERG UTANFÖR ÅVC,,FJUGESTA 6:36,TEGELSLAGAREGATAN 3,1814,,59.1720240042912,14.8799580063703
LAX_15555,LAXÅ ÅVC,,LAXÅSKOGEN 1:311,STORÄNGSVÄGEN 8,1860,,58.987859996018,14.6368350069233
LAX_87800,CAMPINGEN BAGGEKÄRR,,BAGGEKÄRR 1:2,BAGGEKÄRR 2 A,1860,,58.7984127173095,14.5392812122206
LAX_8784,LAXÅ LINNÉAGATAN,,LASSÅNA 3:2,LINNÉAGATAN,1860,,58.9792079770542,14.6236971540675
LAX_8786,TIVED,,SANNERUD 1:65,SANNERUDS BYGATA,1860,,58.7736416026684,14.531447457772
HAL_13597,SVENNEVAD,,SVENNEVADSBY 1:34,NORRKÖPINGSVÄGEN,1861,,59.0194324275261,15.3805298386688
HAL_14438,VRETSTORP,,VIBY 3:3,RABOGATAN,1861,,59.0212218906688,14.8670949288761
HAL_16256,ÖSTANSJÖ,,ÖSTANSJÖ 1:34,HALLSBERGSVÄGEN 82,1861,,59.0441599981537,14.9790309919829
HAL_17043,HALLSBERG SÖDRA ALLÉN,,HALLSBERGS CENTRUM 1:1,SÖDRA ALLÉN 2,1861,,59.0633469965529,15.1018270035768
HAL_17338,HALLSBERG INDUSTRIGATAN,,SKÖRDETRÖSKAN 4,INDUSTRIGATAN,1861,,59.0685152877671,15.1066369356434
HAL_7904,HJORTKVARN,,FÅGELHULT 1:12,NORRKÖPINGSVÄGEN,1861,,58.8949146857998,15.4319145406066
HAL_7906,SKÖLLERSTA ICA,,SKÖLLERSTA 1:4,KLOCKARVÄGEN,1861,,59.1378234308098,15.3458150054769
12758,Slingan,,Agen 23:3,Skolgatan 30,1862,,59.244307,14.438898
583,Kristinagränd,Jannelund,Jannelund 1:1,Kristinagränd,1862,,59.234474,14.430516
589,Strömtorp,ICA,Strömtorp 2:1,Arngärdesgatan 2,1862,,59.249054,14.413713
590,Svartå,,,Industrivägen,1862,,59.127378,14.521615
214437,HÄLLEFORS KLOCKARSKOGEN,,GYLTBO 1:1,BASVÄGEN,1863,,59.7727741895228,14.5352773737596
214442,HÄLLEFORS BRANDINVÄGEN,,GILLERSHÖJDEN 19:7,BRANDINVÄGEN,1863,,59.7808413296783,14.5196224915334
214444,HAMMARN FOLKETS HUS,,SAXHYTTAN 1:355,TALLVÄGEN 9,1863,,59.7469887471049,14.4947457717187
214448,GRÄNGSHYTTAN,,GRÄNGSHYTTAN 1:32,GRÄNGSHYTTAN,1863,,59.7247160487655,14.7852757555107
214458,SÄVSJÖN,,HÄLLEFORS 9:1,SÄVSJÖN,1863,,59.9108331334958,14.5477731908052
415210,BÅNGBRO HERRGÅRDSVÄGEN,,HEDEN 6:1,HERRGÅRDSVÄGEN,1864,,59.8594061363645,15.046041347439
415212,KOPPARBERG KYRKVÄGEN,,KLÖVERVALLEN 7,KYRKVÄGEN 14,1864,,59.8717016958103,15.0106755378016
415214,KOPPARBERG SKÄRET,,STORTORP 1:1,SKÄRETVÄGEN 14,1864,,59.8936361924317,14.9441219186935
415215,KOPPARBERG JÄRNVÄGSSTATIONEN,,HERRHAGEN 1:20,KONSTMÄSTAREGATAN,1864,,59.8729313222135,14.9885564007168
415220,HÖGFORS,,HÖGFORS 5:1,HÖGFORS,1864,,59.9904321188302,15.0194388313861
79100,Ervalla ÅVS,,Ervalla 3:1,Hembygdsvägen 1,1880,,59.4392794170227,15.2414725089398
79101,Hovsta ÅVS,,Hässelby 2:11,Kårstavägen 31,1880,,59.3467109523965,15.2358797603088
79103,Glanshammar ÅVS,,Skölv 2:25,Kemivägen 2,1880,,59.3153148288397,15.4107854235279
79105,Gällersta ÅVS,,Attersta 12:7,Forngårdsvägen 27,1880,,59.1953607929781,15.2294113136164
79121,Latorp ÅVS,,Värberg 13:1,Fabriksvägen 9,1880,,59.274830243135,14.9946769909312
79125,Ölmbrotorp ÅVS,,ÖLMBROTORP 1:1,Stationsvägen,1880,,59.3877730034664,15.2415038706171
79128,Närkes Kil ÅVS,,Kils Prästgård 1:2,Vallbyvägen 10,1880,,59.3695649373996,15.0810067880228
79129,Baronbackarna ÅVS,,REVYN 4,Hjalmar Bergmans Väg 1 B,1880,,59.2880833335705,15.2035550391866
79475,Hampetorp ÅVS,,Hampetorp 1:28,Vinögatan 30,1880,,59.1432014600048,15.6721049937205
83909,Atleverken ÅVS,,ATTERSTA 7:8,Tippvägen 1,1880,,59.2188392273117,15.2213425985543
26562,Hynnebergsvägen,,Bysta 1:5,Hynnebergsvägen,1881,,59.1101351836355,15.224542313319
ASK_12700,LERBÄCKS TEATER,,LERBÄCK 1:48,LERBÄCK GÄSTGIVAREGÅRD 315,1882,,58.9553204272643,15.0596060096304
ASK_12770,ÅSBRO,,ÅSBRO 1:214,IMPREGNERINGSVÄGEN 4,1882,,58.993892999008,15.053892001976
ASK_13100,SUNDSGÅRDEN,,SUNDET 1,SUNDSGATAN 1,1882,,58.8793476252609,14.9004668525553
ASK_16112,ASKERSUND HAGA,,HAGA 1:19,FOLKE DAHLBERGS VÄG,1882,,58.880305551773,14.9197997331002
ASK_17121,HARGE UTANFÖR CAMPINGEN ,,HARGE 3:33,HARGEBADSVÄGEN,1882,,58.7827807179842,14.9737603395965
ASK_17200,HARGEBADENS CAMPING,,HARGE 1:66,HARGEBADSVÄGEN 89,1882,,58.78400793586,14.9745581275699
ASK_99236,OLSHAMMAR RENINGSVERKET,,OLSHAMMAR 6:17,BRUKSVÄGEN,1882,,58.7536099981356,14.7988909971427
18831,Skrågatan,,BREGÅRDEN 2:31,Skrågatan 1A,1883,Karlskoga,59.327494,14.505003
188310,Coop Storängen,,AGGERUD 2:67,Tranbärsvägen 1A,1883,Karlskoga,59.302754,14.494471
188311,P-plats mot E 18,,BREGÅRDEN 2:77,Skolgatan 5,1883,Karlskoga,59.323918,14.516645
188313,Coop Bråten ,,Spetsen 9,Noravägen 78,1883,Karlskoga,59.345114,14.56768
188316,Granbergsdal,,KARLSKOGA GRANBERGSDAL 2:7,Granbergsdal,1883,Karlskoga,59.401175,14.578244
188317,Kedjeåsen,,KARLSKOGA VÄSTRA KEDJEÅSEN 1:27,Kedjeåsen,1883,Karlskoga,59.47414,14.491309
18834,P-plats Ekeby Baptistkyrka,,BREGÅRDEN 2:90,Ingemarsvägen 3A,1883,Karlskoga,59.326919,14.496576
18837,Bergrumsvägen,,KARLSKOGA BOFORS 1:19,Bergrumsvägen,1883,Karlskoga,59.32792,14.53517
18839,Stråningstorps centrum,,AGGERUD 2:1,Stråvägen 20A,1883,Karlskoga,59.313132,14.482032
523591,NORA PARKERINGEN KONSUM,,BJÖRNEN 5,STORGATAN 19,1884,,59.5189636698998,15.0364612385695
523598,NORA ÄNGARNA,,SPOVEN 4,ÄLVSTORPSVÄGEN,1884,,59.5128966617639,15.0326926522773
316615,"FELLINGSBRO NORRA BANVÄGEN, PARKERING",,ÄNGEBY 6:1,NORRA BANVÄGEN,1885,,59.4333482016254,15.5939105564877
316619,LINDESBERG STADSSKOGEN,,STADSSKOGEN 2:6,HÖGSTADIEVÄGEN,1885,,59.6043987748181,15.2096705318274
316622,STRÅSSA CENTRUMVÄGEN,,KÅRBERGET 4:83,CENTRUMVÄGEN,1885,,59.7400137494479,15.1959024265997
316624,RAMSBERG,,RAMSHYTTAN 4:101,HÄCKLAVÄGEN 13,1885,,59.7760250279232,15.2928086399199
316627,LINDESBERG PARKVÄGEN,,,PARKVÄGEN,1885,,59.59635,15.234466
316628,LINDESBERG SÖDRA MÅLE,,YXE 7:5,MÅLE 225,1885,,59.5187970143322,15.2174593703891
316634,KLOTEN,,,KLOTEN,1885,,59.89859,15.294704
988313,"ÅVS 4516 Bernshammar, Affärsplan",,Bernshammar 1:1,"Bernshammar, Affärsplan",1904,,59.6694130756965,15.7708622857349
988314,"ÅVS 4517 Färna, Svinhuset",,Färna 2:20,Fåfängans väg,1904,,59.7811845559793,15.8570307979052
988316,ÅVS 4519 Skateparken vid Skinnskattebergs station,,Prästgården 1:61,Centralvägen 12,1904,,59.8332761764524,15.6949492797204
988317,ÅVS 4522 Återbruket Skinnskatteberg,,Ämthyttan 4:52,Näsvägen,1904,,59.8317107436835,15.6817183646612
988191,ÅVS 10460 Konsum p-plats,,Ramnäs Kyrkby 1:93,Hammarvägen 30,1907,,59.7738270843153,16.1953411868387
988224,ÅVS 12473 Virsbo Gammelby,,Virsbo 3:22,Färnebovägen,1907,,59.8696769796229,16.0860162992542
988262,ÅVS 15595 Återbruket Surahammar,,Surahammar 9:666,Stålvägen,1907,,59.7067132822791,16.2033907904413
988343,ÅVS 8575 Kungsringen,,Kungsör 3:1,Torsgatan/Kungsringen,1960,,59.4175363330197,16.0978937462812
988345,ÅVS 8582 Skillingeaffären,,Skillinge 2:140,Malmbergsvägen/Ängsvägen,1960,,59.4202745125775,16.113220915917
989808,ÅVS 8583 Kungsringen/Fågelvägen 2 E,,Kungsör 3:1,Kungsringen/Fågelvägen 2 E,1960,,59.415640824594,16.0890090912349
988232,ÅVS 1429 Motionscentrum,,Tuna 1:21,Gråstensvägen 2,1961,,59.6255505937946,16.2454294524788
988234,ÅVS 1439 Bergsgatan,,Vänsta 1:102,Bergsgatan 5,1961,,59.5612169404727,16.2233549153529
988326,ÅVS 6968 HFAB's,,Växeln 7,Trädgårdsgatan 8,1961,,59.6135232471,16.2352097724901
988354,ÅVS 9221 Karbenning station,,Bennebo 4:13,Stationen,1962,,60.0365700430655,16.0715791906872
988356,ÅVS 9223 Malmheden Skallberget IP,,Stutbo 1:23,Rönningstorpsvägen/Gamla Banan,1962,,60.0617068439677,15.9418648933454
988359,ÅVS 9227 Ringvägen 8,,Almen 2,Ringvägen 8,1962,,60.0629514247067,15.9180155016464
988198,"ÅVS 11420 Brandthovda, bussvändplats",,Västerås 3:68,Järnåldersgatan,1980,,59.6184702280338,16.6144010328545
988202,"ÅVS 11440 Klockartorpet, Statoilmacken",,Fanjunkaren 4,Knektgatan,1980,,59.6143369116564,16.5761148210517
988203,"ÅVS 11442 Kärsta, Fycklinge",,Kärsta 1:30,Kärstavägen,1980,,59.6751941704508,16.8387581876655
988206,"ÅVS 11450 Skultunabod/Miljöbod Rönnby, Bandygatan",,Västerås 4:79,Bandygatan 60,1980,,59.6442273320799,16.5107821643838
988207,ÅVS 11451 Rönnby,,Västerås 4:79,Löpargatan/Rönnbyvägen,1980,,59.6534567271921,16.499764001414
988218,ÅVS 11478 Återbruket Stenby,,Kraftledningen 7,Kraftlinjegatan 10,1980,,59.640717503087,16.5701027668256
988236,ÅVS 14551 Sigfrid Edströms gata 6,,Lugnet 1,Sigfrid Edströms gata 26 -36,1980,,59.5982062254496,16.5044617759612
988237,ÅVS 14741 ICA Supermarket Grytan ,,Idet 1,Norrleden/Grytavägen 1,1980,,59.6378967345444,16.5465118116009
988253,ÅVS 15329 Hälla shopping parkeringen,,Köpmannen 6,Stockholmsvägen,1980,,59.5252984484865,16.2436145670527
988254,ÅVS 15334 Asarnas väg,,Ullvi 3:640,Asarnas väg,1980,,59.6108851757166,16.6946372946704
988265,ÅVS 15875 IKEA Erikslund,,Domkraften S:1,Domkraftsgatan 2,1980,,59.6082828345963,16.449797443071
988280,"ÅVS 16649 Stallhagen, Järnvägen",,Västerås 2:70,Nedre Hyttvägen,1980,,59.6001651102097,16.5342777646824
988282,ÅVS 16884 ICA Supermarket Skultuna,,Kvarnbacka 3:84,Krongjutarvägen,1980,,59.7191672381622,16.427261615724
988287,ÅVS 17340 Ymergatan/Sveaborgsvägen,,Ullvi 3:640,Ymergatan 1,1980,,59.6006336635704,16.6839125659135
988361,ÅVS 99070 Vattentornet,,Västerås 4:91,Nansengatan,1980,,59.629738068496,16.5425260911341
988482,Skultunabod Vallonvägen 47,,Skultuna Prästgård 1:57,Vallonvägen 47,1980,,59.7127174631385,16.4345690328913
988485,Skultunabod Åvägen,,Kvarnbacka 3:46,Åvägen,1980,,59.7231421729008,16.4281736303512
988486,Skultunabod Bruksgatan,,Kvarnbacka 3:101,Bruksgatan,1980,,59.7207524940994,16.4223026869313
988487,Skultunabod Prästgärdsgatan,,Skädduga 12:1,Prästgärdsgatan,1980,,59.709543792931,16.4342810632475
988228,ÅVS 12519 Norrberg,,Kristina 4:8,Långgatan,1981,,59.9201236299437,16.6250600113444
988241,ÅVS 15061 Broddbo Norra,,Stadsskogen 2:1,Roslingvägen,1981,,59.9905775904685,16.4799313035992
988243,ÅVS 15074 Loftvägen,,Silvergruvan 1:1,Loftvägen,1981,,59.9195458295503,16.5619618212979
988244,ÅVS 15075 Hagaberg S,,Silvergruvan 1:12,Bronäsgatan,1981,,59.9110143536915,16.5856606491809
988246,"ÅVS 15078 Ransta, Österby",,Kumla-Västerby 2:124,Stationsvägen,1981,,59.8068243181809,16.6405415711636
988249,ÅVS 15081 Möklinta Norra,,Möklinta Klockargård 1:1,Sportvägen,1981,,60.0904765982723,16.5419886753674
988286,ÅVS 17302 Vintergatan/Ängshagen,,Kristina 4:14,Vintergatan,1981,,59.9089686985297,16.6128415003623
988291,"ÅVS 4313 Kila, pumpstation vattenverket",,Tullsta 3:9,Lindgårdsvägen,1981,,59.8727114286355,16.5458487586005
988299,ÅVS 4322 Skuggan 2,,Kristina 4:1,Floragatan 1,1981,,59.9354304906133,16.5714711285341
988300,ÅVS 4323 P-plats Posten,,Färgaren 8,Gillegatan,1981,,59.9185761528385,16.6076859735164
988301,ÅVS 4324 Turbo,,Kristina 4:15,Gruvvägen,1981,,59.9111018858875,16.5876813446579
988302,ÅVS 4326 Hagaberg N,,Silvergruvan 1:1,Nybergsgatan,1981,,59.9133803670287,16.5793055365208
988304,ÅVS 4328 Coop Extra,,Tränaren 11,Kålgårdsgatan/Bergslagsgatan,1981,,59.9196140686064,16.6144293879732
988306,ÅVS 4330 SJ Park,,Kristina 4:5,Silogatan,1981,,59.9255442432316,16.6041042934342
988311,"ÅVS 4337 Sätrabrunn, Kvarnbacken",,Sätra 1:69,"Sätrabrunn, Kvarnbacken",1981,,59.864036490883,16.4332942800723
988312,"ÅVS 4340 Västerfärnebo, Björkgården",,Islingby 14:1,Björkgården Västerfärnebo Norbergsvägen 13,1981,,59.9469387844376,16.2779233068514
988339,ÅVS 754 P-plats Coop Nära,,Daggkåpan 2,Norrbyvägen 11,1982,,59.9977958439204,15.8162975878841
988340,"ÅVS 755 Oti Krog, Statoil",,Hedkärra 12:117,Oti Vägskäl 1,1982,,59.9643306202735,15.7667965601383
991712,ÅVS 760 Sjövägen/Sloghagsvägen Simbadet,,Fagersta Västanfors 11:74,Sjövägen/Sloghagsvägen,1982,,59.9831535604544,15.8278631961989
988221,"ÅVS 11918 Kolsva, P-plats",,Bergtorpet 17:1,Odensvivägen,1983,,59.6022723663165,15.8460474735658
988353,ÅVS 8618 Zigenarbacken IP,,Östanås 1:1,Västeråsvägen,1983,,59.5147436179691,16.0122142826734
988360,ÅVS 99007 Elundskolan,,Östanås 1:2,Fridnäsvägen,1983,,59.5208527372772,16.0131846183502
988362,"ÅVS 99084 Byjorden, p-plats",,Alf 18,Scheelegatan,1983,,59.5170244408261,15.9864871599051
988363,ÅVS 99086 Fylgiaplatsen,,Innerstaden 1:38,Västra Långgatan,1983,,59.5107255170493,15.9948037790397
988327,ÅVS 7026 Stiwemas P-plats,,Prästgärdet 2:1,Stationsgatan 1,1984,,59.397877916636,15.8539346810295
988328,ÅVS 7027 Återbruket Arboga,,Karpen 1,Norra Ågatan 43,1984,,59.4011978386245,15.8857656526731
988329,ÅVS 7028 Vilstahallen p-plats,,Nästkvarn 2:1,Jädersvägen,1984,,59.3943579944616,15.8325283476151
988331,ÅVS 7030 Medborgarhuset,,Sturestaden 3:1,Gråmunkegränd,1984,,59.3954522472289,15.8385997183336
988333,ÅVS 7033 Lungers handel,,Lunger 2:124,Norra Lunger,1984,,59.3270893497632,15.6797728611822
988334,ÅVS 7034 Tegelvretsvägen,,Norra Skogen 1:36,Tegelvretsvägen,1984,,59.4056978959231,15.8395654724209
988335,"ÅVS 7036 Fårtallen, invid g:a E18",,Holmsätter 1:29,Kyrkvägen,1984,,59.352969005709,15.6669142047452
988336,ÅVS 7037 P-plats Hembygdsgård,,Tåby 1:12,Tåbyvägen,1984,,59.4567940267954,15.7575636526186
5971,Dala-Järna,,MYRBACKA 21:9,Grötholnsväg,2021,,60.54556,14.37778
5972,Nås Centrum,,SKANSBACKEN 53:1,Nås Centrum,2021,,60.45056,14.47889
206582,Kyrkbyn,,,Kyrkbyn,2023,,60.9370086034786,13.3571819289714
208001,Gilleråsvägen,,,Gilleråsvägen,2023,,61.1873478113134,13.017846246344
208003,Hundfjällscenter,,,Hundfjällscenter,2023,,61.1779762392845,12.9661054308392
208009,Fjällgläntan,,,Fjällgläntan,2023,,61.1751473104134,12.9516776987949
208622,Panorama,,,Panorama,2023,,61.1740228986281,13.0015150961001
210837,Bygelvägen,,,Bygelvägen,2023,,61.1584665900224,13.1104462579863
214350,Fjällskölvägen,,,Fjällskölvägen,2023,,61.1669026565988,13.1986242521052
214380,Hagvägen,,,Hagvägen,2023,,61.1537097191796,13.2692296915803
214383,Stationsplan,,,Stationsplan,2023,,60.7386264730103,13.5601505134735
214384,Öje Centrum,,,Öje Centrum,2023,,60.8091450513362,13.8598740606859
214387,Grönlandsvägen,,,Grönlandsvägen,2023,,60.6855270124324,13.7099376765324
214388,Yttermalungs Camping,,,Yttermalungs Camping,2023,,60.5799346441572,13.8234429916067
214534,Timmerbyarna,,,Timmerbyarna,2023,,61.1526566436005,13.2087415246066
214539,Isvägen,,,Isvägen,2023,,61.1629090988089,13.1887264342664
15405,"Täktberget, Djurås (ÅVC)",,,Södra Industrivägen 21,2026,,60.55694,15.14889
15577,Dala Floda (ÅVC),,GAGNEF BÄCKBYN 1:11,Stora vägen,2026,,60.50444,14.78528
16776,Sifferbo Idrottsplan,,SIFFERBO 4:34,Loksvedsvägen,2026,,60.55472,15.22194
929,Björbo Tempo,,BJÖRBO 47:18,"Björbovägen 18, Björbo",2026,,60.45639,14.73139
932,Djurmo Touringbutiken,,DJURMO 1:11,"Tallvägen, Djurmo",2026,,60.55111,15.2025
936,Mockfjärd IOGT,,,Mockfjärd,2026,,60.49917,14.965
13189,"Norsbro, Allmoge Snickeri",,NORET 60:1,Norsbro,2029,,60.73111,15.01389
15406,Limhagen (ÅVC),,LEKSAND NORET 2:37,Limhagen (ÅVC),2029,,60.7475,14.99278
2821,"Insjön, Mårtas Livs",,ÖVRE HEDEN 5:9,Faluvägen 15,2029,,60.67944,15.09333
2824,Leksand,,ÖVERMO 16:1,Moskogen,2029,,60.71806,15.01056
2827,Siljansnäs,,BJÖRKEN 200:1,Hallevi IP,2029,,60.77,14.85139
15407,Drafsån (ÅVC),,RÄTTVIK VIKARBYN 22:10,Österängsvägen 55,2031,,60.88361,15.21111
4296,"Boda, Reningsverk",,RÄTTVIK OVANMYRA 42:3,Millåkersvägen 11,2031,,60.98861,15.21361
4298,"Rättvik, Hedslund",,RÄTTVIK SKIDÅKAREN 1,Golfvägen 1 ,2031,,60.89583,15.12472
4301,Ingels,,,Ingels,2031,,60.88694,15.12194
20343601,"Grönklitt, infarten till området",,,Grönklittsvägen,2034,,61.207144,14.540164
20343602,"Skattungbyn, affären",,,Landsvägen,2034,,61.186191,14.858472
20343603,Orsa ÅVC,,,Inlandsvägen 160,2034,,61.153521,14.654941
20343604,"Orsa centrum, Dalagatan",,,Dalagatan,2034,,61.118433,14.619284
20394603,"Flötningen, väg 70",,,Flötningen,2039,,61.855453,12.248189
20394604,"Centrala Idre, Foskrosvägen",,,Foskrosvägen,2039,,61.857571,12.711149
20394607,"Fjätervålen, vid infarten",,,Fjätervålen,2039,,61.941918,13.005533
20394609,"Centala Särna, brandstationen",,,Särnavägen 113,2039,,61.692295,13.145062
20394610,"Gördalen, väg 1056",,,Väg 1056,2039,,61.597971,12.494754
20394614,"Centrala Älvdalen, Brotvägen",,,Brotvägen,2039,,61.221713,14.045543
349943,Björsjö Bystugan 1  ,,Björsjö 1:76,Björsjö Bystugan 1  ,2061,,60.034913,15.336865
349945,Malmen Möllers väg    ,,Morgården 1:67,Möllers väg    ,2061,,60.146512,15.389549
349948,Malingsbo Dunderbergs väg    ,,Malingsbo 1:11,Dunderbergs väg    ,2061,,59.929108,15.435893
349949,Nyfors    ,,Björsjö Skog 1:2,Nyfors    ,2061,,59.99119,15.29214
349950,Theas väg    ,,Munkbo 7:41,Theas väg    ,2061,,60.147802,15.373564
349953,Mogavägen    ,,Smedjebacken 3:1,Mogavägen    ,2061,,60.146247,15.425869
349958,Nytäppan ÅVC,,Åkaren 2,Industrivägen  8  ,2061,,60.134406,15.395573
20622601,"Oxberg, östra infarten",,,Vasaloppsvägen,2062,,61.113425,14.191878
20622603,"Långlet, bygdegården",,,Krånnkittbacksvägen 2,2062,,61.021134,14.462806
20622604,Tuvan ,,,Vasalidsvägen,2062,,61.015366,14.54217
20622607,"Centrum, mitt emot polishuset",,,Millåkersgatan,2062,,61.005301,14.537217
20622609,"Mora ÅVC, Vattumyrsvägen ",,,Vattumyrsvägen 1,2062,,60.981251,14.536296
20622615,"Garsås, bystugan",,,Riksvägen 128,2062,,60.921678,14.826425
20622618,"Rödmyren, industriområde",,,Tallvägen 2,2062,,61.017698,14.592086
15582,Svärdsjö ÅVC,,,Borgärdesvägen 66,2080,,60.74583,15.90972
16094,Sågmyra,,,Textilvägen 8,2080,,60.71444,15.29444
17544,Lilla Källviken,,,Sara Lisas väg 2,2080,,60.57444,15.63639
7556,"Kvarnberget, vid Konsum Marknad",,,Källviksvägen 5,2080,,60.59389,15.64556
7557,Korsnäs,,,Lövåsvägen 13,2080,,60.58667,15.70417
7558,Järnet,,,Kisvägen 24,2080,,60.59833,15.63028
7563,"Hosjö, vid Hemköp",,,Centralvägen 7,2080,,60.59028,15.7325
7566,"Falun Centrum, vid gamla herrgården",,,Nybrogatan 44,2080,,60.60694,15.61833
7574,Tegelbruksskolan,,,Norra Järnvägsgatan 26,2080,,60.62278,15.61806
7576,Grycksbo Centrum,,,Kungsvägen 2,2080,,60.68722,15.485
7581,"Boda, Lijanskolan",,,Liljansvägen 1A,2080,,60.70778,15.87056
15867,Kvarnsveden Mellstarondellen,,,Morbyggevägen,2081,,60.50642,15.38967
16317,Mjälga Infart Ica Maxi mot Ok/Q8,,,Nolåkersgatan,2081,,60.48347,15.44733
16318,Islingby ,,,Grindesgatan/Islingbyvägen,2081,,60.48844,15.45973
7139,Medväga,,,Uppfartsvägen,2081,,60.52171,15.43706
7149,Tjärna,,,Ekorrstigen,2081,,60.49785,15.39755
7152,Skräddarbacken,,,Gös Eriks väg,2081,,60.465,15.36665
7155,"Centrum, Maxim",,,"Maximparkeringen, Målargatan",2081,,60.48425,15.43695
7161,Hagalund,,,Vasagatan,2081,,60.48625,15.42633
7164,ICA Ornäs,,,Kolstigen 1,2081,,60.50864,15.54277
10595,Kyrkbyn,,LANDA 95:6,Villavägen ,2082,,60.403527,15.810605
10596,Åsen,,ÅLEN 2,Åsenvägen 2,2082,,60.341037,15.753402
10597,Brandstationen,,SÄTER 4:5,Sturegatan,2082,,60.345321,15.755417
10598,Gruvplan,,SÄTER 3:5,Kungsvägen ,2082,,60.34786,15.756054
10601,Burhagsgatan/bergslagsgatan,,SÄTER 2:1,Burhagsgatan,2082,,60.347083,15.72997
123,Plusparkeringen bredvid Bildelar,,AVESTA 3:15,Köpmangatan,2084,,60.146889,16.170701
125,P-Plats Torsgatan 22,,AVESTA 2:59,Torsgatan 22,2084,,60.141556,16.186659
135,Ponsbachs Väg 17 Krylbo,,BÄCKVRETEN 2 och 3,Ponsbachs Väg 17,2084,,60.125535,16.20954
141,Klockarvägen 35 Skogsbo,,SKOGSBO 1:1,Klockarvägen 35,2084,,60.164225,16.17628
7065,Väg 705/Pumpvägen Hede,,ÖSTANHEDE 19:1,Pumpvägen/Hedevägen,2084,,60.240612,16.431664
7068,Handelsträdgården Karlbo,,KARLBO 15:1,Folkaregatan/Backvägen,2084,,60.118769,16.246758
7074,Vid f.d. Näs Verkstäder,,NÄS 1:29,Kolhusvägen 3,2084,,60.178095,16.478729
7078,Högboleden vid info.skylten,,ÅSBO 9:1,Högboleden,2084,,60.154125,16.197251
901000,Björnhyttan ÅVC,,Björnhyttan 1:9,Saxdalsvägen 60  ,2085,,60.135152,15.021817
901001,Fredriksberg Stationsbacken,,Fredriksberg 1:38,Stationsbacken 7  ,2085,,60.141154,14.378266
901004,Dianavägen,,Knutsbo 7:221,Dianavägen,2085,,60.123138,15.192612
901005,Grottvägen,,Ludvika gård 1:397,Grottvägen,2085,,60.133611,15.183722
901009,Magnetbacken/Grottvägen,,Ludvika 4:26,Magnetbacken/Grottvägen,2085,,60.140715,15.181453
901010,Nyhammar torget,,Saxhyttan 4:13,Nyhammar torget,2085,,60.292535,14.970589
901011,Saxdalen Oxbrovägen,,Rävvåla 10:9,Oxbrovägen ,2085,,60.145216,14.985847
901013,Sörvik Digervålavägen,,Sörvik 27:63,DIGERVÅLAVÄGEN    ,2085,,60.185175,15.156659
901016,Coop Nära Sunnasjö,,Sunnansjö 18:7,Botbergsvägen,2085,,60.216269,14.957754
901017,Arthur Falcks väg,,Örntorp 3:1,Arthur Falcks väg,2085,,60.076256,14.981344
901018,Turbinvägen,,Östansbo 1:138,Turbinvägen,2085,,60.119155,15.183774
901021,Hllängens IP,,Ludvika 6:20,Grågåsvägen 4  ,2085,,60.149278,15.210704
307382,Alfta Bornvägen,,Alfta Kyrkby 28:80,Bornvägen,2121,,61.343777,16.057398
307383,Alfta Järnvägsgatan,,Alfta Kyrkby 42:1,Järnvägsgatan Alfta,2121,,61.34627,16.073009
307384,Utanför ÅVC Edsbyn,,Södra Edsbyn 49:1,Gamla Landsvägen 8,2121,,61.382401,15.834877
307388,Runemo korsningen Gäddviksvägen,,Runemo 8:29,Gäddviksvägen,2121,,61.355303,16.141126
307389,Voxna Livs,,Voxna 42:1,Nybro,2121,,61.365233,15.527616
3699,Gnarp,,VALLEN 20:9,Korsning Bergevägen/Södra vägen,2132,,62.053174,17.24302
3701,Hassela,,NORDANBRO 11:1,Fribergsvägen,2132,,62.108521,16.712878
3702,Ilsbo,,ÖSTANÅ 3:58,Kyrkvägen vid Tvättskrubben,2132,,61.856554,17.049874
3704,Norrfjärden,,NORRFJÄRDEN 4:1,Ragvaldsnäsvägen vid gamla Ica,2132,,62.063015,17.418615
6921,Stocka,,STOCKA 3:21,Morängsvägen 7 vid Folkets Hus,2132,,61.899727,17.33568
6019235,Tallåsen Torget,,,Stationsvägen,2161,"Töms Måndag, Fredag",61.86722,16.00639
6019238,Ica Supermarket Gärdeåsen,,,Verkstadskolevägen 7,2161,"Töms Måndag, Onsdag, Fredag ",61.82944,16.11222
6019242,Verkstaden Hennan,,,Hennan Ramsjövägen 662,2161,Töms Onsdag ,62.02806,15.90833
6019248,Nybo,,,Nybovägen 4,2161,"Töms Måndag, Fredag",61.67167,16.14472
10623,Alavägen,,Ljusne 29:1,Alavägen,2182,,61.21306,17.13278
10624,Moskolan,,Flor 21:1,Hälsingmo 358,2182,,61.31306,16.78056
10638,ICA Nyplan,,Östansjö 16:19,Bläckhornsvägen,2182,,61.26083,17.14778
17676,Tallvägen,,Enriset 2,Tallvägen,2182,,61.31222,17.0475
307362,G:A Affären Hällbo,,Hå 1:73,Hällbo,2183,,61.221153,16.421865
307363,Bollnäs Handelsomr. Norr,,Framnäs 1:31,Norrlandsvägen,2183,,61.36998,16.389729
307364,Järnvägsgatan vid Försäkringskassan,,Heden 4:118,Järnvägsgatan,2183,,61.352376,16.394431
307366,Kiosken Granbergshöjden,,Häggesta 4:31,Granbergsvägen,2183,,61.330588,16.387042
307370,Norra Orbadenvägen/Gamla Orbadenvägen,,Vallsta 7:19,Orbaden,2183,,61.541019,16.363825
307371,"Rektorsgatan, bakom restaurang Barbros",,Bro 5:10,Rektorsgatan,2183,,61.347497,16.397696
307380,Växbo Isbanan,,Växbo:samf:10,Rensjövägen,2183,,61.405252,16.564658
15378,"PENDLARPARKERINGEN, Delsbo",,SUNNANSJÖ 9:5,SUNNANSJÖVÄGEN 3,2184,,61.79722,16.56806
17515,"KRÅKNÄSPARKERINGEN, Långvind",,LÅNGVIND 9:441,KRÅKNÄSVÄGEN 1,2184,,61.42083,17.15917
8149,"ICA NÄRA, Friggesund",,BJURÅKERS-ÄNGEBO 4:6,STRÖMBACKAVÄGEN 17,2184,,61.89722,16.54833
8164,"LINDE LIVS, Lindefallet",,BOLAN 11:32,SNÄCKENVÄGEN 10,2184,,61.48778,16.93667
11590,"Alby, Konsum","Alby, Konsum",OVANSJÖ 1:410,Kapellgatan,2260,,62.49472,15.47611
11602,"Överturingen, tankstationen","Överturingen, tankstationen",TURINGEN 4:86,,2260,,62.45056,14.91889
01,"Tallnäs, Sjösvedan",,TALLNÄS 1:118,Södra Fagerviksvägen,2262,,62.499917,17.363447
18,"Fagervik, Båthamn",,SÖRBERGE 2:439,Golfbanevägen,2262,,62.501308,17.409735
19,"Bergeforsen, Bergeforsens IP",,FORSMON 1:137,"Rännarvägen 5  , (Väg 330)  ",2262,,62.53153,17.378965
22,"Hässjö, Rolandsbacke",,ROLANDSBACKE 2:18,Rolandsbacke 210,2262,,62.549677,17.510788
25,"Sörberge, Berglundavägen",,SÖRBERGE 1:426,Berglunda vägen (34),2262,,62.511574,17.374965
26,"Sörberge, Strömgatan",,SÖRBERGE 2:383,Strömgatan,2262,,62.512196,17.367095
27,"Söråker, ICA - Folketshusvägen",,SÖRÅKER 22:10,Folketshusvägen (5),2262,,62.506649,17.509359
29,"Tynderö, Bygdegården",,STÅNGRID 3:13,Stångrid  (208),2262,,62.44835,17.622707
65,"Nyvivsta,",,VIVSTA 7:1,Nygatan (25),2262,,62.493115,17.335758
1907,Härnösand Skyttevägen,,Ön 2:52,Skyttevägen 1,2280,,62.63806,17.9625
1908,Älandsbro (ÅVC),,Äland 1:32,Äland 250,2280,,62.66667,17.79194
107450,Indal Tempo,,STIGE 2:34,ÅVS Björkallén 11,2281,,62.57909597333,17.0951583979152
107451,Kvissleby fd. OK-Q8,,NOLBY 5:386,ÅVS Njurundavägen 125,2281,,62.2938701139801,17.3784291740333
107453,"Matfors, Frendo",,SKÖLE 19:4,ÅVS Taxivägen 14,2281,,62.3504961286105,17.0218515759123
107455,Sidsjö Fagerdalsparken,,SÖDERMALM 1:65,ÅVS Sidsjövägen 39,2281,,62.3807814538746,17.2821700576467
107457,Sundsvall Västra station,,VÄSTERMALM 1:1,ÅVS Norra Järnvägsgatan 7,2281,,62.3901034233083,17.2908228640629
107464,Johannedal ÅVC,,HUGGSTA 1:160,ÅVS Johannedalsvägen 67,2281,,62.4402539783163,17.3880073426672
107465,Blåberget innanför (ÅVC) k-parken,,KNÄVLAND 2:21,ÅVS Knävland 164,2281,,62.3777097797051,17.1657655119899
107467,Holm Kyrkan (P-plats),,ANUNDGÅRD 3:16,ÅVS Anundgård 175,2281,,62.6575325477524,16.6305512787853
24381,Mällbyvägen,,Björsta 8:78,Mällbyvägen-Östbygatan,2282,,62.932471295991,17.757060814337
24383,Ådalshallen,,Gymnasiet 1,Sporthallsgatan,2282,,62.9307765954325,17.7841625967224
24387,Docksta,,Docksta 5:124,Dockstavägen 30,2282,,63.0546446583987,18.3290199474906
24391,Mjällom,,Nordingrå-Mjällom 1:19,Petsamovägen-Södervägen,2282,,62.9854512065764,18.4313332625304
24392,Noraström,,Nora Prästbord 1:2,Prästbordet 201,2282,,62.8727328226786,18.0872970590949
24396,Ullånger,,Ullångers-Utvik 2:31,Centrumvägen-Stationsgatan,2282,,63.0127182236894,18.1905963769763
24401,Högberget,,Dynäs 17:4,Högbergsvägen 10,2282,,62.9567692592019,17.7207414790126
223205,Helgum Stationsområdet Åvs,,.,Centrumvägen 18,2283,,63.1513458092751,16.9505171636947
223206,Junsele Ok/Q8 Åvs,,.,Köpmangatan 4,2283,,63.6950807492874,16.8800912119531
223207,Långsele Åvs,,.,Stationsgatan 2 A,2283,,63.1771654386827,17.0610088439682
223208,Näsåker Macken Åvs,,.,Storgatan 47,2283,,63.4407568776488,16.9105233987082
223210,"Resele, Myre Ip Åvs",,.,Myre 221,2283,,63.3330154371367,17.0700255501968
223211,Sollefteå Gärdesgatan Åvs,,.,Gärdesgatan 48,2283,,63.1628424328055,17.2610837738118
223212,Sollefteå Stora Coop Åvs,,.,Storgatan 80,2283,,63.1648426383373,17.2791232190117
223220,"Rödsta Åvc, Åvs",,.,Skällmyran 101,2283,,63.1500490622013,17.1912826963967
4430049,"Åsdalen, Vid vändplanen",,ÖRNSKÖLDSVIK 3:1,Västra Dalgatan ,2284,,63.2942157772864,18.7002812564755
4430050,"Husum, Isbanan",,DOMBÄCK 1:161,Wibergsvägen ,2284,,63.3347635300613,19.145955775091
4430055,"Ulvön, Framför båthuset",,ÅVS,Fjären,2284,,63.0489184621271,18.6386494693419
12524,Borgvattnet Bilverkstaden,,Borgsjö 1:111,Borgvattnet 101,2303,,63.42667,15.81111
14001,Utanede Paviljongparkering,,Utanede 3:122,Kung Chulalongkorns väg,2303,,62.956057,16.67821
14003,Strömsnäs Föreningshus,,Strömsnäs 4:1,Strömsnäs 151,2303,,63.173148,15.859703
9658,Höglunda Höggården,,Höglunda 1:46,Höglunda 328,2303,,63.14944,15.85944
9665,Överammer skolan,,Överammer 1:142,Överammer 147,2303,,63.21472,15.96028
230504,PILGRIMSTAD,,ANVIKEN 2:37,PILGRIMSCENTER 110,2305,,62.95056,15.04694
230505,"SIDSJÖ, BODSJÖ DIV.HANDEL",,SIDSJÖ S:2,SIDSJÖ,2305,,62.73194,15.14722
230506,"NYHEM, SNICKERIET",,HÅVDSJÖ 3:2,NYHEM,2305,,62.89444,15.61861
230509,AVFALLSANLÄGGNINGEN BRÄCKE,,BRÄCKE MORDVIKEN 7:3,INFART FRÅN E14,2305,,62.77778,15.41028
230510,ÅVC KÄLARNE,,VÄSTANEDE 2:56,VÄSTANEDEVÄGEN 7,2305,,62.985,16.08583
230511,ÅVC GÄLLÖ,,GÄLLÖN 1:9,INDUSTRIOMRÅDET 111,2305,,62.916625,15.235516
49404,ÅVS Kaxås Svea Park,,Kaxås 6:21,Kaxås,2309,,63.48291,13.92527
49412,ÅVS Rödön,,Rödöns Prästbord 1:1,Rödön,2309,,63.249715,14.420217
49415,ÅVS Trångsviken,,Mo 1:96,Trångsviken,2309,,63.332914,14.009148
49418,ÅVS Ytterån,,Ytterån 4:25,Ytterån,2309,,63.319277,14.175759
115073,"Brattbäcken CUS, vid gamla skolan",,BRATTBÄCKEN 1:150,Brattbäcken 895,2313,,64.2673643358152,15.7770099330667
115112,"Rossön CUS Näsvägen, gamla reningsverket",,BODUM 1:45,Näsvägen,2313,,63.919443653334,16.333713204394
115134,Fagerdal CUS,,GISSELÅS 2:62,Fagerdal,2313,,63.6766175017659,15.394579247743
115163,Tullingsås CUS,,TULLINGSÅS 7:15,Tullingsås 210,2313,,63.8240097314726,15.5134201156742
115165,Sjulsåsen,,SJULSÅSEN 1:7,Sjulsåsen,2313,,64.3468668325945,14.7725730375164
115170,"Rossön CUS, Ringvägen",,ORRNÄS 4:5,Ringvägen,2313,,63.9323902650877,16.3128604876894
115179,Backe Reningsverket CUS,,FJÄLLSJÖ-SUNNANSJÖ 2:23,Sunnansjö 330,2313,,63.8029872712157,16.396063609691
115185,"Norråker, reningsverket",,TÅSJÖ-NORRBY 1:121,Skolgatan 19,2313,,64.4340566776822,15.5879530796163
115189,Hillsand,,HILLSAND 1:112,Hillsand,2313,,64.1211792922487,15.2897315692913
115197,"Stora Blåsjön Västra, CUS",,STORA BLÅSJÖN 2:9,Stora Blåsjön,2313,,64.8331871039214,14.0764584972306
115202,Kilen CUS,,KILEN 1:19,Kilen 115,2313,,63.4469597328508,15.2720476477208
115203,Junsternäs CUS,,JUNSTERNÄSET 1:1,Junsternäset 220,2313,,64.5535768892505,14.1411556395458
115209,Kyrktåsjö Fotbollsplan,,KARBÄCKEN 1:108,Kyrktåsjö,2313,,64.2302941000764,15.8846216722591
11605,Duved,,,Mångåvägen,2321,,63.39642,12.91402
11610,Kall,,,"Värmeverket, Kallvägen",2321,,63.47361,13.22833
11614,Ottsjö,,,Ottsjövägen,2321,,63.21556,13.06111
14558,Månsåsen,,,Hembygdsgården,2321,,63.06611,14.32806
15989,Mattmar,,,Kvitslevägen 235,2321,,63.29961,13.83681
17252,"Storlien, Handelsplats",,,Vintergatan 1,2321,,63.31269,12.10692
17257,Kallsedet,,,Utmed riksväg 336,2321,,63.70083,12.94611
17407,ÅVC Staa,,,Staa 107,2321,,63.399533,12.8294
17427,ÅVC Järpen,,,Lagervägen 21,2321,,63.360327,13.436335
232602,KLÖVSJÖ BY,,KLÖVSJÖ 5:12,BYVÄGEN,2326,,62.520484,14.192001
232604,"RÄTAN, BUSS OLLE",,RÄTANSBYN 1:28,THUNELLVÄGEN 35,2326,,62.471642,14.550317
232605,SKÅLAN BYGDEGÅRD,,SKÅLAN 1:45,SKÅLAN 245,2326,,62.644868,14.152104
232607,"ÅSARNA, BUSSTATION",,ÅSARNE-ÖSTERÅSEN 2:46,OLSTAVÄGEN,2326,,62.644918,14.372532
232608,"LJUNGDALEN, BRANDSTATIONEN",,LJUNGDALEN 10:15,LJUNGDALEN 133,2326,,62.851569,12.798869
232614,STORHOGNA FJÄLLHOTELL,,KLÖVSJÖ 1:33,STORHOGNAVÄGEN 951,2326,,62.500735,14.108293
232615,"STORHOGNA, SAMF. GA59",,KLÖVSJÖ 5:361,STORHOGNAVÄGEN  680,2326,,62.492905,14.11615
236102,FUNÄSDALEN OK-Q8,,FUNÄSDALEN 81:1,RÖROSVÄGEN 47,2361,,62.549721,12.516933
236103,HEDE OK-Q8,,HEDE KYRKBY 32:24,RÅNDALSVÄGEN 2,2361,,62.419977,13.514221
236108,VEMHÅTRÄFFEN,,HÅN 5:16,ÖSTBERGSGATAN  1,2361,,62.309688,14.04319
236109,ICA YTTERHOGDAL,,VIKEN 6:73,ÅNGEVÄGEN 1,2361,,62.175121,14.937601
236110,TAXI SVEG,,SVEG 6:5,JÄRNVÄGSGATAN  12,2361,,62.033635,14.353271
236115,MESSLINGEN BUTIKEN,,MESSLINGEN 3:71,MESSLINGEN 210,2361,,62.663068,12.880202
236117,BJÖRNRIKE BJÖRNVÄGEN/RENSTIGEN,,VEMDALENS KYRKBY 43:104,BJÖRNRIKE BJÖRNVÄGEN/RENSTIGEN,2361,,62.417438,13.945651
236118,ÅVC MYRSTACKEN,,SÅGEN 4,INDUSTRIGATAN 16,2361,,62.042815,14.339644
236119,ÅVC LJUSNEDAL,,FUNÄSDALEN 12:81,INDUSTRIVÄGEN 18,2361,,62.525271,12.597013
236120,ÅVC RETUREN HEDEVIKEN,,HEDEVIKEN 2:3,RÖDEN 331,2361,,62.412987,13.613139
236121,"RAMUNDBERGET, VID FJÄLLGÅRDEN",,FUNÄSDALEN 42:27,BERGARVÄGEN 18,2361,,62.700473,12.390816
236124,SKALSPASSET,,VEMDALENS KYRKBY 54:24,SKALSPASSVÄGEN 1,2361,,62.493611,13.939724
236125,RIPFJÄLLET,,VEMDALENS KYRKBY 88:104,SKALFJÄLLSVÄGEN 4,2361,,62.482761,14.036963
236126,HAMRAFJÄLLET/VIGELN GA:143,,FUNÄSDALEN 16:94,FÄBODVÄGEN 8,2361,,62.573604,12.223682
236130,FUNÄSDALSBERGET,,FUNÄSDALEN 23:22,KÅVANVÄGEN,2361,,62.555228,12.559267
236131,COOP SVEG,,SANDARNA 8,LJUSNEGATAN  12,2361,,62.035421,14.365321
236133,ÅVC YTTERHOGDAL,,YTTERHOGDALS-ÖSTANSJÖ 2:60,KVARNVÄGEN,2361,,62.173483,14.971892
236134,SKALETS TORG,,VEMDALENS KYRKBY 56:22,SKALETS TORG,2361,,62.481727,13.975556
236135,DOLLARSTORE SVEG,,SVEG 6:5,SANDVÄGEN,2361,,62.03601,14.37778
1000301,Rödövägen/Arnljots väg,,VALLA 11:2,Rödövägen/Arnljots väg,2380,,63.1726760982409,14.5483957939456
1000305,Häggenås ,,HÄGGESTA 1:59,Gustaf Rystedts väg,2380,,63.3911417089151,14.9033612546726
1000306,Högarna,,KORSMYRBRÄNNA 5:1,Korsmyrbränna 125,2380,,63.417935783282,15.2494402118828
1000311,Ica Odenhallen,,ODENSALA 12:1,Slåttervägen 31,2380,,63.155643713063,14.6817205349549
1000320,Brunflo återvinningsscentral,,BRUNFLO-VIKEN 7:1,Brunflo-Viken 203,2380,,63.0682464933083,14.8396816746465
1000326,Storfjällvägen,,ROSMARINEN 1,STORFJÄLLVÄGEN,2380,,63.1489175111139,14.7265795466929
4415931,ÅVS Norrskenshallen ,17424,PRÄSTBORD 1:108,Åvs Norrskenshallen Sportvägen ,2401,,63.57417,19.46139
4415984,ÅVS Brattfors,9228,BRATTFORS S:3,Åvs Brattfors Ica Pers Livs ,2401,,63.64167,19.62361
4415989,ÅVS Gräsmyr,9230,GRÄSMYR 4:5,Åvs Gräsmyr ,2401,,63.77444,19.65222
4416789,ÅVS Nordmaling ÅVC,,NORDMALINGS PRÄSTBORD 1:244,Åvs Nordmaling (Åvc) Åsgatan 20,2401,,63.578394,19.50634
12881,"Agnäs, Bagarstugan",,Agnäs 2:31,Agnäs,2403,,63.84944,19.2625
13383,"Bjurholm, Ledningscentralen",,Skolan 1,"Färgargatan, vid COOP",2403,,63.9325,19.21583
172,"Balsjö, Balsjö Bensin & Handel",,Balsjö 1:36,Balsjö 36,2403,,63.92528,19.05778
4415925,ÅVS OKQ8 Vindeln,99153,DEGERFORS 31:1,Åvs Ordenshusvägen 13,2404,,64.19722,19.72306
4415928,ÅVS Tvärålund,11275,TVÄRÅTRÄSK 1:234,Åvs Storvägen 17,2404,,64.09056,19.65639
4415929,ÅVS Hällnäs,11274,HÄLLNÄS  1:91,Åvs Hällnäs Vindelvägen 18 ,2404,,64.30528,19.62028
4415930,ÅVS Granö,11273,GRANÖ 1:62,Åvs Granö Skolvägen 18 ,2404,,64.24778,19.31833
4277,Överklinten 3,,Överklinten 3:82,Ytterklintvägen 10,2409,,64.243531,20.661504
25884,Busstationen,,Smeden 5,Strandvägen 3,2422,,65.5360186,17.5310693
25887,Bilprovningen,,Vargen 5,Varggatan 11,2422,,65.5256495,17.5381696
25890,Ammarnäs ÅVC,,Ammarnäs 2:206,Ammarnäsvägen 11,2422,,65.9559569,16.2128743
25892,Olsbäcken,,Stensund S:1,Olsbäckavan 12,2422,,65.5146628,17.3766946
25894,Råstrand,,Råstrand 6:9,Råstrand 120,2422,,65.2532629,17.9790706
25895,Gränsgård,,Nordsjö 1:5,Gränsgård 111,2422,,65.459093,18.1440404
25897,Sandsjö,,Sandsjö 1:5,Sandsjö 121,2422,,65.2449229,17.6691656
25899,Blattnicksele RV,,Österås 2:4,Strandvägen 83,2422,,65.3274766,17.6174313
303029,SOFIA,,UGGLAN 2,SOFIAVÄGEN,2425,,64.2629014813087,16.4018498586316
303032,RISBÄCK,,RISBÄCK 1:25,SKOLVÄGEN 2,2425,,64.7039815431459,15.5368833200553
303033,FJÄLLET,,AVASJÖ 1:12,FJÄLLVÄGEN,2425,,64.8374809431909,15.0872576620291
303034,1052:AN,,AVASJÖ 1:12,1052:AN,2425,,64.8375151581451,15.0968143631383
303036,LAIKSJÖ,,LAIKSJÖ 1:126,STORVÄGEN 164,2425,,64.226057032279,16.5436734023266
11319,Tväråbäck,,Nilsland 1:19,Tväråbäck,2460,,63.99028,19.72417
11248,Dikanäs,,Dikanäs 2.1,Församlingsvägen 4,2462,,65.236965,15.997983
11256,Bergbacka,,Bergbacka 1:86,Solgårdsgatan 1,2462,,64.633411,16.644797
17435,Kittelfjäll,,Kittelfjäll 1:534,"Fjälltorget, Kittelfjäll 211",2462,,65.25028,15.50167
72345,Volgsjövägen,,Granberg 1:2,Volgsjövägen 71,2462,,64.6172609,16.6807082
65000088566,FISKEN,,ÅSELE 2:194,FISKAREGATAN 11,2463,,64.1627681176555,17.3613062031577
65000088567,ÅKARN,,ÅSELE 2:177,VILHELMINAVÄGEN/ÅKARVÄGEN,2463,,64.1695705316872,17.3689062131918
65000088568,FREDRIKA,,VISKA 1:138,UMEVÄGEN 29,2463,,64.0737376110659,18.4149223647906
65000088572,ÅVS ÖVERRISJÖN,,RISSJÖN 2:9,ÖVERRISJÖN,2463,,64.0575019492288,17.6447293825417
4415912,ÅVS Innertavle,16107,INNERTAVLE 17:3,Åvs Innertavle Gamla Sågentomten ,2480,,63.81083,20.38972
4415917,ÅVS Teg Isladan,99052,VÄSTERTEG 4:41,Åvs Tegsvägen ,2480,,63.81667,20.24139
4415918,ÅVS Yttersjö ,13248,BÖSTA 4:2,Åvs Yttersjö ,2480,,63.77167,19.99083
4415920,ÅVS Berghem ,10967,STADSLIDEN 2:2,Åvs Berghem Nydalavägen 43 ,2480,,63.82917,20.30417
4415921,ÅVS Bodbyn ,12437,BODBYN 1:98,Åvs Bodbyn Ica Börsen ,2480,,64.00417,20.39278
4415922,ÅVS Skogsbrynet,13247,GULDSKRINET 1,Åvs Skogsbrynet ,2480,,63.8325,20.28472
4415923,ÅVS Gravmark,12459,GRAVMARK ,Åvs Gravmark ,2480,,64.11472,20.39639
4415934,ÅVS Bullmark ,12438,BULLMARK 4:120,Åvs Bullmark Robertsforsvägen 37 ,2480,,64.03361,20.48222
4415937,ÅVS Holmsund Anders Ersvägen,10987,HÖRNAN 2,Åvs Holmsund Anders Ersvägen ,2480,,63.69806,20.37944
4415950,ÅVS Hörnefors ÅVC,12441,HÖRNEÅ 8:845,Åvs Hörnefors (Åvc) Skatvägen 35,2480,,63.61889,19.91889
4415952,ÅVS Hörnefors Österlånggatan,10992,HÖRNEÅ 8:459,Åvs Hörnefors Österlånggatan ,2480,,63.63111,19.9225
4415953,ÅVS Klockarbäcken,15959,KÄLLAREN 1,Åvs Klockarbäcken (Åvc) Källarvägen 4,2480,,63.85139,20.14861
4415955,ÅVS Holmsund Solbackavägen,10989,HOLMSUND 2:48,Åvs Holmsund Solbackav/Bräntev ,2480,,63.70444,20.3775
4415956,ÅVS Norrbyn,12440,NORRBYN 2:117,Åvs Norrbyn ,2480,,63.56472,19.83139
4415960,ÅVS Rödåsel,11002,RÖDÅ 4:11,Åvs Rödåsel ,2480,,64.08806,19.95306
4415961,ÅVS Rödäng,11018,BACKEN 4:9,Åvs Rödäng Rödängsvägen/Cellovägen ,2480,,63.84028,20.22111
4415968,ÅVS Stöcke,12444,STÖCKE 6:18,Åvs Stöcke ,2480,,63.73917,20.23
4415970,ÅVS Sävar ICA,11004,SÄVAR 10:4,Åvs Sävar Ica ,2480,,63.90111,20.54972
4415971,ÅVS Sävar Kiosken,11003,SÄVAR 4:23,Åvs Sävar Kiosken ,2480,,63.90167,20.5575
4415974,ÅVS Tavelsjö,12439,TAVELSJÖ 5:26,Åvs Tavelsjö Utanför Åvc ,2480,,64.03417,20.04861
4415978,ÅVS Umedalen Umedalsallén,11010,BACKEN 8:1,Åvs Umedalen Närbutik ,2480,,63.83806,20.16333
4415981,ÅVS Ålidhem Kuratorvägen,10963,KURATORN 3,Åvs Ålidhem Kuratorvägen ,2480,,63.81694,20.32111
4415982,ÅVS Överboda,11026,ÖVERBODA 3:38,Åvs Överboda Bodumsvägen ,2480,,63.85111,19.92694
4416371,Åvs Sävar ÅVC,,SÄVAR 61:274,Åvs Sävar (Åvc) Upplagsvägen 6,2480,,63.909088,20.536526
865133,ÅVS Hedlunda,,Hedlunda,HEDLUNDA     Klöverv,2481,,64.540670337547,18.7174204264666
865136,ÅVS Knaften,,Hedlunda 2:3,KNAFTEN 163,2481,,64.4525032268071,18.6344592789971
865141,ÅVS Västra Örträsk,,Örträsk 1:48,ÖRTRÄSK V,2481,,64.1327735158995,18.9380352914174
12507,"Anderstorp, Hemmansgatan",,Hedensbyn 13:89,Hemmansgatan 2,2482,,64.745199,20.989928
14711,Skelleftehamn,,Taljan 3,Sjömansgatan 13,2482,,64.69261,21.233038
15726,Boliden ÅVC,,Bjurliden 1:456,Yrkesgatan 8,2482,,64.8615,20.388527
15727,Burträsk ÅVC,,Skellefteå Burträsks-Gammelbyn 6:77,Svarvargatan,2482,,64.513077,20.624782
15728,Byske ÅVC,,Byske 1:118,Maskingatan 14,2482,,64.947325,21.186197
15730,Lövånger ÅVC,,Lövångers Prästbord 9:11,Kyrkren,2482,,64.365767,21.30642
15732,Bureå ÅVC,,Skellefteå Bureå 4:165,Sinusgatan 3,2482,,64.612904,21.188484
15733,Ursviken ÅVC,,Ursviken 2:1,Mekanvägen,2482,,64.71011,21.159272
15979,Solbackens köpcentrum,,Moröbacke 1:1,Solbacksvägen,2482,,64.767119,21.025983
16092,Södra Järnvägsgatan,,Skellefteå 4:1,Södra Järnvägsgatan 31,2482,,64.753407,20.953482
17202,Boviken,,Boviken 1:92,Boviksbadet 401,2482,,64.779639,21.108449
9797,"Bergsbyn, Järnvägen/dammen",,Bergsbyn 35:1,Bergsbyvägen,2482,,64.72353,21.078177
9801,"Burträsk, Bagarstugan",,Burträsks-Gammelbyn 20:17,Sundbrogatan 28,2482,,64.524043,20.654927
9802,"Bygsiljum, OKQ8",,Skellefteå Bygdsiljum 8:46,Burträskvägen 17,2482,,64.35385,20.504747
9803,"Byske, Statoil",,Byske 8:16,Storgatan 26,2482,,64.955699,21.210642
9812,"Norrböle, Norvallagat./Vallgatan",,Skellefteå 6:1,Norvallagatan 2,2482,,64.757096,20.971863
9814,"Morö Backe, Ö. Leden/Höjdgatan",,Moröbacke 1:1,Östra Leden/Höjdgatan,2482,,64.760463,21.00876
9816,"Morö Backe, Svedjevägen",,Moröbacke 2:1,Svedjevägen,2482,,64.752617,21.03689
9817,"Anderstorp, Coop forum",,Operatören 3,Gymnasievägen 8,2482,,64.73747,20.968424
9820,"Moröhöjden, Ica Supermarket",,Skellefteå 6:15,Myntgatan 7,2482,,64.751827,21.010335
9821,Falkträsket,,Sunnanå 14:1,Falkträskbacken,2482,,64.739321,20.915957
9826,"Skråmträsk, Kvarnhallen",,Skråmträsk 2:36,Skråmträsk,2482,,64.68604,20.603351
9827,"Ursviken, Riobacken",,Ursviken 2:1,Riobacken,2482,,64.705486,21.179817
250510,Arvidsjaurs ÅVC,,,Industrivägen 7,2505,,65.6024,19.14543
250601,ÅVS Lugnetvägen,,,Apoteksgatan 3,2506,,66.049288,17.893414
250602,ÅVS Drottninggatan,,,Drottninggatan,2506,,66.051806,17.905483
250604,ÅVS Medborgarhuset,,,Strömvägen,2506,,66.043919,17.873972
250605,Återvinningscentralen,,,Maskinvägen 1,2506,,66.049452,17.840541
250607,ÅVS Slagnäs,,,Adakvägen,2506,,65.582011,18.164566
250610,ÅVS Jäckvik,,,Silveruddsvägen 6,2506,,66.391142,16.963961
1905519,ÅVS Bredviken,,Näsbyn 30:1,Bredviken 1 Å,2514,,65.83083,23.20694
1905522,ÅVS Djuptjärn,,Rolfs 8:2,Stenbäcksvägen,2514,,65.87056,23.13611
1905523,ÅVS Vattenvägen,,Tirfing 2,Vattenvägen 13,2514,,65.86083,23.13583
1905526,ÅVS Morjärv,,Morjärv 100:17,Bodenvägen 8,2514,,66.06972,22.70194
1905535,ÅVS Sjukhus Tor,,Tor 4,Furuhedsvägen,2514,,65.85694,23.1575
1905536,ÅVS Bondersbyn,,Bondersbyn 5:22,Bondersbyn 205,2514,,65.9275,22.89778
1905537,ÅVS Vitvattnet,,Vitvattnet 1:48,Vitvattnet 341,2514,,66.059984,23.195565
012,Kangos,,KANGOS 5:4,Keräntöjärvivägen 163,2521,,67.481526,22.66071
013,Kardis ,,KARDIS 1:15,Kardis 159,2521,,66.988559,23.787527
7616,"Gällivare, Bagarvägen",,GÄLLIVARE 12:74,Bagarvägen 1,2523,,67.15139,20.63306
7618,"Gällivare, Dollarstore",,GÄLLIVARE 57:45,Betongvägen 28,2523,,67.14806,20.65722
7619,"Gällivare, Folketspark",,GÄLLIVARE 76:1,Estradvägen 5,2523,,67.14556,20.67306
7621,"Gällivare, Apelqvistheden",,GÄLLIVARE 76:1,Klövervägen 1,2523,,67.13972,20.69444
7629,"Koskuskulle, nedre Kullen",,KOSKULLSKULLE 1:1,Bangatan 8,2523,,67.18583,20.73722
7634,"Malmberget, Robsam",,ROBSAM 1:3,Rödingvägen 1A,2523,,67.16417,20.64194
7637,"Malmberget, Stubbvägen",,GÄLLIVARE 12:74,Stubbvägen 2A,2523,,67.16028,20.62056
7643,"Ullatti, Macken",,ULLATTI 17:16,Stora vägen 35A,2523,,67.01528,21.81389
256004,Västermalmsleden,,Älvsbyn 22:1,Västermalmsvägen,2560,,65.674689,20.982414
256007,Nystrand,,Nystrand 1:59,Nystrand 37,2560,,65.736457,20.95471
256012,Vidsel,,Krongård 1:10,Hantverksgatan,2560,,65.835604,20.510272
9811891,KRABBSTIGEN,,JÄRNVÄGEN 100:1,KRABBSTIGEN,2580,,65.6010450065334,22.1479429931667
9811892,BJÖRKSKATA CENTRUM,,BJÖRKSKATAN 1:3,HÖSTVÄGEN,2580,,65.6131650118364,22.1727030060133
9811893,LULSUNDET,,BJÖRKSKATAN 1:3,KORPRALSGRÄND,2580,,65.6071250092381,22.1852980087438
9811894,HAMMARENVÄGEN,,SUNDERBYN 67:3,NÄSUDDENVÄGEN,2580,,65.6524805930938,21.9500832821321
9811895,KNÖPPELÅSEN HAGAPLAN,,BREDVIKEN 11:1,HAGAPLAN,2580,,65.5867628694575,22.2040409705102
9811896,SPANNMÅLSVÄGEN KVARNBÄCKEN 3199,,HERTSÖN 20:1,SPANNMÅLSVÄGEN,2580,,65.5914320079084,22.2238250045558
9811898,MÄSTERLOTSVÄGEN,,MJÖLKUDDEN 3:42,MJÖLKUDDSVÄGEN 6,2580,,65.6020822195664,22.1312264406241
9811901,KÄNGSÖVÄGEN KATTHEDSVÄGEN,,RÅNEÅ 84:1,KÄNGSÖVÄGEN,2580,,65.855633006665,22.292427994765
9811908,ARCUS PARKERING,,KARLSVIK 1:1,ARCUSVÄGEN,2580,,65.5961970105092,22.0632520076838
9811909,RÅNEÅ ÅVC,,RÅNEÅ 2:38,SÖRSIDAN 2,2580,,65.8496306680834,22.2767505158569
9811912,MEDBORGARHUSET,,MÅTTSUND 1:11,KLÄPPVÄGEN 41,2580,,65.532437706426,21.9206174513621
9811914,ALVIK BYGDEGÅRD,,ALVIK 3:14,ALVIKSVÄGEN,2580,,65.5731220062645,21.7741469924119
9811915,KLÖVERTRÄSK BYAHUS,,KLÖVERTRÄSK 1:15,KLÖVERTRÄSK BYAVÄG,2580,,65.6340380048754,21.4035730076074
9811916,BILVERKSTAD,,BÄLINGE 1:18,BÄLINGEVÄGEN,2580,,65.6307760984269,21.9254118309825
9811921,NIEMISEL STORA GRUSPLAN,,NIEMISEL 7:94,TRUMSELSVÄGEN 2,2580,,66.0218246831859,21.9869073447023
9811922,ANTNÄS SPORTHALL,,ANTNÄS 1:29,SPORTHALLSVÄGEN,2580,,65.555925006005,21.8314779916688
9811926,KYRKBYN BRANDSTATION,,GAMMELSTADEN 26:6,LULEVÄGEN 16,2580,,65.6419717516523,22.0338690369159
9811932,HÖGSÖ BYGDEGÅRD,,HÖGSÖN 2:11,GAMLA HÖGSÖVÄGEN,2580,,65.8989455027025,22.4469106642446
9811937,LULSUNDET TRUPPVÄGEN,,BJÖRKSKATAN 7:25,TRUPPVÄGEN,2580,,65.6008880074496,22.1847729918813
9811940,SMÅBÅTSHAMNEN,,SVARTÖSTADEN 13:32,FINNSKÄRSGATAN 2,2580,,65.5601052181751,22.1968166672311
040106,"Piteå, Folkets hus",,,Olof Palmes gata 3,2581,,65.32212,21.487923
040112,"Piteå, Västra kajen",,,Kolugnsvägen/Västra Kajvägen,2581,,65.31555,21.46722
070805,Djupviken,,,Aborrgatan 1,2581,,65.33452,21.4771
120576,Munksund,,,Järnvägsgatan 2,2581,,65.286903,21.506253
200527,"Strömnäs, Nordlunda IP",,,Ringiusvägen 4,2581,,65.310305,21.50149
680875,Bergsviken,,,Idrottsvägen 1,2581,,65.30313,21.398585
750245,Blåsmark,,,Igeltjärnsvägen,2581,,65.26608,21.29717
820894,Norrfjärden,,,Porsnästorget 1,2581,,65.42171,21.49708
100,Stora Coop,,BODEN 49:4,Kungsgatan 42,2582,,65.8262885888222,21.6854154469048
110,Prästholmen Prinsgatan,,ÄGIR 1,Prinsgatan,2582,,65.8307603829472,21.6988791172172
120,Prästholmen Iduns,,BODEN 5:90,Iduns Väg,2582,,65.8348330145087,21.7019163615285
150,Sveafältet,,BODEN 56:44,Drottninggatan 41,2582,,65.8192607238742,21.6732900480468
230,Södra svartbyn,,SVARTBYN 1:128,Gamla Lulevägen/Gideons väg,2582,,65.7978319634845,21.7395239388092
300,Heden ,,HEDEN 6:47,Glimmervägen,2582,,65.8160451569058,21.5839657595523
320,Brännberg,,BRÄNNBERG 100:2,Brännberg,2582,,65.7849892419624,21.2263474410706
410,Buddbygården,,BUDDBYN 3:46,Gamla buddbyvägen,2582,,65.879526008989,21.6881876325847
430,Lakaträsk,,DJUPSJÖ 3:98,Lakaträsk 216,2582,,66.2766027906736,21.1238630391801
610,Skogså,,URFJÄLLET 1:4,Skogså,2582,,65.8733048090129,21.8783644171169
700,Vittjärv,,VITTJÄRV 2:99,Skjutbanevägen,2582,,65.849103725838,21.5986055232623
730,Storklinten,,HAVSTRÄSK 1:21,Storklinten,2582,,66.0197122171971,21.2421922103597
810,Bodforsen,,BODFORSEN 2:25,Bodforsen,2582,,65.8083870529912,21.6669665705047
15782,"Jukkasjärvi, Folkets hus",,Jukkasjärvi 13:3,Slöjdvägen,2584,,67.84861,20.61472
15995,"Abisko, Abisko ÅVC",,Abisko 1:22,Träskvägen 35,2584,,68.351861,18.834256
16268,"Vittangi, Gästisvägen",,Vittangi 66:21,Gästisvägen 25,2584,,67.67556,21.63944
17175,"Kiruna, Tarfalaparkeringen",,Tarfala 1,Tarfalavägen 4,2584,,67.83818,20.290024
8449,"Karesuando, Reningsverket",,Karesuando 23:2,Reningsverket,2584,,68.43944,22.46667
8451,"Kiruna, Movägen",,Lombolo 12:1,Movägen,2584,,67.83806,20.26
8456,"Kiruna, Schouggatan",,Bolaget 11:2,Schouggatan,2584,,67.845147,20.238259
8460,"Tuolluvaara, Borgen",,Tuolluvaara 1:1,Borgenvägen 1,2584,,67.84944,20.32944
8462,"Övre Soppero, Päiviös Styckeri",,,S. Vägkorsningen,2584,,68.08556,21.70694
